<?xml version="1.0" encoding="UTF-8"?>
<gpx version="1.1" creator="TurboSanta Route Planner">
  <trk>
    <name>TurboSanta Route (10m density)</name>
    <trkseg>
      <trkpt lat="53.7455330" lon="-3.0171130">
        <name>Balmoral Road</name>
      </trkpt>
      <trkpt lat="53.7456113" lon="-3.0170617">
        <name>Balmoral Road</name>
      </trkpt>
      <trkpt lat="53.7456897" lon="-3.0170103">
        <name>Balmoral Road</name>
      </trkpt>
      <trkpt lat="53.7457680" lon="-3.0169590">
        <name>Balmoral Road</name>
      </trkpt>
      <trkpt lat="53.7458492" lon="-3.0168994">
        <name>Balmoral Road</name>
      </trkpt>
      <trkpt lat="53.7459303" lon="-3.0168398">
        <name>Balmoral Road</name>
      </trkpt>
      <trkpt lat="53.7460115" lon="-3.0167803">
        <name>Balmoral Road</name>
      </trkpt>
      <trkpt lat="53.7460927" lon="-3.0167207">
        <name>Balmoral Road</name>
      </trkpt>
      <trkpt lat="53.7461738" lon="-3.0166611">
        <name>Balmoral Road</name>
      </trkpt>
      <trkpt lat="53.7462550" lon="-3.0166015">
        <name>Balmoral Road</name>
      </trkpt>
      <trkpt lat="53.7463362" lon="-3.0165419">
        <name>Balmoral Road</name>
      </trkpt>
      <trkpt lat="53.7464173" lon="-3.0164823">
        <name>Balmoral Road</name>
      </trkpt>
      <trkpt lat="53.7464985" lon="-3.0164227">
        <name>Balmoral Road</name>
      </trkpt>
      <trkpt lat="53.7465797" lon="-3.0163632">
        <name>Balmoral Road</name>
      </trkpt>
      <trkpt lat="53.7466608" lon="-3.0163036">
        <name>Balmoral Road</name>
      </trkpt>
      <trkpt lat="53.7467420" lon="-3.0162440">
        <name>Balmoral Road</name>
      </trkpt>
      <trkpt lat="53.7468096" lon="-3.0161942">
        <name>Balmoral Road</name>
      </trkpt>
      <trkpt lat="53.7468772" lon="-3.0161444">
        <name>Balmoral Road</name>
      </trkpt>
      <trkpt lat="53.7469448" lon="-3.0160946">
        <name>Balmoral Road</name>
      </trkpt>
      <trkpt lat="53.7470124" lon="-3.0160448">
        <name>Balmoral Road</name>
      </trkpt>
      <trkpt lat="53.7470800" lon="-3.0159950">
        <name>Balmoral Road</name>
      </trkpt>
      <trkpt lat="53.7470397" lon="-3.0158668">
        <name>St Andrew's Road South</name>
      </trkpt>
      <trkpt lat="53.7469993" lon="-3.0157387">
        <name>St Andrew's Road South</name>
      </trkpt>
      <trkpt lat="53.7469590" lon="-3.0156105">
        <name>St Andrew's Road South</name>
      </trkpt>
      <trkpt lat="53.7469187" lon="-3.0154823">
        <name>St Andrew's Road South</name>
      </trkpt>
      <trkpt lat="53.7468783" lon="-3.0153542">
        <name>St Andrew's Road South</name>
      </trkpt>
      <trkpt lat="53.7468380" lon="-3.0152260">
        <name>St Andrew's Road South</name>
      </trkpt>
      <trkpt lat="53.7467970" lon="-3.0150956">
        <name>St Andrew's Road South</name>
      </trkpt>
      <trkpt lat="53.7467560" lon="-3.0149652">
        <name>St Andrew's Road South</name>
      </trkpt>
      <trkpt lat="53.7467150" lon="-3.0148348">
        <name>St Andrew's Road South</name>
      </trkpt>
      <trkpt lat="53.7466740" lon="-3.0147044">
        <name>St Andrew's Road South</name>
      </trkpt>
      <trkpt lat="53.7466330" lon="-3.0145740">
        <name>St Andrew's Road South</name>
      </trkpt>
      <trkpt lat="53.7465546" lon="-3.0146264">
        <name>St Andrew's Road South</name>
      </trkpt>
      <trkpt lat="53.7464761" lon="-3.0146789">
        <name>St Andrew's Road South</name>
      </trkpt>
      <trkpt lat="53.7463977" lon="-3.0147313">
        <name>St Andrew's Road South</name>
      </trkpt>
      <trkpt lat="53.7463192" lon="-3.0147838">
        <name>St Andrew's Road South</name>
      </trkpt>
      <trkpt lat="53.7462408" lon="-3.0148362">
        <name>St Andrew's Road South</name>
      </trkpt>
      <trkpt lat="53.7461624" lon="-3.0148886">
        <name>St Andrew's Road South</name>
      </trkpt>
      <trkpt lat="53.7460839" lon="-3.0149411">
        <name>St Andrew's Road South</name>
      </trkpt>
      <trkpt lat="53.7460055" lon="-3.0149935">
        <name>St Andrew's Road South</name>
      </trkpt>
      <trkpt lat="53.7459271" lon="-3.0150459">
        <name>St Andrew's Road South</name>
      </trkpt>
      <trkpt lat="53.7458486" lon="-3.0150984">
        <name>St Andrew's Road South</name>
      </trkpt>
      <trkpt lat="53.7457702" lon="-3.0151508">
        <name>St Andrew's Road South</name>
      </trkpt>
      <trkpt lat="53.7456918" lon="-3.0152032">
        <name>St Andrew's Road South</name>
      </trkpt>
      <trkpt lat="53.7456133" lon="-3.0152557">
        <name>St Andrew's Road South</name>
      </trkpt>
      <trkpt lat="53.7455349" lon="-3.0153081">
        <name>St Andrew's Road South</name>
      </trkpt>
      <trkpt lat="53.7454564" lon="-3.0153606">
        <name>St Andrew's Road South</name>
      </trkpt>
      <trkpt lat="53.7453780" lon="-3.0154130">
        <name>St Andrew's Road South</name>
      </trkpt>
      <trkpt lat="53.7453123" lon="-3.0154567">
        <name>St Andrew's Road South</name>
      </trkpt>
      <trkpt lat="53.7452467" lon="-3.0155003">
        <name>St Andrew's Road South</name>
      </trkpt>
      <trkpt lat="53.7451810" lon="-3.0155440">
        <name>St Andrew's Road South</name>
      </trkpt>
      <trkpt lat="53.7451137" lon="-3.0155890">
        <name>St Andrew's Road South</name>
      </trkpt>
      <trkpt lat="53.7450463" lon="-3.0156340">
        <name>St Andrew's Road South</name>
      </trkpt>
      <trkpt lat="53.7449790" lon="-3.0156790">
        <name>St Andrew's Road South</name>
      </trkpt>
      <trkpt lat="53.7449180" lon="-3.0157230">
        <name>St Andrew's Road South</name>
      </trkpt>
      <trkpt lat="53.7449485" lon="-3.0158433">
        <name>Windsor Road</name>
      </trkpt>
      <trkpt lat="53.7449790" lon="-3.0159635">
        <name>Windsor Road</name>
      </trkpt>
      <trkpt lat="53.7450095" lon="-3.0160837">
        <name>Windsor Road</name>
      </trkpt>
      <trkpt lat="53.7450400" lon="-3.0162040">
        <name>Windsor Road</name>
      </trkpt>
      <trkpt lat="53.7450720" lon="-3.0163300">
        <name>Windsor Road</name>
      </trkpt>
      <trkpt lat="53.7451040" lon="-3.0164560">
        <name>Windsor Road</name>
      </trkpt>
      <trkpt lat="53.7451353" lon="-3.0165883">
        <name>Windsor Road</name>
      </trkpt>
      <trkpt lat="53.7451667" lon="-3.0167207">
        <name>Windsor Road</name>
      </trkpt>
      <trkpt lat="53.7451980" lon="-3.0168530">
        <name>Windsor Road</name>
      </trkpt>
      <trkpt lat="53.7452310" lon="-3.0169910">
        <name>Windsor Road</name>
      </trkpt>
      <trkpt lat="53.7452640" lon="-3.0171290">
        <name>Windsor Road</name>
      </trkpt>
      <trkpt lat="53.7452970" lon="-3.0172670">
        <name>Windsor Road</name>
      </trkpt>
      <trkpt lat="53.7453277" lon="-3.0173970">
        <name>Windsor Road</name>
      </trkpt>
      <trkpt lat="53.7453583" lon="-3.0175270">
        <name>Windsor Road</name>
      </trkpt>
      <trkpt lat="53.7453890" lon="-3.0176570">
        <name>Windsor Road</name>
      </trkpt>
      <trkpt lat="53.7453138" lon="-3.0177084">
        <name>Windsor Road</name>
      </trkpt>
      <trkpt lat="53.7452386" lon="-3.0177598">
        <name>Windsor Road</name>
      </trkpt>
      <trkpt lat="53.7451634" lon="-3.0178112">
        <name>Windsor Road</name>
      </trkpt>
      <trkpt lat="53.7450882" lon="-3.0178626">
        <name>Windsor Road</name>
      </trkpt>
      <trkpt lat="53.7450130" lon="-3.0179140">
        <name>Windsor Road</name>
      </trkpt>
      <trkpt lat="53.7449442" lon="-3.0179610">
        <name>Windsor Road</name>
      </trkpt>
      <trkpt lat="53.7448754" lon="-3.0180080">
        <name>Windsor Road</name>
      </trkpt>
      <trkpt lat="53.7448066" lon="-3.0180550">
        <name>Windsor Road</name>
      </trkpt>
      <trkpt lat="53.7447378" lon="-3.0181020">
        <name>Windsor Road</name>
      </trkpt>
      <trkpt lat="53.7446690" lon="-3.0181490">
        <name>Windsor Road</name>
      </trkpt>
      <trkpt lat="53.7446378" lon="-3.0180174">
        <name>Windsor Road</name>
      </trkpt>
      <trkpt lat="53.7446065" lon="-3.0178858">
        <name>Windsor Road</name>
      </trkpt>
      <trkpt lat="53.7445753" lon="-3.0177542">
        <name>Windsor Road</name>
      </trkpt>
      <trkpt lat="53.7445441" lon="-3.0176225">
        <name>Windsor Road</name>
      </trkpt>
      <trkpt lat="53.7445128" lon="-3.0174909">
        <name>Windsor Road</name>
      </trkpt>
      <trkpt lat="53.7444816" lon="-3.0173593">
        <name>Windsor Road</name>
      </trkpt>
      <trkpt lat="53.7444504" lon="-3.0172277">
        <name>Windsor Road</name>
      </trkpt>
      <trkpt lat="53.7444192" lon="-3.0170961">
        <name>Windsor Road</name>
      </trkpt>
      <trkpt lat="53.7443879" lon="-3.0169645">
        <name>Windsor Road</name>
      </trkpt>
      <trkpt lat="53.7443567" lon="-3.0168328">
        <name>Windsor Road</name>
      </trkpt>
      <trkpt lat="53.7443255" lon="-3.0167012">
        <name>Windsor Road</name>
      </trkpt>
      <trkpt lat="53.7442942" lon="-3.0165696">
        <name>Windsor Road</name>
      </trkpt>
      <trkpt lat="53.7442630" lon="-3.0164380">
        <name>Windsor Road</name>
      </trkpt>
      <trkpt lat="53.7442327" lon="-3.0163100">
        <name>Clifton Drive South</name>
      </trkpt>
      <trkpt lat="53.7442023" lon="-3.0161820">
        <name>Clifton Drive South</name>
      </trkpt>
      <trkpt lat="53.7441720" lon="-3.0160540">
        <name>Clifton Drive South</name>
      </trkpt>
      <trkpt lat="53.7441417" lon="-3.0159260">
        <name>Clifton Drive South</name>
      </trkpt>
      <trkpt lat="53.7441113" lon="-3.0157980">
        <name>Clifton Drive South</name>
      </trkpt>
      <trkpt lat="53.7440810" lon="-3.0156700">
        <name>Clifton Drive South</name>
      </trkpt>
      <trkpt lat="53.7440507" lon="-3.0155420">
        <name>Clifton Drive South</name>
      </trkpt>
      <trkpt lat="53.7440203" lon="-3.0154140">
        <name>Clifton Drive South</name>
      </trkpt>
      <trkpt lat="53.7439900" lon="-3.0152860">
        <name>Clifton Drive South</name>
      </trkpt>
      <trkpt lat="53.7439600" lon="-3.0153070">
        <name>Clifton Drive South</name>
      </trkpt>
      <trkpt lat="53.7439270" lon="-3.0151714">
        <name>Clifton Drive South</name>
      </trkpt>
      <trkpt lat="53.7438940" lon="-3.0150358">
        <name>Clifton Drive South</name>
      </trkpt>
      <trkpt lat="53.7438610" lon="-3.0149001">
        <name>Clifton Drive South</name>
      </trkpt>
      <trkpt lat="53.7438280" lon="-3.0147645">
        <name>Clifton Drive South</name>
      </trkpt>
      <trkpt lat="53.7437950" lon="-3.0146289">
        <name>Clifton Drive South</name>
      </trkpt>
      <trkpt lat="53.7437620" lon="-3.0144933">
        <name>Clifton Drive South</name>
      </trkpt>
      <trkpt lat="53.7437290" lon="-3.0143576">
        <name>Clifton Drive South</name>
      </trkpt>
      <trkpt lat="53.7436960" lon="-3.0142220">
        <name>Clifton Drive South</name>
      </trkpt>
      <trkpt lat="53.7436630" lon="-3.0140864">
        <name>Clifton Drive South</name>
      </trkpt>
      <trkpt lat="53.7436300" lon="-3.0139507">
        <name>Clifton Drive South</name>
      </trkpt>
      <trkpt lat="53.7435970" lon="-3.0138151">
        <name>Clifton Drive South</name>
      </trkpt>
      <trkpt lat="53.7435640" lon="-3.0136795">
        <name>Clifton Drive South</name>
      </trkpt>
      <trkpt lat="53.7435310" lon="-3.0135439">
        <name>Clifton Drive South</name>
      </trkpt>
      <trkpt lat="53.7434980" lon="-3.0134082">
        <name>Clifton Drive South</name>
      </trkpt>
      <trkpt lat="53.7434650" lon="-3.0132726">
        <name>Clifton Drive South</name>
      </trkpt>
      <trkpt lat="53.7434320" lon="-3.0131370">
        <name>Clifton Drive South</name>
      </trkpt>
      <trkpt lat="53.7433997" lon="-3.0130045">
        <name>Clifton Drive South</name>
      </trkpt>
      <trkpt lat="53.7433675" lon="-3.0128720">
        <name>Clifton Drive South</name>
      </trkpt>
      <trkpt lat="53.7433353" lon="-3.0127395">
        <name>Clifton Drive South</name>
      </trkpt>
      <trkpt lat="53.7433030" lon="-3.0126070">
        <name>Clifton Drive South</name>
      </trkpt>
      <trkpt lat="53.7432245" lon="-3.0126580">
        <name>Clifton Drive South</name>
      </trkpt>
      <trkpt lat="53.7431460" lon="-3.0127090">
        <name>Clifton Drive South</name>
      </trkpt>
      <trkpt lat="53.7430718" lon="-3.0127593">
        <name>Clifton Drive South</name>
      </trkpt>
      <trkpt lat="53.7429977" lon="-3.0128097">
        <name>Clifton Drive South</name>
      </trkpt>
      <trkpt lat="53.7429235" lon="-3.0128600">
        <name>Clifton Drive South</name>
      </trkpt>
      <trkpt lat="53.7428493" lon="-3.0129103">
        <name>Clifton Drive South</name>
      </trkpt>
      <trkpt lat="53.7427752" lon="-3.0129607">
        <name>Clifton Drive South</name>
      </trkpt>
      <trkpt lat="53.7427010" lon="-3.0130110">
        <name>Clifton Drive South</name>
      </trkpt>
      <trkpt lat="53.7427323" lon="-3.0131417">
        <name>Hungerford Road</name>
      </trkpt>
      <trkpt lat="53.7427636" lon="-3.0132724">
        <name>Hungerford Road</name>
      </trkpt>
      <trkpt lat="53.7427949" lon="-3.0134031">
        <name>Hungerford Road</name>
      </trkpt>
      <trkpt lat="53.7428261" lon="-3.0135339">
        <name>Hungerford Road</name>
      </trkpt>
      <trkpt lat="53.7428574" lon="-3.0136646">
        <name>Hungerford Road</name>
      </trkpt>
      <trkpt lat="53.7428887" lon="-3.0137953">
        <name>Hungerford Road</name>
      </trkpt>
      <trkpt lat="53.7429200" lon="-3.0139260">
        <name>Hungerford Road</name>
      </trkpt>
      <trkpt lat="53.7429532" lon="-3.0140651">
        <name>Hungerford Road</name>
      </trkpt>
      <trkpt lat="53.7429865" lon="-3.0142042">
        <name>Hungerford Road</name>
      </trkpt>
      <trkpt lat="53.7430197" lon="-3.0143432">
        <name>Hungerford Road</name>
      </trkpt>
      <trkpt lat="53.7430529" lon="-3.0144823">
        <name>Hungerford Road</name>
      </trkpt>
      <trkpt lat="53.7430862" lon="-3.0146214">
        <name>Hungerford Road</name>
      </trkpt>
      <trkpt lat="53.7431194" lon="-3.0147605">
        <name>Hungerford Road</name>
      </trkpt>
      <trkpt lat="53.7431526" lon="-3.0148995">
        <name>Hungerford Road</name>
      </trkpt>
      <trkpt lat="53.7431858" lon="-3.0150386">
        <name>Hungerford Road</name>
      </trkpt>
      <trkpt lat="53.7432191" lon="-3.0151777">
        <name>Hungerford Road</name>
      </trkpt>
      <trkpt lat="53.7432523" lon="-3.0153168">
        <name>Hungerford Road</name>
      </trkpt>
      <trkpt lat="53.7432855" lon="-3.0154558">
        <name>Hungerford Road</name>
      </trkpt>
      <trkpt lat="53.7433188" lon="-3.0155949">
        <name>Hungerford Road</name>
      </trkpt>
      <trkpt lat="53.7433520" lon="-3.0157340">
        <name>Hungerford Road</name>
      </trkpt>
      <trkpt lat="53.7433831" lon="-3.0158667">
        <name>Hungerford Road</name>
      </trkpt>
      <trkpt lat="53.7434142" lon="-3.0159994">
        <name>Hungerford Road</name>
      </trkpt>
      <trkpt lat="53.7434452" lon="-3.0161321">
        <name>Hungerford Road</name>
      </trkpt>
      <trkpt lat="53.7434763" lon="-3.0162648">
        <name>Hungerford Road</name>
      </trkpt>
      <trkpt lat="53.7435074" lon="-3.0163975">
        <name>Hungerford Road</name>
      </trkpt>
      <trkpt lat="53.7435385" lon="-3.0165302">
        <name>Hungerford Road</name>
      </trkpt>
      <trkpt lat="53.7435695" lon="-3.0166628">
        <name>Hungerford Road</name>
      </trkpt>
      <trkpt lat="53.7436006" lon="-3.0167955">
        <name>Hungerford Road</name>
      </trkpt>
      <trkpt lat="53.7436317" lon="-3.0169282">
        <name>Hungerford Road</name>
      </trkpt>
      <trkpt lat="53.7436628" lon="-3.0170609">
        <name>Hungerford Road</name>
      </trkpt>
      <trkpt lat="53.7436938" lon="-3.0171936">
        <name>Hungerford Road</name>
      </trkpt>
      <trkpt lat="53.7437249" lon="-3.0173263">
        <name>Hungerford Road</name>
      </trkpt>
      <trkpt lat="53.7437560" lon="-3.0174590">
        <name>Hungerford Road</name>
      </trkpt>
      <trkpt lat="53.7437862" lon="-3.0175878">
        <name>Hungerford Road</name>
      </trkpt>
      <trkpt lat="53.7438165" lon="-3.0177165">
        <name>Hungerford Road</name>
      </trkpt>
      <trkpt lat="53.7438467" lon="-3.0178453">
        <name>Hungerford Road</name>
      </trkpt>
      <trkpt lat="53.7438770" lon="-3.0179740">
        <name>Hungerford Road</name>
      </trkpt>
      <trkpt lat="53.7438028" lon="-3.0180242">
        <name>Hungerford Road</name>
      </trkpt>
      <trkpt lat="53.7437285" lon="-3.0180745">
        <name>Hungerford Road</name>
      </trkpt>
      <trkpt lat="53.7436542" lon="-3.0181248">
        <name>Hungerford Road</name>
      </trkpt>
      <trkpt lat="53.7435800" lon="-3.0181750">
        <name>Hungerford Road</name>
      </trkpt>
      <trkpt lat="53.7435086" lon="-3.0182232">
        <name>Hungerford Road</name>
      </trkpt>
      <trkpt lat="53.7434372" lon="-3.0182714">
        <name>Hungerford Road</name>
      </trkpt>
      <trkpt lat="53.7433658" lon="-3.0183196">
        <name>Hungerford Road</name>
      </trkpt>
      <trkpt lat="53.7432944" lon="-3.0183678">
        <name>Hungerford Road</name>
      </trkpt>
      <trkpt lat="53.7432230" lon="-3.0184160">
        <name>Hungerford Road</name>
      </trkpt>
      <trkpt lat="53.7431899" lon="-3.0182769">
        <name>Laverton Road</name>
      </trkpt>
      <trkpt lat="53.7431569" lon="-3.0181378">
        <name>Laverton Road</name>
      </trkpt>
      <trkpt lat="53.7431238" lon="-3.0179986">
        <name>Laverton Road</name>
      </trkpt>
      <trkpt lat="53.7430908" lon="-3.0178595">
        <name>Laverton Road</name>
      </trkpt>
      <trkpt lat="53.7430577" lon="-3.0177204">
        <name>Laverton Road</name>
      </trkpt>
      <trkpt lat="53.7430246" lon="-3.0175813">
        <name>Laverton Road</name>
      </trkpt>
      <trkpt lat="53.7429916" lon="-3.0174421">
        <name>Laverton Road</name>
      </trkpt>
      <trkpt lat="53.7429585" lon="-3.0173030">
        <name>Laverton Road</name>
      </trkpt>
      <trkpt lat="53.7429254" lon="-3.0171639">
        <name>Laverton Road</name>
      </trkpt>
      <trkpt lat="53.7428924" lon="-3.0170248">
        <name>Laverton Road</name>
      </trkpt>
      <trkpt lat="53.7428593" lon="-3.0168856">
        <name>Laverton Road</name>
      </trkpt>
      <trkpt lat="53.7428263" lon="-3.0167465">
        <name>Laverton Road</name>
      </trkpt>
      <trkpt lat="53.7427932" lon="-3.0166074">
        <name>Laverton Road</name>
      </trkpt>
      <trkpt lat="53.7427601" lon="-3.0164682">
        <name>Laverton Road</name>
      </trkpt>
      <trkpt lat="53.7427271" lon="-3.0163291">
        <name>Laverton Road</name>
      </trkpt>
      <trkpt lat="53.7426940" lon="-3.0161900">
        <name>Laverton Road</name>
      </trkpt>
      <trkpt lat="53.7426613" lon="-3.0160545">
        <name>Laverton Road</name>
      </trkpt>
      <trkpt lat="53.7426287" lon="-3.0159189">
        <name>Laverton Road</name>
      </trkpt>
      <trkpt lat="53.7425960" lon="-3.0157834">
        <name>Laverton Road</name>
      </trkpt>
      <trkpt lat="53.7425633" lon="-3.0156479">
        <name>Laverton Road</name>
      </trkpt>
      <trkpt lat="53.7425307" lon="-3.0155123">
        <name>Laverton Road</name>
      </trkpt>
      <trkpt lat="53.7424980" lon="-3.0153768">
        <name>Laverton Road</name>
      </trkpt>
      <trkpt lat="53.7424653" lon="-3.0152413">
        <name>Laverton Road</name>
      </trkpt>
      <trkpt lat="53.7424327" lon="-3.0151057">
        <name>Laverton Road</name>
      </trkpt>
      <trkpt lat="53.7424000" lon="-3.0149702">
        <name>Laverton Road</name>
      </trkpt>
      <trkpt lat="53.7423673" lon="-3.0148347">
        <name>Laverton Road</name>
      </trkpt>
      <trkpt lat="53.7423347" lon="-3.0146991">
        <name>Laverton Road</name>
      </trkpt>
      <trkpt lat="53.7423020" lon="-3.0145636">
        <name>Laverton Road</name>
      </trkpt>
      <trkpt lat="53.7422693" lon="-3.0144281">
        <name>Laverton Road</name>
      </trkpt>
      <trkpt lat="53.7422367" lon="-3.0142925">
        <name>Laverton Road</name>
      </trkpt>
      <trkpt lat="53.7422040" lon="-3.0141570">
        <name>Laverton Road</name>
      </trkpt>
      <trkpt lat="53.7421710" lon="-3.0140198">
        <name>Laverton Road</name>
      </trkpt>
      <trkpt lat="53.7421380" lon="-3.0138826">
        <name>Laverton Road</name>
      </trkpt>
      <trkpt lat="53.7421050" lon="-3.0137454">
        <name>Laverton Road</name>
      </trkpt>
      <trkpt lat="53.7420720" lon="-3.0136082">
        <name>Laverton Road</name>
      </trkpt>
      <trkpt lat="53.7420390" lon="-3.0134710">
        <name>Laverton Road</name>
      </trkpt>
      <trkpt lat="53.7419601" lon="-3.0135231">
        <name>Laverton Road</name>
      </trkpt>
      <trkpt lat="53.7418812" lon="-3.0135753">
        <name>Laverton Road</name>
      </trkpt>
      <trkpt lat="53.7418024" lon="-3.0136274">
        <name>Laverton Road</name>
      </trkpt>
      <trkpt lat="53.7417235" lon="-3.0136795">
        <name>Laverton Road</name>
      </trkpt>
      <trkpt lat="53.7416446" lon="-3.0137316">
        <name>Laverton Road</name>
      </trkpt>
      <trkpt lat="53.7415657" lon="-3.0137837">
        <name>Laverton Road</name>
      </trkpt>
      <trkpt lat="53.7414869" lon="-3.0138359">
        <name>Laverton Road</name>
      </trkpt>
      <trkpt lat="53.7414080" lon="-3.0138880">
        <name>Laverton Road</name>
      </trkpt>
      <trkpt lat="53.7414379" lon="-3.0140180">
        <name>Laverton Road</name>
      </trkpt>
      <trkpt lat="53.7414678" lon="-3.0141480">
        <name>Laverton Road</name>
      </trkpt>
      <trkpt lat="53.7414978" lon="-3.0142780">
        <name>Laverton Road</name>
      </trkpt>
      <trkpt lat="53.7415277" lon="-3.0144080">
        <name>Laverton Road</name>
      </trkpt>
      <trkpt lat="53.7415576" lon="-3.0145380">
        <name>Laverton Road</name>
      </trkpt>
      <trkpt lat="53.7415875" lon="-3.0146680">
        <name>Laverton Road</name>
      </trkpt>
      <trkpt lat="53.7416174" lon="-3.0147980">
        <name>Laverton Road</name>
      </trkpt>
      <trkpt lat="53.7416473" lon="-3.0149280">
        <name>Laverton Road</name>
      </trkpt>
      <trkpt lat="53.7416773" lon="-3.0150580">
        <name>Laverton Road</name>
      </trkpt>
      <trkpt lat="53.7417072" lon="-3.0151880">
        <name>Laverton Road</name>
      </trkpt>
      <trkpt lat="53.7417371" lon="-3.0153180">
        <name>Laverton Road</name>
      </trkpt>
      <trkpt lat="53.7417670" lon="-3.0154480">
        <name>Laverton Road</name>
      </trkpt>
      <trkpt lat="53.7417974" lon="-3.0155799">
        <name>Laverton Road</name>
      </trkpt>
      <trkpt lat="53.7418279" lon="-3.0157118">
        <name>Laverton Road</name>
      </trkpt>
      <trkpt lat="53.7418583" lon="-3.0158437">
        <name>Laverton Road</name>
      </trkpt>
      <trkpt lat="53.7418888" lon="-3.0159756">
        <name>Laverton Road</name>
      </trkpt>
      <trkpt lat="53.7419192" lon="-3.0161074">
        <name>Laverton Road</name>
      </trkpt>
      <trkpt lat="53.7419497" lon="-3.0162393">
        <name>Laverton Road</name>
      </trkpt>
      <trkpt lat="53.7419801" lon="-3.0163712">
        <name>Laverton Road</name>
      </trkpt>
      <trkpt lat="53.7420106" lon="-3.0165031">
        <name>Laverton Road</name>
      </trkpt>
      <trkpt lat="53.7420410" lon="-3.0166350">
        <name>Laverton Road</name>
      </trkpt>
      <trkpt lat="53.7419600" lon="-3.0166925">
        <name>Denford Avenue</name>
      </trkpt>
      <trkpt lat="53.7418790" lon="-3.0167500">
        <name>Denford Avenue</name>
      </trkpt>
      <trkpt lat="53.7417980" lon="-3.0168075">
        <name>Denford Avenue</name>
      </trkpt>
      <trkpt lat="53.7417170" lon="-3.0168650">
        <name>Denford Avenue</name>
      </trkpt>
      <trkpt lat="53.7416444" lon="-3.0169166">
        <name>Denford Avenue</name>
      </trkpt>
      <trkpt lat="53.7415719" lon="-3.0169681">
        <name>Denford Avenue</name>
      </trkpt>
      <trkpt lat="53.7414993" lon="-3.0170197">
        <name>Denford Avenue</name>
      </trkpt>
      <trkpt lat="53.7414267" lon="-3.0170713">
        <name>Denford Avenue</name>
      </trkpt>
      <trkpt lat="53.7413541" lon="-3.0171229">
        <name>Denford Avenue</name>
      </trkpt>
      <trkpt lat="53.7412816" lon="-3.0171744">
        <name>Denford Avenue</name>
      </trkpt>
      <trkpt lat="53.7412090" lon="-3.0172260">
        <name>Denford Avenue</name>
      </trkpt>
      <trkpt lat="53.7412487" lon="-3.0173535">
        <name>Laverton Road</name>
      </trkpt>
      <trkpt lat="53.7412884" lon="-3.0174810">
        <name>Laverton Road</name>
      </trkpt>
      <trkpt lat="53.7413281" lon="-3.0176085">
        <name>Laverton Road</name>
      </trkpt>
      <trkpt lat="53.7413679" lon="-3.0177360">
        <name>Laverton Road</name>
      </trkpt>
      <trkpt lat="53.7414076" lon="-3.0178635">
        <name>Laverton Road</name>
      </trkpt>
      <trkpt lat="53.7414473" lon="-3.0179910">
        <name>Laverton Road</name>
      </trkpt>
      <trkpt lat="53.7414870" lon="-3.0181185">
        <name>Laverton Road</name>
      </trkpt>
      <trkpt lat="53.7415267" lon="-3.0182460">
        <name>Laverton Road</name>
      </trkpt>
      <trkpt lat="53.7415664" lon="-3.0183735">
        <name>Laverton Road</name>
      </trkpt>
      <trkpt lat="53.7416061" lon="-3.0185010">
        <name>Laverton Road</name>
      </trkpt>
      <trkpt lat="53.7416459" lon="-3.0186285">
        <name>Laverton Road</name>
      </trkpt>
      <trkpt lat="53.7416856" lon="-3.0187560">
        <name>Laverton Road</name>
      </trkpt>
      <trkpt lat="53.7417253" lon="-3.0188835">
        <name>Laverton Road</name>
      </trkpt>
      <trkpt lat="53.7417650" lon="-3.0190110">
        <name>Laverton Road</name>
      </trkpt>
      <trkpt lat="53.7418065" lon="-3.0191252">
        <name>Laverton Road</name>
      </trkpt>
      <trkpt lat="53.7418480" lon="-3.0192393">
        <name>Laverton Road</name>
      </trkpt>
      <trkpt lat="53.7418895" lon="-3.0193535">
        <name>Laverton Road</name>
      </trkpt>
      <trkpt lat="53.7419310" lon="-3.0194677">
        <name>Laverton Road</name>
      </trkpt>
      <trkpt lat="53.7419725" lon="-3.0195818">
        <name>Laverton Road</name>
      </trkpt>
      <trkpt lat="53.7420140" lon="-3.0196960">
        <name>Laverton Road</name>
      </trkpt>
      <trkpt lat="53.7420576" lon="-3.0198160">
        <name>Laverton Road</name>
      </trkpt>
      <trkpt lat="53.7421013" lon="-3.0199360">
        <name>Laverton Road</name>
      </trkpt>
      <trkpt lat="53.7421449" lon="-3.0200560">
        <name>Laverton Road</name>
      </trkpt>
      <trkpt lat="53.7421885" lon="-3.0201760">
        <name>Laverton Road</name>
      </trkpt>
      <trkpt lat="53.7422322" lon="-3.0202960">
        <name>Laverton Road</name>
      </trkpt>
      <trkpt lat="53.7422758" lon="-3.0204160">
        <name>Laverton Road</name>
      </trkpt>
      <trkpt lat="53.7423195" lon="-3.0205360">
        <name>Laverton Road</name>
      </trkpt>
      <trkpt lat="53.7423631" lon="-3.0206560">
        <name>Laverton Road</name>
      </trkpt>
      <trkpt lat="53.7424067" lon="-3.0207760">
        <name>Laverton Road</name>
      </trkpt>
      <trkpt lat="53.7424504" lon="-3.0208960">
        <name>Laverton Road</name>
      </trkpt>
      <trkpt lat="53.7424940" lon="-3.0210160">
        <name>Laverton Road</name>
      </trkpt>
      <trkpt lat="53.7425560" lon="-3.0209720">
        <name>Laverton Road</name>
      </trkpt>
      <trkpt lat="53.7426328" lon="-3.0209185">
        <name>Laverton Road</name>
      </trkpt>
      <trkpt lat="53.7427096" lon="-3.0208649">
        <name>Laverton Road</name>
      </trkpt>
      <trkpt lat="53.7427865" lon="-3.0208114">
        <name>Laverton Road</name>
      </trkpt>
      <trkpt lat="53.7428633" lon="-3.0207578">
        <name>Laverton Road</name>
      </trkpt>
      <trkpt lat="53.7429401" lon="-3.0207043">
        <name>Laverton Road</name>
      </trkpt>
      <trkpt lat="53.7430169" lon="-3.0206507">
        <name>Laverton Road</name>
      </trkpt>
      <trkpt lat="53.7430937" lon="-3.0205972">
        <name>Laverton Road</name>
      </trkpt>
      <trkpt lat="53.7431705" lon="-3.0205436">
        <name>Laverton Road</name>
      </trkpt>
      <trkpt lat="53.7432474" lon="-3.0204901">
        <name>Laverton Road</name>
      </trkpt>
      <trkpt lat="53.7433242" lon="-3.0204365">
        <name>Laverton Road</name>
      </trkpt>
      <trkpt lat="53.7434010" lon="-3.0203830">
        <name>Laverton Road</name>
      </trkpt>
      <trkpt lat="53.7434840" lon="-3.0203250">
        <name>Laverton Road</name>
      </trkpt>
      <trkpt lat="53.7435670" lon="-3.0202670">
        <name>Laverton Road</name>
      </trkpt>
      <trkpt lat="53.7436500" lon="-3.0202090">
        <name>Laverton Road</name>
      </trkpt>
      <trkpt lat="53.7437296" lon="-3.0201528">
        <name>King Edward Avenue</name>
      </trkpt>
      <trkpt lat="53.7438092" lon="-3.0200966">
        <name>King Edward Avenue</name>
      </trkpt>
      <trkpt lat="53.7438888" lon="-3.0200404">
        <name>King Edward Avenue</name>
      </trkpt>
      <trkpt lat="53.7439684" lon="-3.0199842">
        <name>King Edward Avenue</name>
      </trkpt>
      <trkpt lat="53.7440480" lon="-3.0199280">
        <name>King Edward Avenue</name>
      </trkpt>
      <trkpt lat="53.7441150" lon="-3.0198818">
        <name>King Edward Avenue</name>
      </trkpt>
      <trkpt lat="53.7441820" lon="-3.0198355">
        <name>King Edward Avenue</name>
      </trkpt>
      <trkpt lat="53.7442490" lon="-3.0197893">
        <name>King Edward Avenue</name>
      </trkpt>
      <trkpt lat="53.7443160" lon="-3.0197430">
        <name>King Edward Avenue</name>
      </trkpt>
      <trkpt lat="53.7443960" lon="-3.0196887">
        <name>King Edward Avenue</name>
      </trkpt>
      <trkpt lat="53.7444760" lon="-3.0196344">
        <name>King Edward Avenue</name>
      </trkpt>
      <trkpt lat="53.7445560" lon="-3.0195801">
        <name>King Edward Avenue</name>
      </trkpt>
      <trkpt lat="53.7446360" lon="-3.0195258">
        <name>King Edward Avenue</name>
      </trkpt>
      <trkpt lat="53.7447160" lon="-3.0194715">
        <name>King Edward Avenue</name>
      </trkpt>
      <trkpt lat="53.7447960" lon="-3.0194172">
        <name>King Edward Avenue</name>
      </trkpt>
      <trkpt lat="53.7448760" lon="-3.0193629">
        <name>King Edward Avenue</name>
      </trkpt>
      <trkpt lat="53.7449560" lon="-3.0193086">
        <name>King Edward Avenue</name>
      </trkpt>
      <trkpt lat="53.7450360" lon="-3.0192544">
        <name>King Edward Avenue</name>
      </trkpt>
      <trkpt lat="53.7451160" lon="-3.0192001">
        <name>King Edward Avenue</name>
      </trkpt>
      <trkpt lat="53.7451960" lon="-3.0191458">
        <name>King Edward Avenue</name>
      </trkpt>
      <trkpt lat="53.7452760" lon="-3.0190915">
        <name>King Edward Avenue</name>
      </trkpt>
      <trkpt lat="53.7453560" lon="-3.0190372">
        <name>King Edward Avenue</name>
      </trkpt>
      <trkpt lat="53.7454360" lon="-3.0189829">
        <name>King Edward Avenue</name>
      </trkpt>
      <trkpt lat="53.7455160" lon="-3.0189286">
        <name>King Edward Avenue</name>
      </trkpt>
      <trkpt lat="53.7455960" lon="-3.0188743">
        <name>King Edward Avenue</name>
      </trkpt>
      <trkpt lat="53.7456760" lon="-3.0188200">
        <name>King Edward Avenue</name>
      </trkpt>
      <trkpt lat="53.7457497" lon="-3.0187712">
        <name>The Boulevard</name>
      </trkpt>
      <trkpt lat="53.7458233" lon="-3.0187223">
        <name>The Boulevard</name>
      </trkpt>
      <trkpt lat="53.7458970" lon="-3.0186735">
        <name>The Boulevard</name>
      </trkpt>
      <trkpt lat="53.7459707" lon="-3.0186247">
        <name>The Boulevard</name>
      </trkpt>
      <trkpt lat="53.7460443" lon="-3.0185758">
        <name>The Boulevard</name>
      </trkpt>
      <trkpt lat="53.7461180" lon="-3.0185270">
        <name>The Boulevard</name>
      </trkpt>
      <trkpt lat="53.7462000" lon="-3.0184691">
        <name>The Boulevard</name>
      </trkpt>
      <trkpt lat="53.7462820" lon="-3.0184113">
        <name>The Boulevard</name>
      </trkpt>
      <trkpt lat="53.7463640" lon="-3.0183534">
        <name>The Boulevard</name>
      </trkpt>
      <trkpt lat="53.7464460" lon="-3.0182956">
        <name>The Boulevard</name>
      </trkpt>
      <trkpt lat="53.7465280" lon="-3.0182377">
        <name>The Boulevard</name>
      </trkpt>
      <trkpt lat="53.7466100" lon="-3.0181799">
        <name>The Boulevard</name>
      </trkpt>
      <trkpt lat="53.7466920" lon="-3.0181220">
        <name>The Boulevard</name>
      </trkpt>
      <trkpt lat="53.7467740" lon="-3.0180641">
        <name>The Boulevard</name>
      </trkpt>
      <trkpt lat="53.7468560" lon="-3.0180063">
        <name>The Boulevard</name>
      </trkpt>
      <trkpt lat="53.7469380" lon="-3.0179484">
        <name>The Boulevard</name>
      </trkpt>
      <trkpt lat="53.7470200" lon="-3.0178906">
        <name>The Boulevard</name>
      </trkpt>
      <trkpt lat="53.7471020" lon="-3.0178327">
        <name>The Boulevard</name>
      </trkpt>
      <trkpt lat="53.7471840" lon="-3.0177749">
        <name>The Boulevard</name>
      </trkpt>
      <trkpt lat="53.7472660" lon="-3.0177170">
        <name>The Boulevard</name>
      </trkpt>
      <trkpt lat="53.7473100" lon="-3.0178292">
        <name>The Boulevard</name>
      </trkpt>
      <trkpt lat="53.7473540" lon="-3.0179414">
        <name>The Boulevard</name>
      </trkpt>
      <trkpt lat="53.7473980" lon="-3.0180536">
        <name>The Boulevard</name>
      </trkpt>
      <trkpt lat="53.7474420" lon="-3.0181658">
        <name>The Boulevard</name>
      </trkpt>
      <trkpt lat="53.7474860" lon="-3.0182780">
        <name>The Boulevard</name>
      </trkpt>
      <trkpt lat="53.7475296" lon="-3.0183892">
        <name>The Boulevard</name>
      </trkpt>
      <trkpt lat="53.7475732" lon="-3.0185004">
        <name>The Boulevard</name>
      </trkpt>
      <trkpt lat="53.7476168" lon="-3.0186116">
        <name>The Boulevard</name>
      </trkpt>
      <trkpt lat="53.7476604" lon="-3.0187228">
        <name>The Boulevard</name>
      </trkpt>
      <trkpt lat="53.7477040" lon="-3.0188340">
        <name>The Boulevard</name>
      </trkpt>
      <trkpt lat="53.7476438" lon="-3.0189040">
        <name>The Boulevard</name>
      </trkpt>
      <trkpt lat="53.7475836" lon="-3.0189740">
        <name>The Boulevard</name>
      </trkpt>
      <trkpt lat="53.7475234" lon="-3.0190440">
        <name>The Boulevard</name>
      </trkpt>
      <trkpt lat="53.7474632" lon="-3.0191140">
        <name>The Boulevard</name>
      </trkpt>
      <trkpt lat="53.7474030" lon="-3.0191840">
        <name>The Boulevard</name>
      </trkpt>
      <trkpt lat="53.7473358" lon="-3.0192622">
        <name>The Boulevard</name>
      </trkpt>
      <trkpt lat="53.7472686" lon="-3.0193404">
        <name>The Boulevard</name>
      </trkpt>
      <trkpt lat="53.7472014" lon="-3.0194186">
        <name>The Boulevard</name>
      </trkpt>
      <trkpt lat="53.7471342" lon="-3.0194968">
        <name>The Boulevard</name>
      </trkpt>
      <trkpt lat="53.7470670" lon="-3.0195750">
        <name>The Boulevard</name>
      </trkpt>
      <trkpt lat="53.7469886" lon="-3.0196379">
        <name>The Boulevard</name>
      </trkpt>
      <trkpt lat="53.7469101" lon="-3.0197007">
        <name>The Boulevard</name>
      </trkpt>
      <trkpt lat="53.7468317" lon="-3.0197636">
        <name>The Boulevard</name>
      </trkpt>
      <trkpt lat="53.7467533" lon="-3.0198264">
        <name>The Boulevard</name>
      </trkpt>
      <trkpt lat="53.7466749" lon="-3.0198893">
        <name>The Boulevard</name>
      </trkpt>
      <trkpt lat="53.7465964" lon="-3.0199521">
        <name>The Boulevard</name>
      </trkpt>
      <trkpt lat="53.7465180" lon="-3.0200150">
        <name>The Boulevard</name>
      </trkpt>
      <trkpt lat="53.7464403" lon="-3.0200748">
        <name>The Boulevard</name>
      </trkpt>
      <trkpt lat="53.7463627" lon="-3.0201347">
        <name>The Boulevard</name>
      </trkpt>
      <trkpt lat="53.7462850" lon="-3.0201945">
        <name>The Boulevard</name>
      </trkpt>
      <trkpt lat="53.7462073" lon="-3.0202543">
        <name>The Boulevard</name>
      </trkpt>
      <trkpt lat="53.7461297" lon="-3.0203142">
        <name>The Boulevard</name>
      </trkpt>
      <trkpt lat="53.7460520" lon="-3.0203740">
        <name>The Boulevard</name>
      </trkpt>
      <trkpt lat="53.7460800" lon="-3.0204898">
        <name>The Boulevard</name>
      </trkpt>
      <trkpt lat="53.7461080" lon="-3.0206056">
        <name>The Boulevard</name>
      </trkpt>
      <trkpt lat="53.7461360" lon="-3.0207214">
        <name>The Boulevard</name>
      </trkpt>
      <trkpt lat="53.7461640" lon="-3.0208372">
        <name>The Boulevard</name>
      </trkpt>
      <trkpt lat="53.7461920" lon="-3.0209530">
        <name>The Boulevard</name>
      </trkpt>
      <trkpt lat="53.7462173" lon="-3.0210570">
        <name>The Boulevard</name>
      </trkpt>
      <trkpt lat="53.7462427" lon="-3.0211610">
        <name>The Boulevard</name>
      </trkpt>
      <trkpt lat="53.7462680" lon="-3.0212650">
        <name>The Boulevard</name>
      </trkpt>
      <trkpt lat="53.7462984" lon="-3.0213930">
        <name>The Boulevard</name>
      </trkpt>
      <trkpt lat="53.7463288" lon="-3.0215210">
        <name>The Boulevard</name>
      </trkpt>
      <trkpt lat="53.7463592" lon="-3.0216490">
        <name>The Boulevard</name>
      </trkpt>
      <trkpt lat="53.7463896" lon="-3.0217770">
        <name>The Boulevard</name>
      </trkpt>
      <trkpt lat="53.7464200" lon="-3.0219050">
        <name>The Boulevard</name>
      </trkpt>
      <trkpt lat="53.7464983" lon="-3.0218452">
        <name>Kintbury Road</name>
      </trkpt>
      <trkpt lat="53.7465767" lon="-3.0217853">
        <name>Kintbury Road</name>
      </trkpt>
      <trkpt lat="53.7466550" lon="-3.0217255">
        <name>Kintbury Road</name>
      </trkpt>
      <trkpt lat="53.7467333" lon="-3.0216657">
        <name>Kintbury Road</name>
      </trkpt>
      <trkpt lat="53.7468117" lon="-3.0216058">
        <name>Kintbury Road</name>
      </trkpt>
      <trkpt lat="53.7468900" lon="-3.0215460">
        <name>Kintbury Road</name>
      </trkpt>
      <trkpt lat="53.7469536" lon="-3.0214641">
        <name>Kintbury Road</name>
      </trkpt>
      <trkpt lat="53.7470171" lon="-3.0213823">
        <name>Kintbury Road</name>
      </trkpt>
      <trkpt lat="53.7470807" lon="-3.0213004">
        <name>Kintbury Road</name>
      </trkpt>
      <trkpt lat="53.7471443" lon="-3.0212186">
        <name>Kintbury Road</name>
      </trkpt>
      <trkpt lat="53.7472079" lon="-3.0211367">
        <name>Kintbury Road</name>
      </trkpt>
      <trkpt lat="53.7472714" lon="-3.0210549">
        <name>Kintbury Road</name>
      </trkpt>
      <trkpt lat="53.7473350" lon="-3.0209730">
        <name>Kintbury Road</name>
      </trkpt>
      <trkpt lat="53.7473905" lon="-3.0208953">
        <name>Kintbury Road</name>
      </trkpt>
      <trkpt lat="53.7474460" lon="-3.0208175">
        <name>Kintbury Road</name>
      </trkpt>
      <trkpt lat="53.7475015" lon="-3.0207398">
        <name>Kintbury Road</name>
      </trkpt>
      <trkpt lat="53.7475570" lon="-3.0206620">
        <name>Kintbury Road</name>
      </trkpt>
      <trkpt lat="53.7476198" lon="-3.0205772">
        <name>Kintbury Road</name>
      </trkpt>
      <trkpt lat="53.7476826" lon="-3.0204924">
        <name>Kintbury Road</name>
      </trkpt>
      <trkpt lat="53.7477453" lon="-3.0204077">
        <name>Kintbury Road</name>
      </trkpt>
      <trkpt lat="53.7478081" lon="-3.0203229">
        <name>Kintbury Road</name>
      </trkpt>
      <trkpt lat="53.7478709" lon="-3.0202381">
        <name>Kintbury Road</name>
      </trkpt>
      <trkpt lat="53.7479337" lon="-3.0201533">
        <name>Kintbury Road</name>
      </trkpt>
      <trkpt lat="53.7479964" lon="-3.0200686">
        <name>Kintbury Road</name>
      </trkpt>
      <trkpt lat="53.7480592" lon="-3.0199838">
        <name>Kintbury Road</name>
      </trkpt>
      <trkpt lat="53.7481220" lon="-3.0198990">
        <name>Kintbury Road</name>
      </trkpt>
      <trkpt lat="53.7481720" lon="-3.0200220">
        <name>Kintbury Road</name>
      </trkpt>
      <trkpt lat="53.7482220" lon="-3.0201450">
        <name>Kintbury Road</name>
      </trkpt>
      <trkpt lat="53.7482720" lon="-3.0202680">
        <name>Kintbury Road</name>
      </trkpt>
      <trkpt lat="53.7483220" lon="-3.0203910">
        <name>Kintbury Road</name>
      </trkpt>
      <trkpt lat="53.7483720" lon="-3.0205140">
        <name>Kintbury Road</name>
      </trkpt>
      <trkpt lat="53.7484184" lon="-3.0206282">
        <name>Kintbury Road</name>
      </trkpt>
      <trkpt lat="53.7484648" lon="-3.0207424">
        <name>Kintbury Road</name>
      </trkpt>
      <trkpt lat="53.7485112" lon="-3.0208566">
        <name>Kintbury Road</name>
      </trkpt>
      <trkpt lat="53.7485576" lon="-3.0209708">
        <name>Kintbury Road</name>
      </trkpt>
      <trkpt lat="53.7486040" lon="-3.0210850">
        <name>Kintbury Road</name>
      </trkpt>
      <trkpt lat="53.7485435" lon="-3.0211580">
        <name>Newbury Road</name>
      </trkpt>
      <trkpt lat="53.7484830" lon="-3.0212310">
        <name>Newbury Road</name>
      </trkpt>
      <trkpt lat="53.7484225" lon="-3.0213040">
        <name>Newbury Road</name>
      </trkpt>
      <trkpt lat="53.7483620" lon="-3.0213770">
        <name>Newbury Road</name>
      </trkpt>
      <trkpt lat="53.7483285" lon="-3.0214290">
        <name>Newbury Road</name>
      </trkpt>
      <trkpt lat="53.7482950" lon="-3.0214810">
        <name>Newbury Road</name>
      </trkpt>
      <trkpt lat="53.7482327" lon="-3.0215777">
        <name>Newbury Road</name>
      </trkpt>
      <trkpt lat="53.7481703" lon="-3.0216743">
        <name>Newbury Road</name>
      </trkpt>
      <trkpt lat="53.7481080" lon="-3.0217710">
        <name>Newbury Road</name>
      </trkpt>
      <trkpt lat="53.7480457" lon="-3.0218677">
        <name>Newbury Road</name>
      </trkpt>
      <trkpt lat="53.7479833" lon="-3.0219643">
        <name>Newbury Road</name>
      </trkpt>
      <trkpt lat="53.7479210" lon="-3.0220610">
        <name>Newbury Road</name>
      </trkpt>
      <trkpt lat="53.7478587" lon="-3.0221577">
        <name>Newbury Road</name>
      </trkpt>
      <trkpt lat="53.7477963" lon="-3.0222543">
        <name>Newbury Road</name>
      </trkpt>
      <trkpt lat="53.7477340" lon="-3.0223510">
        <name>Newbury Road</name>
      </trkpt>
      <trkpt lat="53.7476720" lon="-3.0224390">
        <name>Newbury Road</name>
      </trkpt>
      <trkpt lat="53.7476100" lon="-3.0225270">
        <name>Newbury Road</name>
      </trkpt>
      <trkpt lat="53.7475480" lon="-3.0226150">
        <name>Newbury Road</name>
      </trkpt>
      <trkpt lat="53.7474872" lon="-3.0227148">
        <name>Newbury Road</name>
      </trkpt>
      <trkpt lat="53.7474265" lon="-3.0228145">
        <name>Newbury Road</name>
      </trkpt>
      <trkpt lat="53.7473658" lon="-3.0229142">
        <name>Newbury Road</name>
      </trkpt>
      <trkpt lat="53.7473050" lon="-3.0230140">
        <name>Newbury Road</name>
      </trkpt>
      <trkpt lat="53.7472418" lon="-3.0230670">
        <name>Newbury Road</name>
      </trkpt>
      <trkpt lat="53.7471785" lon="-3.0231200">
        <name>Newbury Road</name>
      </trkpt>
      <trkpt lat="53.7471152" lon="-3.0231730">
        <name>Newbury Road</name>
      </trkpt>
      <trkpt lat="53.7470520" lon="-3.0232260">
        <name>Newbury Road</name>
      </trkpt>
    </trkseg>
  </trk>
</gpx>