<?xml version="1.0" encoding="UTF-8"?>
<gpx version="1.1" creator="TurboSanta Route Planner">
  <trk>
    <name>TurboSanta Route (10m density)</name>
    <trkseg>
      <trkpt lat="53.7456220" lon="-3.0170540">
        <name>Balmoral Road</name>
      </trkpt>
      <trkpt lat="53.7456950" lon="-3.0170065">
        <name>Balmoral Road</name>
      </trkpt>
      <trkpt lat="53.7457680" lon="-3.0169590">
        <name>Balmoral Road</name>
      </trkpt>
      <trkpt lat="53.7458492" lon="-3.0168994">
        <name>Balmoral Road</name>
      </trkpt>
      <trkpt lat="53.7459303" lon="-3.0168398">
        <name>Balmoral Road</name>
      </trkpt>
      <trkpt lat="53.7460115" lon="-3.0167803">
        <name>Balmoral Road</name>
      </trkpt>
      <trkpt lat="53.7460927" lon="-3.0167207">
        <name>Balmoral Road</name>
      </trkpt>
      <trkpt lat="53.7461738" lon="-3.0166611">
        <name>Balmoral Road</name>
      </trkpt>
      <trkpt lat="53.7462550" lon="-3.0166015">
        <name>Balmoral Road</name>
      </trkpt>
      <trkpt lat="53.7463362" lon="-3.0165419">
        <name>Balmoral Road</name>
      </trkpt>
      <trkpt lat="53.7464173" lon="-3.0164823">
        <name>Balmoral Road</name>
      </trkpt>
      <trkpt lat="53.7464985" lon="-3.0164227">
        <name>Balmoral Road</name>
      </trkpt>
      <trkpt lat="53.7465797" lon="-3.0163632">
        <name>Balmoral Road</name>
      </trkpt>
      <trkpt lat="53.7466608" lon="-3.0163036">
        <name>Balmoral Road</name>
      </trkpt>
      <trkpt lat="53.7467420" lon="-3.0162440">
        <name>Balmoral Road</name>
      </trkpt>
      <trkpt lat="53.7468096" lon="-3.0161942">
        <name>Balmoral Road</name>
      </trkpt>
      <trkpt lat="53.7468772" lon="-3.0161444">
        <name>Balmoral Road</name>
      </trkpt>
      <trkpt lat="53.7469448" lon="-3.0160946">
        <name>Balmoral Road</name>
      </trkpt>
      <trkpt lat="53.7470124" lon="-3.0160448">
        <name>Balmoral Road</name>
      </trkpt>
      <trkpt lat="53.7470800" lon="-3.0159950">
        <name>Balmoral Road</name>
      </trkpt>
      <trkpt lat="53.7470475" lon="-3.0158918">
        <name>St Andrew's Road South</name>
      </trkpt>
      <trkpt lat="53.7470150" lon="-3.0157885">
        <name>St Andrew's Road South</name>
      </trkpt>
      <trkpt lat="53.7469825" lon="-3.0156853">
        <name>St Andrew's Road South</name>
      </trkpt>
      <trkpt lat="53.7469500" lon="-3.0155820">
        <name>St Andrew's Road South</name>
      </trkpt>
      <trkpt lat="53.7469104" lon="-3.0154560">
        <name>St Andrew's Road South</name>
      </trkpt>
      <trkpt lat="53.7468707" lon="-3.0153300">
        <name>St Andrew's Road South</name>
      </trkpt>
      <trkpt lat="53.7468311" lon="-3.0152040">
        <name>St Andrew's Road South</name>
      </trkpt>
      <trkpt lat="53.7467915" lon="-3.0150780">
        <name>St Andrew's Road South</name>
      </trkpt>
      <trkpt lat="53.7467519" lon="-3.0149520">
        <name>St Andrew's Road South</name>
      </trkpt>
      <trkpt lat="53.7467123" lon="-3.0148260">
        <name>St Andrew's Road South</name>
      </trkpt>
      <trkpt lat="53.7466726" lon="-3.0147000">
        <name>St Andrew's Road South</name>
      </trkpt>
      <trkpt lat="53.7466330" lon="-3.0145740">
        <name>St Andrew's Road South</name>
      </trkpt>
      <trkpt lat="53.7465546" lon="-3.0146264">
        <name>St Andrew's Road South</name>
      </trkpt>
      <trkpt lat="53.7464761" lon="-3.0146789">
        <name>St Andrew's Road South</name>
      </trkpt>
      <trkpt lat="53.7463977" lon="-3.0147313">
        <name>St Andrew's Road South</name>
      </trkpt>
      <trkpt lat="53.7463192" lon="-3.0147838">
        <name>St Andrew's Road South</name>
      </trkpt>
      <trkpt lat="53.7462408" lon="-3.0148362">
        <name>St Andrew's Road South</name>
      </trkpt>
      <trkpt lat="53.7461624" lon="-3.0148886">
        <name>St Andrew's Road South</name>
      </trkpt>
      <trkpt lat="53.7460839" lon="-3.0149411">
        <name>St Andrew's Road South</name>
      </trkpt>
      <trkpt lat="53.7460055" lon="-3.0149935">
        <name>St Andrew's Road South</name>
      </trkpt>
      <trkpt lat="53.7459271" lon="-3.0150459">
        <name>St Andrew's Road South</name>
      </trkpt>
      <trkpt lat="53.7458486" lon="-3.0150984">
        <name>St Andrew's Road South</name>
      </trkpt>
      <trkpt lat="53.7457702" lon="-3.0151508">
        <name>St Andrew's Road South</name>
      </trkpt>
      <trkpt lat="53.7456918" lon="-3.0152032">
        <name>St Andrew's Road South</name>
      </trkpt>
      <trkpt lat="53.7456133" lon="-3.0152557">
        <name>St Andrew's Road South</name>
      </trkpt>
      <trkpt lat="53.7455349" lon="-3.0153081">
        <name>St Andrew's Road South</name>
      </trkpt>
      <trkpt lat="53.7454564" lon="-3.0153606">
        <name>St Andrew's Road South</name>
      </trkpt>
      <trkpt lat="53.7453780" lon="-3.0154130">
        <name>St Andrew's Road South</name>
      </trkpt>
      <trkpt lat="53.7453115" lon="-3.0154575">
        <name>St Andrew's Road South</name>
      </trkpt>
      <trkpt lat="53.7452450" lon="-3.0155020">
        <name>St Andrew's Road South</name>
      </trkpt>
      <trkpt lat="53.7451785" lon="-3.0155465">
        <name>St Andrew's Road South</name>
      </trkpt>
      <trkpt lat="53.7451120" lon="-3.0155910">
        <name>St Andrew's Road South</name>
      </trkpt>
      <trkpt lat="53.7450455" lon="-3.0156350">
        <name>St Andrew's Road South</name>
      </trkpt>
      <trkpt lat="53.7449790" lon="-3.0156790">
        <name>St Andrew's Road South</name>
      </trkpt>
      <trkpt lat="53.7449180" lon="-3.0157230">
        <name>St Andrew's Road South</name>
      </trkpt>
      <trkpt lat="53.7449485" lon="-3.0158433">
        <name>Windsor Road</name>
      </trkpt>
      <trkpt lat="53.7449790" lon="-3.0159635">
        <name>Windsor Road</name>
      </trkpt>
      <trkpt lat="53.7450095" lon="-3.0160837">
        <name>Windsor Road</name>
      </trkpt>
      <trkpt lat="53.7450400" lon="-3.0162040">
        <name>Windsor Road</name>
      </trkpt>
      <trkpt lat="53.7450720" lon="-3.0163300">
        <name>Windsor Road</name>
      </trkpt>
      <trkpt lat="53.7451040" lon="-3.0164560">
        <name>Windsor Road</name>
      </trkpt>
      <trkpt lat="53.7451353" lon="-3.0165883">
        <name>Windsor Road</name>
      </trkpt>
      <trkpt lat="53.7451667" lon="-3.0167207">
        <name>Windsor Road</name>
      </trkpt>
      <trkpt lat="53.7451980" lon="-3.0168530">
        <name>Windsor Road</name>
      </trkpt>
      <trkpt lat="53.7452310" lon="-3.0169910">
        <name>Windsor Road</name>
      </trkpt>
      <trkpt lat="53.7452640" lon="-3.0171290">
        <name>Windsor Road</name>
      </trkpt>
      <trkpt lat="53.7452970" lon="-3.0172670">
        <name>Windsor Road</name>
      </trkpt>
      <trkpt lat="53.7453277" lon="-3.0173970">
        <name>Windsor Road</name>
      </trkpt>
      <trkpt lat="53.7453583" lon="-3.0175270">
        <name>Windsor Road</name>
      </trkpt>
      <trkpt lat="53.7453890" lon="-3.0176570">
        <name>Windsor Road</name>
      </trkpt>
      <trkpt lat="53.7453162" lon="-3.0177068">
        <name>Windsor Road</name>
      </trkpt>
      <trkpt lat="53.7452433" lon="-3.0177567">
        <name>Windsor Road</name>
      </trkpt>
      <trkpt lat="53.7451705" lon="-3.0178065">
        <name>Windsor Road</name>
      </trkpt>
      <trkpt lat="53.7450977" lon="-3.0178563">
        <name>Windsor Road</name>
      </trkpt>
      <trkpt lat="53.7450248" lon="-3.0179062">
        <name>Windsor Road</name>
      </trkpt>
      <trkpt lat="53.7449520" lon="-3.0179560">
        <name>Windsor Road</name>
      </trkpt>
      <trkpt lat="53.7448812" lon="-3.0180042">
        <name>Windsor Road</name>
      </trkpt>
      <trkpt lat="53.7448105" lon="-3.0180525">
        <name>Windsor Road</name>
      </trkpt>
      <trkpt lat="53.7447398" lon="-3.0181008">
        <name>Windsor Road</name>
      </trkpt>
      <trkpt lat="53.7446690" lon="-3.0181490">
        <name>Windsor Road</name>
      </trkpt>
      <trkpt lat="53.7446367" lon="-3.0180127">
        <name>Windsor Road</name>
      </trkpt>
      <trkpt lat="53.7446043" lon="-3.0178763">
        <name>Windsor Road</name>
      </trkpt>
      <trkpt lat="53.7445720" lon="-3.0177400">
        <name>Windsor Road</name>
      </trkpt>
      <trkpt lat="53.7445397" lon="-3.0176037">
        <name>Windsor Road</name>
      </trkpt>
      <trkpt lat="53.7445073" lon="-3.0174673">
        <name>Windsor Road</name>
      </trkpt>
      <trkpt lat="53.7444750" lon="-3.0173310">
        <name>Windsor Road</name>
      </trkpt>
      <trkpt lat="53.7444427" lon="-3.0171947">
        <name>Windsor Road</name>
      </trkpt>
      <trkpt lat="53.7444103" lon="-3.0170583">
        <name>Windsor Road</name>
      </trkpt>
      <trkpt lat="53.7443780" lon="-3.0169220">
        <name>Windsor Road</name>
      </trkpt>
      <trkpt lat="53.7443457" lon="-3.0167857">
        <name>Windsor Road</name>
      </trkpt>
      <trkpt lat="53.7443133" lon="-3.0166493">
        <name>Windsor Road</name>
      </trkpt>
      <trkpt lat="53.7442810" lon="-3.0165130">
        <name>Windsor Road</name>
      </trkpt>
      <trkpt lat="53.7442487" lon="-3.0163767">
        <name>Windsor Road</name>
      </trkpt>
      <trkpt lat="53.7442163" lon="-3.0162403">
        <name>Windsor Road</name>
      </trkpt>
      <trkpt lat="53.7441840" lon="-3.0161040">
        <name>Windsor Road</name>
      </trkpt>
      <trkpt lat="53.7441517" lon="-3.0159677">
        <name>Windsor Road</name>
      </trkpt>
      <trkpt lat="53.7441193" lon="-3.0158313">
        <name>Windsor Road</name>
      </trkpt>
      <trkpt lat="53.7440870" lon="-3.0156950">
        <name>Windsor Road</name>
      </trkpt>
      <trkpt lat="53.7440547" lon="-3.0155587">
        <name>Windsor Road</name>
      </trkpt>
      <trkpt lat="53.7440223" lon="-3.0154223">
        <name>Windsor Road</name>
      </trkpt>
      <trkpt lat="53.7439900" lon="-3.0152860">
        <name>Windsor Road</name>
      </trkpt>
      <trkpt lat="53.7439600" lon="-3.0153070">
        <name>Clifton Drive South</name>
      </trkpt>
      <trkpt lat="53.7439296" lon="-3.0151823">
        <name>Clifton Drive South</name>
      </trkpt>
      <trkpt lat="53.7438992" lon="-3.0150575">
        <name>Clifton Drive South</name>
      </trkpt>
      <trkpt lat="53.7438689" lon="-3.0149327">
        <name>Clifton Drive South</name>
      </trkpt>
      <trkpt lat="53.7438385" lon="-3.0148080">
        <name>Clifton Drive South</name>
      </trkpt>
      <trkpt lat="53.7438081" lon="-3.0146833">
        <name>Clifton Drive South</name>
      </trkpt>
      <trkpt lat="53.7437777" lon="-3.0145585">
        <name>Clifton Drive South</name>
      </trkpt>
      <trkpt lat="53.7437474" lon="-3.0144337">
        <name>Clifton Drive South</name>
      </trkpt>
      <trkpt lat="53.7437170" lon="-3.0143090">
        <name>Clifton Drive South</name>
      </trkpt>
      <trkpt lat="53.7436852" lon="-3.0141781">
        <name>Clifton Drive South</name>
      </trkpt>
      <trkpt lat="53.7436533" lon="-3.0140472">
        <name>Clifton Drive South</name>
      </trkpt>
      <trkpt lat="53.7436215" lon="-3.0139162">
        <name>Clifton Drive South</name>
      </trkpt>
      <trkpt lat="53.7435896" lon="-3.0137853">
        <name>Clifton Drive South</name>
      </trkpt>
      <trkpt lat="53.7435578" lon="-3.0136544">
        <name>Clifton Drive South</name>
      </trkpt>
      <trkpt lat="53.7435259" lon="-3.0135235">
        <name>Clifton Drive South</name>
      </trkpt>
      <trkpt lat="53.7434941" lon="-3.0133925">
        <name>Clifton Drive South</name>
      </trkpt>
      <trkpt lat="53.7434622" lon="-3.0132616">
        <name>Clifton Drive South</name>
      </trkpt>
      <trkpt lat="53.7434304" lon="-3.0131307">
        <name>Clifton Drive South</name>
      </trkpt>
      <trkpt lat="53.7433985" lon="-3.0129998">
        <name>Clifton Drive South</name>
      </trkpt>
      <trkpt lat="53.7433667" lon="-3.0128688">
        <name>Clifton Drive South</name>
      </trkpt>
      <trkpt lat="53.7433348" lon="-3.0127379">
        <name>Clifton Drive South</name>
      </trkpt>
      <trkpt lat="53.7433030" lon="-3.0126070">
        <name>Clifton Drive South</name>
      </trkpt>
      <trkpt lat="53.7432855" lon="-3.0125360">
        <name>Clifton Drive South</name>
      </trkpt>
      <trkpt lat="53.7432680" lon="-3.0124650">
        <name>Clifton Drive South</name>
      </trkpt>
      <trkpt lat="53.7431895" lon="-3.0125150">
        <name>Clifton Drive South</name>
      </trkpt>
      <trkpt lat="53.7431110" lon="-3.0125650">
        <name>Clifton Drive South</name>
      </trkpt>
      <trkpt lat="53.7430363" lon="-3.0126155">
        <name>Clifton Drive South</name>
      </trkpt>
      <trkpt lat="53.7429617" lon="-3.0126660">
        <name>Clifton Drive South</name>
      </trkpt>
      <trkpt lat="53.7428870" lon="-3.0127165">
        <name>Clifton Drive South</name>
      </trkpt>
      <trkpt lat="53.7428123" lon="-3.0127670">
        <name>Clifton Drive South</name>
      </trkpt>
      <trkpt lat="53.7427377" lon="-3.0128175">
        <name>Clifton Drive South</name>
      </trkpt>
      <trkpt lat="53.7426630" lon="-3.0128680">
        <name>Clifton Drive South</name>
      </trkpt>
      <trkpt lat="53.7426820" lon="-3.0129395">
        <name>Hungerford Road</name>
      </trkpt>
      <trkpt lat="53.7427010" lon="-3.0130110">
        <name>Hungerford Road</name>
      </trkpt>
      <trkpt lat="53.7427335" lon="-3.0131471">
        <name>Hungerford Road</name>
      </trkpt>
      <trkpt lat="53.7427661" lon="-3.0132833">
        <name>Hungerford Road</name>
      </trkpt>
      <trkpt lat="53.7427986" lon="-3.0134195">
        <name>Hungerford Road</name>
      </trkpt>
      <trkpt lat="53.7428312" lon="-3.0135556">
        <name>Hungerford Road</name>
      </trkpt>
      <trkpt lat="53.7428637" lon="-3.0136918">
        <name>Hungerford Road</name>
      </trkpt>
      <trkpt lat="53.7428963" lon="-3.0138279">
        <name>Hungerford Road</name>
      </trkpt>
      <trkpt lat="53.7429288" lon="-3.0139641">
        <name>Hungerford Road</name>
      </trkpt>
      <trkpt lat="53.7429614" lon="-3.0141002">
        <name>Hungerford Road</name>
      </trkpt>
      <trkpt lat="53.7429939" lon="-3.0142364">
        <name>Hungerford Road</name>
      </trkpt>
      <trkpt lat="53.7430265" lon="-3.0143725">
        <name>Hungerford Road</name>
      </trkpt>
      <trkpt lat="53.7430590" lon="-3.0145087">
        <name>Hungerford Road</name>
      </trkpt>
      <trkpt lat="53.7430916" lon="-3.0146448">
        <name>Hungerford Road</name>
      </trkpt>
      <trkpt lat="53.7431241" lon="-3.0147810">
        <name>Hungerford Road</name>
      </trkpt>
      <trkpt lat="53.7431567" lon="-3.0149171">
        <name>Hungerford Road</name>
      </trkpt>
      <trkpt lat="53.7431893" lon="-3.0150533">
        <name>Hungerford Road</name>
      </trkpt>
      <trkpt lat="53.7432218" lon="-3.0151894">
        <name>Hungerford Road</name>
      </trkpt>
      <trkpt lat="53.7432544" lon="-3.0153256">
        <name>Hungerford Road</name>
      </trkpt>
      <trkpt lat="53.7432869" lon="-3.0154617">
        <name>Hungerford Road</name>
      </trkpt>
      <trkpt lat="53.7433195" lon="-3.0155979">
        <name>Hungerford Road</name>
      </trkpt>
      <trkpt lat="53.7433520" lon="-3.0157340">
        <name>Hungerford Road</name>
      </trkpt>
      <trkpt lat="53.7433848" lon="-3.0158740">
        <name>Hungerford Road</name>
      </trkpt>
      <trkpt lat="53.7434176" lon="-3.0160140">
        <name>Hungerford Road</name>
      </trkpt>
      <trkpt lat="53.7434504" lon="-3.0161540">
        <name>Hungerford Road</name>
      </trkpt>
      <trkpt lat="53.7434832" lon="-3.0162940">
        <name>Hungerford Road</name>
      </trkpt>
      <trkpt lat="53.7435161" lon="-3.0164340">
        <name>Hungerford Road</name>
      </trkpt>
      <trkpt lat="53.7435489" lon="-3.0165740">
        <name>Hungerford Road</name>
      </trkpt>
      <trkpt lat="53.7435817" lon="-3.0167140">
        <name>Hungerford Road</name>
      </trkpt>
      <trkpt lat="53.7436145" lon="-3.0168540">
        <name>Hungerford Road</name>
      </trkpt>
      <trkpt lat="53.7436473" lon="-3.0169940">
        <name>Hungerford Road</name>
      </trkpt>
      <trkpt lat="53.7436801" lon="-3.0171340">
        <name>Hungerford Road</name>
      </trkpt>
      <trkpt lat="53.7437129" lon="-3.0172740">
        <name>Hungerford Road</name>
      </trkpt>
      <trkpt lat="53.7437458" lon="-3.0174140">
        <name>Hungerford Road</name>
      </trkpt>
      <trkpt lat="53.7437786" lon="-3.0175540">
        <name>Hungerford Road</name>
      </trkpt>
      <trkpt lat="53.7438114" lon="-3.0176940">
        <name>Hungerford Road</name>
      </trkpt>
      <trkpt lat="53.7438442" lon="-3.0178340">
        <name>Hungerford Road</name>
      </trkpt>
      <trkpt lat="53.7438770" lon="-3.0179740">
        <name>Hungerford Road</name>
      </trkpt>
      <trkpt lat="53.7437952" lon="-3.0180293">
        <name>Hungerford Road</name>
      </trkpt>
      <trkpt lat="53.7437135" lon="-3.0180845">
        <name>Hungerford Road</name>
      </trkpt>
      <trkpt lat="53.7436317" lon="-3.0181398">
        <name>Hungerford Road</name>
      </trkpt>
      <trkpt lat="53.7435500" lon="-3.0181950">
        <name>Hungerford Road</name>
      </trkpt>
      <trkpt lat="53.7434682" lon="-3.0182502">
        <name>Hungerford Road</name>
      </trkpt>
      <trkpt lat="53.7433865" lon="-3.0183055">
        <name>Hungerford Road</name>
      </trkpt>
      <trkpt lat="53.7433048" lon="-3.0183608">
        <name>Hungerford Road</name>
      </trkpt>
      <trkpt lat="53.7432230" lon="-3.0184160">
        <name>Hungerford Road</name>
      </trkpt>
      <trkpt lat="53.7431899" lon="-3.0182769">
        <name>Hungerford Road</name>
      </trkpt>
      <trkpt lat="53.7431569" lon="-3.0181378">
        <name>Hungerford Road</name>
      </trkpt>
      <trkpt lat="53.7431238" lon="-3.0179986">
        <name>Hungerford Road</name>
      </trkpt>
      <trkpt lat="53.7430908" lon="-3.0178595">
        <name>Hungerford Road</name>
      </trkpt>
      <trkpt lat="53.7430577" lon="-3.0177204">
        <name>Hungerford Road</name>
      </trkpt>
      <trkpt lat="53.7430246" lon="-3.0175813">
        <name>Hungerford Road</name>
      </trkpt>
      <trkpt lat="53.7429916" lon="-3.0174421">
        <name>Hungerford Road</name>
      </trkpt>
      <trkpt lat="53.7429585" lon="-3.0173030">
        <name>Hungerford Road</name>
      </trkpt>
      <trkpt lat="53.7429254" lon="-3.0171639">
        <name>Hungerford Road</name>
      </trkpt>
      <trkpt lat="53.7428924" lon="-3.0170248">
        <name>Hungerford Road</name>
      </trkpt>
      <trkpt lat="53.7428593" lon="-3.0168856">
        <name>Hungerford Road</name>
      </trkpt>
      <trkpt lat="53.7428263" lon="-3.0167465">
        <name>Hungerford Road</name>
      </trkpt>
      <trkpt lat="53.7427932" lon="-3.0166074">
        <name>Hungerford Road</name>
      </trkpt>
      <trkpt lat="53.7427601" lon="-3.0164682">
        <name>Hungerford Road</name>
      </trkpt>
      <trkpt lat="53.7427271" lon="-3.0163291">
        <name>Hungerford Road</name>
      </trkpt>
      <trkpt lat="53.7426940" lon="-3.0161900">
        <name>Hungerford Road</name>
      </trkpt>
      <trkpt lat="53.7426612" lon="-3.0160541">
        <name>Laverton Road</name>
      </trkpt>
      <trkpt lat="53.7426285" lon="-3.0159181">
        <name>Laverton Road</name>
      </trkpt>
      <trkpt lat="53.7425957" lon="-3.0157821">
        <name>Laverton Road</name>
      </trkpt>
      <trkpt lat="53.7425630" lon="-3.0156462">
        <name>Laverton Road</name>
      </trkpt>
      <trkpt lat="53.7425303" lon="-3.0155103">
        <name>Laverton Road</name>
      </trkpt>
      <trkpt lat="53.7424975" lon="-3.0153743">
        <name>Laverton Road</name>
      </trkpt>
      <trkpt lat="53.7424647" lon="-3.0152384">
        <name>Laverton Road</name>
      </trkpt>
      <trkpt lat="53.7424320" lon="-3.0151024">
        <name>Laverton Road</name>
      </trkpt>
      <trkpt lat="53.7423992" lon="-3.0149665">
        <name>Laverton Road</name>
      </trkpt>
      <trkpt lat="53.7423665" lon="-3.0148305">
        <name>Laverton Road</name>
      </trkpt>
      <trkpt lat="53.7423338" lon="-3.0146945">
        <name>Laverton Road</name>
      </trkpt>
      <trkpt lat="53.7423010" lon="-3.0145586">
        <name>Laverton Road</name>
      </trkpt>
      <trkpt lat="53.7422683" lon="-3.0144227">
        <name>Laverton Road</name>
      </trkpt>
      <trkpt lat="53.7422355" lon="-3.0142867">
        <name>Laverton Road</name>
      </trkpt>
      <trkpt lat="53.7422027" lon="-3.0141507">
        <name>Laverton Road</name>
      </trkpt>
      <trkpt lat="53.7421700" lon="-3.0140148">
        <name>Laverton Road</name>
      </trkpt>
      <trkpt lat="53.7421372" lon="-3.0138789">
        <name>Laverton Road</name>
      </trkpt>
      <trkpt lat="53.7421045" lon="-3.0137429">
        <name>Laverton Road</name>
      </trkpt>
      <trkpt lat="53.7420718" lon="-3.0136069">
        <name>Laverton Road</name>
      </trkpt>
      <trkpt lat="53.7420390" lon="-3.0134710">
        <name>Laverton Road</name>
      </trkpt>
      <trkpt lat="53.7420080" lon="-3.0133330">
        <name>Laverton Road</name>
      </trkpt>
      <trkpt lat="53.7419290" lon="-3.0133868">
        <name>Denford Avenue</name>
      </trkpt>
      <trkpt lat="53.7418500" lon="-3.0134405">
        <name>Denford Avenue</name>
      </trkpt>
      <trkpt lat="53.7417710" lon="-3.0134942">
        <name>Denford Avenue</name>
      </trkpt>
      <trkpt lat="53.7416920" lon="-3.0135480">
        <name>Denford Avenue</name>
      </trkpt>
      <trkpt lat="53.7416130" lon="-3.0136017">
        <name>Denford Avenue</name>
      </trkpt>
      <trkpt lat="53.7415340" lon="-3.0136555">
        <name>Denford Avenue</name>
      </trkpt>
      <trkpt lat="53.7414550" lon="-3.0137092">
        <name>Denford Avenue</name>
      </trkpt>
      <trkpt lat="53.7413760" lon="-3.0137630">
        <name>Denford Avenue</name>
      </trkpt>
      <trkpt lat="53.7414080" lon="-3.0138880">
        <name>Denford Avenue</name>
      </trkpt>
      <trkpt lat="53.7414362" lon="-3.0140108">
        <name>Laverton Road</name>
      </trkpt>
      <trkpt lat="53.7414644" lon="-3.0141336">
        <name>Laverton Road</name>
      </trkpt>
      <trkpt lat="53.7414926" lon="-3.0142564">
        <name>Laverton Road</name>
      </trkpt>
      <trkpt lat="53.7415208" lon="-3.0143792">
        <name>Laverton Road</name>
      </trkpt>
      <trkpt lat="53.7415490" lon="-3.0145020">
        <name>Laverton Road</name>
      </trkpt>
      <trkpt lat="53.7415797" lon="-3.0146353">
        <name>Laverton Road</name>
      </trkpt>
      <trkpt lat="53.7416105" lon="-3.0147686">
        <name>Laverton Road</name>
      </trkpt>
      <trkpt lat="53.7416413" lon="-3.0149019">
        <name>Laverton Road</name>
      </trkpt>
      <trkpt lat="53.7416720" lon="-3.0150352">
        <name>Laverton Road</name>
      </trkpt>
      <trkpt lat="53.7417028" lon="-3.0151686">
        <name>Laverton Road</name>
      </trkpt>
      <trkpt lat="53.7417335" lon="-3.0153019">
        <name>Laverton Road</name>
      </trkpt>
      <trkpt lat="53.7417643" lon="-3.0154352">
        <name>Laverton Road</name>
      </trkpt>
      <trkpt lat="53.7417950" lon="-3.0155685">
        <name>Laverton Road</name>
      </trkpt>
      <trkpt lat="53.7418257" lon="-3.0157018">
        <name>Laverton Road</name>
      </trkpt>
      <trkpt lat="53.7418565" lon="-3.0158351">
        <name>Laverton Road</name>
      </trkpt>
      <trkpt lat="53.7418872" lon="-3.0159684">
        <name>Laverton Road</name>
      </trkpt>
      <trkpt lat="53.7419180" lon="-3.0161017">
        <name>Laverton Road</name>
      </trkpt>
      <trkpt lat="53.7419487" lon="-3.0162351">
        <name>Laverton Road</name>
      </trkpt>
      <trkpt lat="53.7419795" lon="-3.0163684">
        <name>Laverton Road</name>
      </trkpt>
      <trkpt lat="53.7420102" lon="-3.0165017">
        <name>Laverton Road</name>
      </trkpt>
      <trkpt lat="53.7420410" lon="-3.0166350">
        <name>Laverton Road</name>
      </trkpt>
      <trkpt lat="53.7419582" lon="-3.0166938">
        <name>Laverton Road</name>
      </trkpt>
      <trkpt lat="53.7418753" lon="-3.0167527">
        <name>Laverton Road</name>
      </trkpt>
      <trkpt lat="53.7417925" lon="-3.0168115">
        <name>Laverton Road</name>
      </trkpt>
      <trkpt lat="53.7417097" lon="-3.0168703">
        <name>Laverton Road</name>
      </trkpt>
      <trkpt lat="53.7416268" lon="-3.0169292">
        <name>Laverton Road</name>
      </trkpt>
      <trkpt lat="53.7415440" lon="-3.0169880">
        <name>Laverton Road</name>
      </trkpt>
      <trkpt lat="53.7414770" lon="-3.0170356">
        <name>Laverton Road</name>
      </trkpt>
      <trkpt lat="53.7414100" lon="-3.0170832">
        <name>Laverton Road</name>
      </trkpt>
      <trkpt lat="53.7413430" lon="-3.0171308">
        <name>Laverton Road</name>
      </trkpt>
      <trkpt lat="53.7412760" lon="-3.0171784">
        <name>Laverton Road</name>
      </trkpt>
      <trkpt lat="53.7412090" lon="-3.0172260">
        <name>Laverton Road</name>
      </trkpt>
      <trkpt lat="53.7412466" lon="-3.0173464">
        <name>Laverton Road</name>
      </trkpt>
      <trkpt lat="53.7412841" lon="-3.0174669">
        <name>Laverton Road</name>
      </trkpt>
      <trkpt lat="53.7413217" lon="-3.0175873">
        <name>Laverton Road</name>
      </trkpt>
      <trkpt lat="53.7413592" lon="-3.0177078">
        <name>Laverton Road</name>
      </trkpt>
      <trkpt lat="53.7413968" lon="-3.0178282">
        <name>Laverton Road</name>
      </trkpt>
      <trkpt lat="53.7414343" lon="-3.0179487">
        <name>Laverton Road</name>
      </trkpt>
      <trkpt lat="53.7414719" lon="-3.0180691">
        <name>Laverton Road</name>
      </trkpt>
      <trkpt lat="53.7415094" lon="-3.0181896">
        <name>Laverton Road</name>
      </trkpt>
      <trkpt lat="53.7415470" lon="-3.0183100">
        <name>Laverton Road</name>
      </trkpt>
      <trkpt lat="53.7415833" lon="-3.0184268">
        <name>Laverton Road</name>
      </trkpt>
      <trkpt lat="53.7416197" lon="-3.0185437">
        <name>Laverton Road</name>
      </trkpt>
      <trkpt lat="53.7416560" lon="-3.0186605">
        <name>Laverton Road</name>
      </trkpt>
      <trkpt lat="53.7416923" lon="-3.0187773">
        <name>Laverton Road</name>
      </trkpt>
      <trkpt lat="53.7417287" lon="-3.0188942">
        <name>Laverton Road</name>
      </trkpt>
      <trkpt lat="53.7417650" lon="-3.0190110">
        <name>Laverton Road</name>
      </trkpt>
      <trkpt lat="53.7418106" lon="-3.0191363">
        <name>King Edward Avenue</name>
      </trkpt>
      <trkpt lat="53.7418561" lon="-3.0192616">
        <name>King Edward Avenue</name>
      </trkpt>
      <trkpt lat="53.7419017" lon="-3.0193869">
        <name>King Edward Avenue</name>
      </trkpt>
      <trkpt lat="53.7419473" lon="-3.0195123">
        <name>King Edward Avenue</name>
      </trkpt>
      <trkpt lat="53.7419928" lon="-3.0196376">
        <name>King Edward Avenue</name>
      </trkpt>
      <trkpt lat="53.7420384" lon="-3.0197629">
        <name>King Edward Avenue</name>
      </trkpt>
      <trkpt lat="53.7420839" lon="-3.0198882">
        <name>King Edward Avenue</name>
      </trkpt>
      <trkpt lat="53.7421295" lon="-3.0200135">
        <name>King Edward Avenue</name>
      </trkpt>
      <trkpt lat="53.7421751" lon="-3.0201388">
        <name>King Edward Avenue</name>
      </trkpt>
      <trkpt lat="53.7422206" lon="-3.0202641">
        <name>King Edward Avenue</name>
      </trkpt>
      <trkpt lat="53.7422662" lon="-3.0203894">
        <name>King Edward Avenue</name>
      </trkpt>
      <trkpt lat="53.7423117" lon="-3.0205147">
        <name>King Edward Avenue</name>
      </trkpt>
      <trkpt lat="53.7423573" lon="-3.0206401">
        <name>King Edward Avenue</name>
      </trkpt>
      <trkpt lat="53.7424029" lon="-3.0207654">
        <name>King Edward Avenue</name>
      </trkpt>
      <trkpt lat="53.7424484" lon="-3.0208907">
        <name>King Edward Avenue</name>
      </trkpt>
      <trkpt lat="53.7424940" lon="-3.0210160">
        <name>King Edward Avenue</name>
      </trkpt>
      <trkpt lat="53.7425560" lon="-3.0209720">
        <name>King Edward Avenue</name>
      </trkpt>
      <trkpt lat="53.7426313" lon="-3.0209194">
        <name>King Edward Avenue</name>
      </trkpt>
      <trkpt lat="53.7427067" lon="-3.0208669">
        <name>King Edward Avenue</name>
      </trkpt>
      <trkpt lat="53.7427820" lon="-3.0208143">
        <name>King Edward Avenue</name>
      </trkpt>
      <trkpt lat="53.7428573" lon="-3.0207618">
        <name>King Edward Avenue</name>
      </trkpt>
      <trkpt lat="53.7429327" lon="-3.0207092">
        <name>King Edward Avenue</name>
      </trkpt>
      <trkpt lat="53.7430080" lon="-3.0206567">
        <name>King Edward Avenue</name>
      </trkpt>
      <trkpt lat="53.7430833" lon="-3.0206041">
        <name>King Edward Avenue</name>
      </trkpt>
      <trkpt lat="53.7431587" lon="-3.0205516">
        <name>King Edward Avenue</name>
      </trkpt>
      <trkpt lat="53.7432340" lon="-3.0204990">
        <name>King Edward Avenue</name>
      </trkpt>
      <trkpt lat="53.7433033" lon="-3.0204507">
        <name>King Edward Avenue</name>
      </trkpt>
      <trkpt lat="53.7433727" lon="-3.0204023">
        <name>King Edward Avenue</name>
      </trkpt>
      <trkpt lat="53.7434420" lon="-3.0203540">
        <name>King Edward Avenue</name>
      </trkpt>
      <trkpt lat="53.7435113" lon="-3.0203057">
        <name>King Edward Avenue</name>
      </trkpt>
      <trkpt lat="53.7435807" lon="-3.0202573">
        <name>King Edward Avenue</name>
      </trkpt>
      <trkpt lat="53.7436500" lon="-3.0202090">
        <name>King Edward Avenue</name>
      </trkpt>
      <trkpt lat="53.7437296" lon="-3.0201528">
        <name>The Boulevard</name>
      </trkpt>
      <trkpt lat="53.7438092" lon="-3.0200966">
        <name>The Boulevard</name>
      </trkpt>
      <trkpt lat="53.7438888" lon="-3.0200404">
        <name>The Boulevard</name>
      </trkpt>
      <trkpt lat="53.7439684" lon="-3.0199842">
        <name>The Boulevard</name>
      </trkpt>
      <trkpt lat="53.7440480" lon="-3.0199280">
        <name>The Boulevard</name>
      </trkpt>
      <trkpt lat="53.7441150" lon="-3.0198818">
        <name>The Boulevard</name>
      </trkpt>
      <trkpt lat="53.7441820" lon="-3.0198355">
        <name>The Boulevard</name>
      </trkpt>
      <trkpt lat="53.7442490" lon="-3.0197893">
        <name>The Boulevard</name>
      </trkpt>
      <trkpt lat="53.7443160" lon="-3.0197430">
        <name>The Boulevard</name>
      </trkpt>
      <trkpt lat="53.7443988" lon="-3.0196868">
        <name>The Boulevard</name>
      </trkpt>
      <trkpt lat="53.7444815" lon="-3.0196305">
        <name>The Boulevard</name>
      </trkpt>
      <trkpt lat="53.7445643" lon="-3.0195743">
        <name>The Boulevard</name>
      </trkpt>
      <trkpt lat="53.7446471" lon="-3.0195181">
        <name>The Boulevard</name>
      </trkpt>
      <trkpt lat="53.7447298" lon="-3.0194618">
        <name>The Boulevard</name>
      </trkpt>
      <trkpt lat="53.7448126" lon="-3.0194056">
        <name>The Boulevard</name>
      </trkpt>
      <trkpt lat="53.7448954" lon="-3.0193494">
        <name>The Boulevard</name>
      </trkpt>
      <trkpt lat="53.7449782" lon="-3.0192932">
        <name>The Boulevard</name>
      </trkpt>
      <trkpt lat="53.7450609" lon="-3.0192369">
        <name>The Boulevard</name>
      </trkpt>
      <trkpt lat="53.7451437" lon="-3.0191807">
        <name>The Boulevard</name>
      </trkpt>
      <trkpt lat="53.7452265" lon="-3.0191245">
        <name>The Boulevard</name>
      </trkpt>
      <trkpt lat="53.7453092" lon="-3.0190682">
        <name>The Boulevard</name>
      </trkpt>
      <trkpt lat="53.7453920" lon="-3.0190120">
        <name>The Boulevard</name>
      </trkpt>
      <trkpt lat="53.7454630" lon="-3.0189640">
        <name>The Boulevard</name>
      </trkpt>
      <trkpt lat="53.7455340" lon="-3.0189160">
        <name>The Boulevard</name>
      </trkpt>
      <trkpt lat="53.7456050" lon="-3.0188680">
        <name>The Boulevard</name>
      </trkpt>
      <trkpt lat="53.7456760" lon="-3.0188200">
        <name>The Boulevard</name>
      </trkpt>
      <trkpt lat="53.7457497" lon="-3.0187712">
        <name>Kintbury Road</name>
      </trkpt>
      <trkpt lat="53.7458233" lon="-3.0187223">
        <name>Kintbury Road</name>
      </trkpt>
      <trkpt lat="53.7458970" lon="-3.0186735">
        <name>Kintbury Road</name>
      </trkpt>
      <trkpt lat="53.7459707" lon="-3.0186247">
        <name>Kintbury Road</name>
      </trkpt>
      <trkpt lat="53.7460443" lon="-3.0185758">
        <name>Kintbury Road</name>
      </trkpt>
      <trkpt lat="53.7461180" lon="-3.0185270">
        <name>Kintbury Road</name>
      </trkpt>
      <trkpt lat="53.7462000" lon="-3.0184691">
        <name>Kintbury Road</name>
      </trkpt>
      <trkpt lat="53.7462820" lon="-3.0184113">
        <name>Kintbury Road</name>
      </trkpt>
      <trkpt lat="53.7463640" lon="-3.0183534">
        <name>Kintbury Road</name>
      </trkpt>
      <trkpt lat="53.7464460" lon="-3.0182956">
        <name>Kintbury Road</name>
      </trkpt>
      <trkpt lat="53.7465280" lon="-3.0182377">
        <name>Kintbury Road</name>
      </trkpt>
      <trkpt lat="53.7466100" lon="-3.0181799">
        <name>Kintbury Road</name>
      </trkpt>
      <trkpt lat="53.7466920" lon="-3.0181220">
        <name>Kintbury Road</name>
      </trkpt>
      <trkpt lat="53.7467740" lon="-3.0180641">
        <name>Kintbury Road</name>
      </trkpt>
      <trkpt lat="53.7468560" lon="-3.0180063">
        <name>Kintbury Road</name>
      </trkpt>
      <trkpt lat="53.7469380" lon="-3.0179484">
        <name>Kintbury Road</name>
      </trkpt>
      <trkpt lat="53.7470200" lon="-3.0178906">
        <name>Kintbury Road</name>
      </trkpt>
      <trkpt lat="53.7471020" lon="-3.0178327">
        <name>Kintbury Road</name>
      </trkpt>
      <trkpt lat="53.7471840" lon="-3.0177749">
        <name>Kintbury Road</name>
      </trkpt>
      <trkpt lat="53.7472660" lon="-3.0177170">
        <name>Kintbury Road</name>
      </trkpt>
      <trkpt lat="53.7473090" lon="-3.0178267">
        <name>Kintbury Road</name>
      </trkpt>
      <trkpt lat="53.7473520" lon="-3.0179363">
        <name>Kintbury Road</name>
      </trkpt>
      <trkpt lat="53.7473950" lon="-3.0180460">
        <name>Kintbury Road</name>
      </trkpt>
      <trkpt lat="53.7474380" lon="-3.0181557">
        <name>Kintbury Road</name>
      </trkpt>
      <trkpt lat="53.7474810" lon="-3.0182653">
        <name>Kintbury Road</name>
      </trkpt>
      <trkpt lat="53.7475240" lon="-3.0183750">
        <name>Kintbury Road</name>
      </trkpt>
      <trkpt lat="53.7475690" lon="-3.0184897">
        <name>Kintbury Road</name>
      </trkpt>
      <trkpt lat="53.7476140" lon="-3.0186045">
        <name>Kintbury Road</name>
      </trkpt>
      <trkpt lat="53.7476590" lon="-3.0187193">
        <name>Kintbury Road</name>
      </trkpt>
      <trkpt lat="53.7477040" lon="-3.0188340">
        <name>Kintbury Road</name>
      </trkpt>
      <trkpt lat="53.7476438" lon="-3.0189040">
        <name>Kintbury Road</name>
      </trkpt>
      <trkpt lat="53.7475836" lon="-3.0189740">
        <name>Kintbury Road</name>
      </trkpt>
      <trkpt lat="53.7475234" lon="-3.0190440">
        <name>Kintbury Road</name>
      </trkpt>
      <trkpt lat="53.7474632" lon="-3.0191140">
        <name>Kintbury Road</name>
      </trkpt>
      <trkpt lat="53.7474030" lon="-3.0191840">
        <name>Kintbury Road</name>
      </trkpt>
      <trkpt lat="53.7473358" lon="-3.0192622">
        <name>Kintbury Road</name>
      </trkpt>
      <trkpt lat="53.7472686" lon="-3.0193404">
        <name>Kintbury Road</name>
      </trkpt>
      <trkpt lat="53.7472014" lon="-3.0194186">
        <name>Kintbury Road</name>
      </trkpt>
      <trkpt lat="53.7471342" lon="-3.0194968">
        <name>Kintbury Road</name>
      </trkpt>
      <trkpt lat="53.7470670" lon="-3.0195750">
        <name>Kintbury Road</name>
      </trkpt>
      <trkpt lat="53.7469886" lon="-3.0196379">
        <name>Newbury Road</name>
      </trkpt>
      <trkpt lat="53.7469101" lon="-3.0197007">
        <name>Newbury Road</name>
      </trkpt>
      <trkpt lat="53.7468317" lon="-3.0197636">
        <name>Newbury Road</name>
      </trkpt>
      <trkpt lat="53.7467533" lon="-3.0198264">
        <name>Newbury Road</name>
      </trkpt>
      <trkpt lat="53.7466749" lon="-3.0198893">
        <name>Newbury Road</name>
      </trkpt>
      <trkpt lat="53.7465964" lon="-3.0199521">
        <name>Newbury Road</name>
      </trkpt>
      <trkpt lat="53.7465180" lon="-3.0200150">
        <name>Newbury Road</name>
      </trkpt>
      <trkpt lat="53.7464403" lon="-3.0200748">
        <name>Newbury Road</name>
      </trkpt>
      <trkpt lat="53.7463627" lon="-3.0201347">
        <name>Newbury Road</name>
      </trkpt>
      <trkpt lat="53.7462850" lon="-3.0201945">
        <name>Newbury Road</name>
      </trkpt>
      <trkpt lat="53.7462073" lon="-3.0202543">
        <name>Newbury Road</name>
      </trkpt>
      <trkpt lat="53.7461297" lon="-3.0203142">
        <name>Newbury Road</name>
      </trkpt>
      <trkpt lat="53.7460520" lon="-3.0203740">
        <name>Newbury Road</name>
      </trkpt>
      <trkpt lat="53.7460829" lon="-3.0205013">
        <name>Newbury Road</name>
      </trkpt>
      <trkpt lat="53.7461137" lon="-3.0206286">
        <name>Newbury Road</name>
      </trkpt>
      <trkpt lat="53.7461446" lon="-3.0207559">
        <name>Newbury Road</name>
      </trkpt>
      <trkpt lat="53.7461754" lon="-3.0208831">
        <name>Newbury Road</name>
      </trkpt>
      <trkpt lat="53.7462063" lon="-3.0210104">
        <name>Newbury Road</name>
      </trkpt>
      <trkpt lat="53.7462371" lon="-3.0211377">
        <name>Newbury Road</name>
      </trkpt>
      <trkpt lat="53.7462680" lon="-3.0212650">
        <name>Newbury Road</name>
      </trkpt>
      <trkpt lat="53.7462340" lon="-3.0212920">
        <name>King Edward Avenue</name>
      </trkpt>
      <trkpt lat="53.7461549" lon="-3.0213550">
        <name>King Edward Avenue</name>
      </trkpt>
      <trkpt lat="53.7460758" lon="-3.0214180">
        <name>King Edward Avenue</name>
      </trkpt>
      <trkpt lat="53.7459966" lon="-3.0214810">
        <name>King Edward Avenue</name>
      </trkpt>
      <trkpt lat="53.7459175" lon="-3.0215440">
        <name>King Edward Avenue</name>
      </trkpt>
      <trkpt lat="53.7458384" lon="-3.0216070">
        <name>King Edward Avenue</name>
      </trkpt>
      <trkpt lat="53.7457593" lon="-3.0216700">
        <name>King Edward Avenue</name>
      </trkpt>
      <trkpt lat="53.7456802" lon="-3.0217330">
        <name>King Edward Avenue</name>
      </trkpt>
      <trkpt lat="53.7456011" lon="-3.0217960">
        <name>King Edward Avenue</name>
      </trkpt>
      <trkpt lat="53.7455219" lon="-3.0218590">
        <name>King Edward Avenue</name>
      </trkpt>
      <trkpt lat="53.7454428" lon="-3.0219220">
        <name>King Edward Avenue</name>
      </trkpt>
      <trkpt lat="53.7453637" lon="-3.0219850">
        <name>King Edward Avenue</name>
      </trkpt>
      <trkpt lat="53.7452846" lon="-3.0220480">
        <name>King Edward Avenue</name>
      </trkpt>
      <trkpt lat="53.7452055" lon="-3.0221110">
        <name>King Edward Avenue</name>
      </trkpt>
      <trkpt lat="53.7451264" lon="-3.0221740">
        <name>King Edward Avenue</name>
      </trkpt>
      <trkpt lat="53.7450472" lon="-3.0222370">
        <name>King Edward Avenue</name>
      </trkpt>
      <trkpt lat="53.7449681" lon="-3.0223000">
        <name>King Edward Avenue</name>
      </trkpt>
      <trkpt lat="53.7448890" lon="-3.0223630">
        <name>King Edward Avenue</name>
      </trkpt>
      <trkpt lat="53.7449348" lon="-3.0224780">
        <name>King Edward Avenue</name>
      </trkpt>
      <trkpt lat="53.7449806" lon="-3.0225930">
        <name>King Edward Avenue</name>
      </trkpt>
      <trkpt lat="53.7450264" lon="-3.0227080">
        <name>King Edward Avenue</name>
      </trkpt>
      <trkpt lat="53.7450722" lon="-3.0228230">
        <name>King Edward Avenue</name>
      </trkpt>
      <trkpt lat="53.7451180" lon="-3.0229380">
        <name>King Edward Avenue</name>
      </trkpt>
      <trkpt lat="53.7451638" lon="-3.0230530">
        <name>King Edward Avenue</name>
      </trkpt>
      <trkpt lat="53.7452096" lon="-3.0231680">
        <name>King Edward Avenue</name>
      </trkpt>
      <trkpt lat="53.7452554" lon="-3.0232830">
        <name>King Edward Avenue</name>
      </trkpt>
      <trkpt lat="53.7453012" lon="-3.0233980">
        <name>King Edward Avenue</name>
      </trkpt>
      <trkpt lat="53.7453470" lon="-3.0235130">
        <name>King Edward Avenue</name>
      </trkpt>
      <trkpt lat="53.7454227" lon="-3.0234483">
        <name>Shalbourn Road</name>
      </trkpt>
      <trkpt lat="53.7454984" lon="-3.0233836">
        <name>Shalbourn Road</name>
      </trkpt>
      <trkpt lat="53.7455741" lon="-3.0233189">
        <name>Shalbourn Road</name>
      </trkpt>
      <trkpt lat="53.7456497" lon="-3.0232542">
        <name>Shalbourn Road</name>
      </trkpt>
      <trkpt lat="53.7457254" lon="-3.0231896">
        <name>Shalbourn Road</name>
      </trkpt>
      <trkpt lat="53.7458011" lon="-3.0231249">
        <name>Shalbourn Road</name>
      </trkpt>
      <trkpt lat="53.7458768" lon="-3.0230602">
        <name>Shalbourn Road</name>
      </trkpt>
      <trkpt lat="53.7459525" lon="-3.0229955">
        <name>Shalbourn Road</name>
      </trkpt>
      <trkpt lat="53.7460282" lon="-3.0229308">
        <name>Shalbourn Road</name>
      </trkpt>
      <trkpt lat="53.7461039" lon="-3.0228661">
        <name>Shalbourn Road</name>
      </trkpt>
      <trkpt lat="53.7461796" lon="-3.0228014">
        <name>Shalbourn Road</name>
      </trkpt>
      <trkpt lat="53.7462553" lon="-3.0227367">
        <name>Shalbourn Road</name>
      </trkpt>
      <trkpt lat="53.7463309" lon="-3.0226721">
        <name>Shalbourn Road</name>
      </trkpt>
      <trkpt lat="53.7464066" lon="-3.0226074">
        <name>Shalbourn Road</name>
      </trkpt>
      <trkpt lat="53.7464823" lon="-3.0225427">
        <name>Shalbourn Road</name>
      </trkpt>
      <trkpt lat="53.7465580" lon="-3.0224780">
        <name>Shalbourn Road</name>
      </trkpt>
      <trkpt lat="53.7465304" lon="-3.0223634">
        <name>Shalbourn Road</name>
      </trkpt>
      <trkpt lat="53.7465028" lon="-3.0222488">
        <name>Shalbourn Road</name>
      </trkpt>
      <trkpt lat="53.7464752" lon="-3.0221342">
        <name>Shalbourn Road</name>
      </trkpt>
      <trkpt lat="53.7464476" lon="-3.0220196">
        <name>Shalbourn Road</name>
      </trkpt>
      <trkpt lat="53.7464200" lon="-3.0219050">
        <name>Shalbourn Road</name>
      </trkpt>
      <trkpt lat="53.7464983" lon="-3.0218452">
        <name>Shalbourn Road</name>
      </trkpt>
      <trkpt lat="53.7465767" lon="-3.0217853">
        <name>Shalbourn Road</name>
      </trkpt>
      <trkpt lat="53.7466550" lon="-3.0217255">
        <name>Shalbourn Road</name>
      </trkpt>
      <trkpt lat="53.7467333" lon="-3.0216657">
        <name>Shalbourn Road</name>
      </trkpt>
      <trkpt lat="53.7468117" lon="-3.0216058">
        <name>Shalbourn Road</name>
      </trkpt>
      <trkpt lat="53.7468900" lon="-3.0215460">
        <name>Shalbourn Road</name>
      </trkpt>
      <trkpt lat="53.7469536" lon="-3.0214641">
        <name>Shalbourn Road</name>
      </trkpt>
      <trkpt lat="53.7470171" lon="-3.0213823">
        <name>Shalbourn Road</name>
      </trkpt>
      <trkpt lat="53.7470807" lon="-3.0213004">
        <name>Shalbourn Road</name>
      </trkpt>
      <trkpt lat="53.7471443" lon="-3.0212186">
        <name>Shalbourn Road</name>
      </trkpt>
      <trkpt lat="53.7472079" lon="-3.0211367">
        <name>Shalbourn Road</name>
      </trkpt>
      <trkpt lat="53.7472714" lon="-3.0210549">
        <name>Shalbourn Road</name>
      </trkpt>
      <trkpt lat="53.7473350" lon="-3.0209730">
        <name>Shalbourn Road</name>
      </trkpt>
      <trkpt lat="53.7473905" lon="-3.0208953">
        <name>Shalbourn Road</name>
      </trkpt>
      <trkpt lat="53.7474460" lon="-3.0208175">
        <name>Shalbourn Road</name>
      </trkpt>
      <trkpt lat="53.7475015" lon="-3.0207398">
        <name>Shalbourn Road</name>
      </trkpt>
      <trkpt lat="53.7475570" lon="-3.0206620">
        <name>Shalbourn Road</name>
      </trkpt>
      <trkpt lat="53.7476198" lon="-3.0205772">
        <name>Shalbourn Road</name>
      </trkpt>
      <trkpt lat="53.7476826" lon="-3.0204924">
        <name>Shalbourn Road</name>
      </trkpt>
      <trkpt lat="53.7477453" lon="-3.0204077">
        <name>Shalbourn Road</name>
      </trkpt>
      <trkpt lat="53.7478081" lon="-3.0203229">
        <name>Shalbourn Road</name>
      </trkpt>
      <trkpt lat="53.7478709" lon="-3.0202381">
        <name>Shalbourn Road</name>
      </trkpt>
      <trkpt lat="53.7479337" lon="-3.0201533">
        <name>Shalbourn Road</name>
      </trkpt>
      <trkpt lat="53.7479964" lon="-3.0200686">
        <name>Shalbourn Road</name>
      </trkpt>
      <trkpt lat="53.7480592" lon="-3.0199838">
        <name>Shalbourn Road</name>
      </trkpt>
      <trkpt lat="53.7481220" lon="-3.0198990">
        <name>Shalbourn Road</name>
      </trkpt>
      <trkpt lat="53.7481655" lon="-3.0200058">
        <name>Shalbourn Road</name>
      </trkpt>
      <trkpt lat="53.7482090" lon="-3.0201127">
        <name>Shalbourn Road</name>
      </trkpt>
      <trkpt lat="53.7482525" lon="-3.0202195">
        <name>Shalbourn Road</name>
      </trkpt>
      <trkpt lat="53.7482960" lon="-3.0203263">
        <name>Shalbourn Road</name>
      </trkpt>
      <trkpt lat="53.7483395" lon="-3.0204332">
        <name>Shalbourn Road</name>
      </trkpt>
      <trkpt lat="53.7483830" lon="-3.0205400">
        <name>Shalbourn Road</name>
      </trkpt>
      <trkpt lat="53.7484272" lon="-3.0206490">
        <name>Denford Avenue</name>
      </trkpt>
      <trkpt lat="53.7484714" lon="-3.0207580">
        <name>Denford Avenue</name>
      </trkpt>
      <trkpt lat="53.7485156" lon="-3.0208670">
        <name>Denford Avenue</name>
      </trkpt>
      <trkpt lat="53.7485598" lon="-3.0209760">
        <name>Denford Avenue</name>
      </trkpt>
      <trkpt lat="53.7486040" lon="-3.0210850">
        <name>Denford Avenue</name>
      </trkpt>
      <trkpt lat="53.7485435" lon="-3.0211580">
        <name>Denford Avenue</name>
      </trkpt>
      <trkpt lat="53.7484830" lon="-3.0212310">
        <name>Denford Avenue</name>
      </trkpt>
      <trkpt lat="53.7484225" lon="-3.0213040">
        <name>Denford Avenue</name>
      </trkpt>
      <trkpt lat="53.7483620" lon="-3.0213770">
        <name>Denford Avenue</name>
      </trkpt>
      <trkpt lat="53.7483285" lon="-3.0214290">
        <name>Denford Avenue</name>
      </trkpt>
      <trkpt lat="53.7482950" lon="-3.0214810">
        <name>Denford Avenue</name>
      </trkpt>
      <trkpt lat="53.7482327" lon="-3.0215777">
        <name>Denford Avenue</name>
      </trkpt>
      <trkpt lat="53.7481703" lon="-3.0216743">
        <name>Denford Avenue</name>
      </trkpt>
      <trkpt lat="53.7481080" lon="-3.0217710">
        <name>Denford Avenue</name>
      </trkpt>
      <trkpt lat="53.7480457" lon="-3.0218677">
        <name>Denford Avenue</name>
      </trkpt>
      <trkpt lat="53.7479833" lon="-3.0219643">
        <name>Denford Avenue</name>
      </trkpt>
      <trkpt lat="53.7479210" lon="-3.0220610">
        <name>Denford Avenue</name>
      </trkpt>
      <trkpt lat="53.7478587" lon="-3.0221577">
        <name>Denford Avenue</name>
      </trkpt>
      <trkpt lat="53.7477963" lon="-3.0222543">
        <name>Denford Avenue</name>
      </trkpt>
      <trkpt lat="53.7477340" lon="-3.0223510">
        <name>Denford Avenue</name>
      </trkpt>
      <trkpt lat="53.7476720" lon="-3.0224390">
        <name>Denford Avenue</name>
      </trkpt>
      <trkpt lat="53.7476100" lon="-3.0225270">
        <name>Denford Avenue</name>
      </trkpt>
      <trkpt lat="53.7475480" lon="-3.0226150">
        <name>Denford Avenue</name>
      </trkpt>
      <trkpt lat="53.7474872" lon="-3.0227148">
        <name>Denford Avenue</name>
      </trkpt>
      <trkpt lat="53.7474265" lon="-3.0228145">
        <name>Denford Avenue</name>
      </trkpt>
      <trkpt lat="53.7473658" lon="-3.0229142">
        <name>Denford Avenue</name>
      </trkpt>
      <trkpt lat="53.7473050" lon="-3.0230140">
        <name>Denford Avenue</name>
      </trkpt>
      <trkpt lat="53.7472352" lon="-3.0230722">
        <name>Inner Promenade</name>
      </trkpt>
      <trkpt lat="53.7471655" lon="-3.0231305">
        <name>Inner Promenade</name>
      </trkpt>
      <trkpt lat="53.7470957" lon="-3.0231888">
        <name>Inner Promenade</name>
      </trkpt>
      <trkpt lat="53.7470260" lon="-3.0232470">
        <name>Inner Promenade</name>
      </trkpt>
    </trkseg>
  </trk>
</gpx>