<?xml version="1.0" encoding="UTF-8"?>
<gpx version="1.1" creator="TurboSanta Route Planner">
  <trk>
    <name>TurboSanta Route (10m density)</name>
    <trkseg>
      <trkpt lat="53.7613990" lon="-3.0414440">
        <name>Caryl Road</name>
      </trkpt>
      <trkpt lat="53.7613485" lon="-3.0413960">
        <name>Caryl Road</name>
      </trkpt>
      <trkpt lat="53.7612980" lon="-3.0413480">
        <name>Caryl Road</name>
      </trkpt>
      <trkpt lat="53.7612285" lon="-3.0412810">
        <name>Caryl Road</name>
      </trkpt>
      <trkpt lat="53.7611590" lon="-3.0412140">
        <name>Caryl Road</name>
      </trkpt>
      <trkpt lat="53.7610895" lon="-3.0411470">
        <name>Caryl Road</name>
      </trkpt>
      <trkpt lat="53.7610200" lon="-3.0410800">
        <name>Caryl Road</name>
      </trkpt>
      <trkpt lat="53.7609505" lon="-3.0410130">
        <name>Caryl Road</name>
      </trkpt>
      <trkpt lat="53.7608810" lon="-3.0409460">
        <name>Caryl Road</name>
      </trkpt>
      <trkpt lat="53.7608115" lon="-3.0408790">
        <name>Caryl Road</name>
      </trkpt>
      <trkpt lat="53.7607420" lon="-3.0408120">
        <name>Caryl Road</name>
      </trkpt>
      <trkpt lat="53.7606666" lon="-3.0407333">
        <name>Caryl Road</name>
      </trkpt>
      <trkpt lat="53.7605911" lon="-3.0406547">
        <name>Caryl Road</name>
      </trkpt>
      <trkpt lat="53.7605157" lon="-3.0405760">
        <name>Caryl Road</name>
      </trkpt>
      <trkpt lat="53.7604402" lon="-3.0404973">
        <name>Caryl Road</name>
      </trkpt>
      <trkpt lat="53.7603648" lon="-3.0404187">
        <name>Caryl Road</name>
      </trkpt>
      <trkpt lat="53.7602893" lon="-3.0403400">
        <name>Caryl Road</name>
      </trkpt>
      <trkpt lat="53.7602139" lon="-3.0402613">
        <name>Caryl Road</name>
      </trkpt>
      <trkpt lat="53.7601384" lon="-3.0401827">
        <name>Caryl Road</name>
      </trkpt>
      <trkpt lat="53.7600630" lon="-3.0401040">
        <name>Caryl Road</name>
      </trkpt>
      <trkpt lat="53.7599938" lon="-3.0400304">
        <name>Caryl Road</name>
      </trkpt>
      <trkpt lat="53.7599246" lon="-3.0399569">
        <name>Caryl Road</name>
      </trkpt>
      <trkpt lat="53.7598553" lon="-3.0398833">
        <name>Caryl Road</name>
      </trkpt>
      <trkpt lat="53.7597861" lon="-3.0398098">
        <name>Caryl Road</name>
      </trkpt>
      <trkpt lat="53.7597169" lon="-3.0397362">
        <name>Caryl Road</name>
      </trkpt>
      <trkpt lat="53.7596477" lon="-3.0396627">
        <name>Caryl Road</name>
      </trkpt>
      <trkpt lat="53.7595784" lon="-3.0395891">
        <name>Caryl Road</name>
      </trkpt>
      <trkpt lat="53.7595092" lon="-3.0395156">
        <name>Caryl Road</name>
      </trkpt>
      <trkpt lat="53.7594400" lon="-3.0394420">
        <name>Caryl Road</name>
      </trkpt>
      <trkpt lat="53.7593728" lon="-3.0393695">
        <name>Caryl Road</name>
      </trkpt>
      <trkpt lat="53.7593057" lon="-3.0392970">
        <name>Caryl Road</name>
      </trkpt>
      <trkpt lat="53.7592385" lon="-3.0392245">
        <name>Caryl Road</name>
      </trkpt>
      <trkpt lat="53.7591713" lon="-3.0391520">
        <name>Caryl Road</name>
      </trkpt>
      <trkpt lat="53.7591042" lon="-3.0390795">
        <name>Caryl Road</name>
      </trkpt>
      <trkpt lat="53.7590370" lon="-3.0390070">
        <name>Caryl Road</name>
      </trkpt>
      <trkpt lat="53.7589692" lon="-3.0389328">
        <name>Caryl Road</name>
      </trkpt>
      <trkpt lat="53.7589013" lon="-3.0388587">
        <name>Caryl Road</name>
      </trkpt>
      <trkpt lat="53.7588335" lon="-3.0387845">
        <name>Caryl Road</name>
      </trkpt>
      <trkpt lat="53.7587657" lon="-3.0387103">
        <name>Caryl Road</name>
      </trkpt>
      <trkpt lat="53.7586978" lon="-3.0386362">
        <name>Caryl Road</name>
      </trkpt>
      <trkpt lat="53.7586300" lon="-3.0385620">
        <name>Caryl Road</name>
      </trkpt>
      <trkpt lat="53.7585673" lon="-3.0384918">
        <name>Caryl Road</name>
      </trkpt>
      <trkpt lat="53.7585047" lon="-3.0384217">
        <name>Caryl Road</name>
      </trkpt>
      <trkpt lat="53.7584420" lon="-3.0383515">
        <name>Caryl Road</name>
      </trkpt>
      <trkpt lat="53.7583793" lon="-3.0382813">
        <name>Caryl Road</name>
      </trkpt>
      <trkpt lat="53.7583167" lon="-3.0382112">
        <name>Caryl Road</name>
      </trkpt>
      <trkpt lat="53.7582540" lon="-3.0381410">
        <name>Caryl Road</name>
      </trkpt>
      <trkpt lat="53.7582078" lon="-3.0382622">
        <name>St Hilda's Road</name>
      </trkpt>
      <trkpt lat="53.7581616" lon="-3.0383834">
        <name>St Hilda's Road</name>
      </trkpt>
      <trkpt lat="53.7581154" lon="-3.0385046">
        <name>St Hilda's Road</name>
      </trkpt>
      <trkpt lat="53.7580692" lon="-3.0386258">
        <name>St Hilda's Road</name>
      </trkpt>
      <trkpt lat="53.7580230" lon="-3.0387470">
        <name>St Hilda's Road</name>
      </trkpt>
      <trkpt lat="53.7579810" lon="-3.0388610">
        <name>St Hilda's Road</name>
      </trkpt>
      <trkpt lat="53.7579390" lon="-3.0389750">
        <name>St Hilda's Road</name>
      </trkpt>
      <trkpt lat="53.7578970" lon="-3.0390890">
        <name>St Hilda's Road</name>
      </trkpt>
      <trkpt lat="53.7578515" lon="-3.0392122">
        <name>St Hilda's Road</name>
      </trkpt>
      <trkpt lat="53.7578060" lon="-3.0393353">
        <name>St Hilda's Road</name>
      </trkpt>
      <trkpt lat="53.7577605" lon="-3.0394585">
        <name>St Hilda's Road</name>
      </trkpt>
      <trkpt lat="53.7577150" lon="-3.0395817">
        <name>St Hilda's Road</name>
      </trkpt>
      <trkpt lat="53.7576695" lon="-3.0397048">
        <name>St Hilda's Road</name>
      </trkpt>
      <trkpt lat="53.7576240" lon="-3.0398280">
        <name>St Hilda's Road</name>
      </trkpt>
      <trkpt lat="53.7575783" lon="-3.0399561">
        <name>St Hilda's Road</name>
      </trkpt>
      <trkpt lat="53.7575326" lon="-3.0400843">
        <name>St Hilda's Road</name>
      </trkpt>
      <trkpt lat="53.7574869" lon="-3.0402124">
        <name>St Hilda's Road</name>
      </trkpt>
      <trkpt lat="53.7574411" lon="-3.0403406">
        <name>St Hilda's Road</name>
      </trkpt>
      <trkpt lat="53.7573954" lon="-3.0404687">
        <name>St Hilda's Road</name>
      </trkpt>
      <trkpt lat="53.7573497" lon="-3.0405969">
        <name>St Hilda's Road</name>
      </trkpt>
      <trkpt lat="53.7573040" lon="-3.0407250">
        <name>St Hilda's Road</name>
      </trkpt>
      <trkpt lat="53.7572339" lon="-3.0406491">
        <name>St Hilda's Road</name>
      </trkpt>
      <trkpt lat="53.7571637" lon="-3.0405733">
        <name>St Hilda's Road</name>
      </trkpt>
      <trkpt lat="53.7570936" lon="-3.0404974">
        <name>St Hilda's Road</name>
      </trkpt>
      <trkpt lat="53.7570234" lon="-3.0404216">
        <name>St Hilda's Road</name>
      </trkpt>
      <trkpt lat="53.7569533" lon="-3.0403457">
        <name>St Hilda's Road</name>
      </trkpt>
      <trkpt lat="53.7568831" lon="-3.0402699">
        <name>St Hilda's Road</name>
      </trkpt>
      <trkpt lat="53.7568130" lon="-3.0401940">
        <name>St Hilda's Road</name>
      </trkpt>
      <trkpt lat="53.7567450" lon="-3.0401205">
        <name>St Hilda's Road</name>
      </trkpt>
      <trkpt lat="53.7566770" lon="-3.0400470">
        <name>St Hilda's Road</name>
      </trkpt>
      <trkpt lat="53.7566090" lon="-3.0399735">
        <name>St Hilda's Road</name>
      </trkpt>
      <trkpt lat="53.7565410" lon="-3.0399000">
        <name>St Hilda's Road</name>
      </trkpt>
      <trkpt lat="53.7565882" lon="-3.0397766">
        <name>St Hilda's Road</name>
      </trkpt>
      <trkpt lat="53.7566354" lon="-3.0396533">
        <name>St Hilda's Road</name>
      </trkpt>
      <trkpt lat="53.7566825" lon="-3.0395299">
        <name>St Hilda's Road</name>
      </trkpt>
      <trkpt lat="53.7567297" lon="-3.0394065">
        <name>St Hilda's Road</name>
      </trkpt>
      <trkpt lat="53.7567769" lon="-3.0392832">
        <name>St Hilda's Road</name>
      </trkpt>
      <trkpt lat="53.7568241" lon="-3.0391598">
        <name>St Hilda's Road</name>
      </trkpt>
      <trkpt lat="53.7568713" lon="-3.0390365">
        <name>St Hilda's Road</name>
      </trkpt>
      <trkpt lat="53.7569185" lon="-3.0389131">
        <name>St Hilda's Road</name>
      </trkpt>
      <trkpt lat="53.7569656" lon="-3.0387897">
        <name>St Hilda's Road</name>
      </trkpt>
      <trkpt lat="53.7570128" lon="-3.0386664">
        <name>St Hilda's Road</name>
      </trkpt>
      <trkpt lat="53.7570600" lon="-3.0385430">
        <name>St Hilda's Road</name>
      </trkpt>
      <trkpt lat="53.7570015" lon="-3.0384803">
        <name>St Hilda's Road</name>
      </trkpt>
      <trkpt lat="53.7569430" lon="-3.0384175">
        <name>St Hilda's Road</name>
      </trkpt>
      <trkpt lat="53.7568845" lon="-3.0383548">
        <name>St Hilda's Road</name>
      </trkpt>
      <trkpt lat="53.7568260" lon="-3.0382920">
        <name>St Hilda's Road</name>
      </trkpt>
      <trkpt lat="53.7567509" lon="-3.0382118">
        <name>Clifton Drive North</name>
      </trkpt>
      <trkpt lat="53.7566757" lon="-3.0381315">
        <name>Clifton Drive North</name>
      </trkpt>
      <trkpt lat="53.7566006" lon="-3.0380513">
        <name>Clifton Drive North</name>
      </trkpt>
      <trkpt lat="53.7565255" lon="-3.0379710">
        <name>Clifton Drive North</name>
      </trkpt>
      <trkpt lat="53.7564504" lon="-3.0378908">
        <name>Clifton Drive North</name>
      </trkpt>
      <trkpt lat="53.7563752" lon="-3.0378105">
        <name>Clifton Drive North</name>
      </trkpt>
      <trkpt lat="53.7563001" lon="-3.0377303">
        <name>Clifton Drive North</name>
      </trkpt>
      <trkpt lat="53.7562250" lon="-3.0376500">
        <name>Clifton Drive North</name>
      </trkpt>
      <trkpt lat="53.7561548" lon="-3.0375750">
        <name>Clifton Drive North</name>
      </trkpt>
      <trkpt lat="53.7560847" lon="-3.0375000">
        <name>Clifton Drive North</name>
      </trkpt>
      <trkpt lat="53.7560145" lon="-3.0374250">
        <name>Clifton Drive North</name>
      </trkpt>
      <trkpt lat="53.7559443" lon="-3.0373500">
        <name>Clifton Drive North</name>
      </trkpt>
      <trkpt lat="53.7558742" lon="-3.0372750">
        <name>Clifton Drive North</name>
      </trkpt>
      <trkpt lat="53.7558040" lon="-3.0372000">
        <name>Clifton Drive North</name>
      </trkpt>
      <trkpt lat="53.7557351" lon="-3.0371202">
        <name>Clifton Drive North</name>
      </trkpt>
      <trkpt lat="53.7556661" lon="-3.0370404">
        <name>Clifton Drive North</name>
      </trkpt>
      <trkpt lat="53.7555972" lon="-3.0369606">
        <name>Clifton Drive North</name>
      </trkpt>
      <trkpt lat="53.7555283" lon="-3.0368809">
        <name>Clifton Drive North</name>
      </trkpt>
      <trkpt lat="53.7554594" lon="-3.0368011">
        <name>Clifton Drive North</name>
      </trkpt>
      <trkpt lat="53.7553904" lon="-3.0367213">
        <name>Clifton Drive North</name>
      </trkpt>
      <trkpt lat="53.7553215" lon="-3.0366415">
        <name>Clifton Drive North</name>
      </trkpt>
      <trkpt lat="53.7552526" lon="-3.0365617">
        <name>Clifton Drive North</name>
      </trkpt>
      <trkpt lat="53.7551836" lon="-3.0364819">
        <name>Clifton Drive North</name>
      </trkpt>
      <trkpt lat="53.7551147" lon="-3.0364021">
        <name>Clifton Drive North</name>
      </trkpt>
      <trkpt lat="53.7550458" lon="-3.0363224">
        <name>Clifton Drive North</name>
      </trkpt>
      <trkpt lat="53.7549769" lon="-3.0362426">
        <name>Clifton Drive North</name>
      </trkpt>
      <trkpt lat="53.7549079" lon="-3.0361628">
        <name>Clifton Drive North</name>
      </trkpt>
      <trkpt lat="53.7548390" lon="-3.0360830">
        <name>Clifton Drive North</name>
      </trkpt>
      <trkpt lat="53.7547796" lon="-3.0359919">
        <name>Clifton Drive North</name>
      </trkpt>
      <trkpt lat="53.7547201" lon="-3.0359007">
        <name>Clifton Drive North</name>
      </trkpt>
      <trkpt lat="53.7546607" lon="-3.0358096">
        <name>Clifton Drive North</name>
      </trkpt>
      <trkpt lat="53.7546013" lon="-3.0357184">
        <name>Clifton Drive North</name>
      </trkpt>
      <trkpt lat="53.7545419" lon="-3.0356273">
        <name>Clifton Drive North</name>
      </trkpt>
      <trkpt lat="53.7544824" lon="-3.0355361">
        <name>Clifton Drive North</name>
      </trkpt>
      <trkpt lat="53.7544230" lon="-3.0354450">
        <name>Clifton Drive North</name>
      </trkpt>
      <trkpt lat="53.7544703" lon="-3.0353553">
        <name>Clifton Drive North</name>
      </trkpt>
      <trkpt lat="53.7545175" lon="-3.0352655">
        <name>Clifton Drive North</name>
      </trkpt>
      <trkpt lat="53.7545648" lon="-3.0351758">
        <name>Clifton Drive North</name>
      </trkpt>
      <trkpt lat="53.7546120" lon="-3.0350860">
        <name>Clifton Drive North</name>
      </trkpt>
      <trkpt lat="53.7546635" lon="-3.0349970">
        <name>Clifton Drive North</name>
      </trkpt>
      <trkpt lat="53.7547150" lon="-3.0349080">
        <name>Clifton Drive North</name>
      </trkpt>
      <trkpt lat="53.7547665" lon="-3.0348190">
        <name>St Leonard's Road West</name>
      </trkpt>
      <trkpt lat="53.7548180" lon="-3.0347300">
        <name>St Leonard's Road West</name>
      </trkpt>
      <trkpt lat="53.7548695" lon="-3.0346410">
        <name>St Leonard's Road West</name>
      </trkpt>
      <trkpt lat="53.7549210" lon="-3.0345520">
        <name>St Leonard's Road West</name>
      </trkpt>
      <trkpt lat="53.7549782" lon="-3.0346394">
        <name>St Leonard's Road West</name>
      </trkpt>
      <trkpt lat="53.7550354" lon="-3.0347268">
        <name>St Leonard's Road West</name>
      </trkpt>
      <trkpt lat="53.7550926" lon="-3.0348142">
        <name>St Leonard's Road West</name>
      </trkpt>
      <trkpt lat="53.7551498" lon="-3.0349016">
        <name>St Leonard's Road West</name>
      </trkpt>
      <trkpt lat="53.7552070" lon="-3.0349890">
        <name>St Leonard's Road West</name>
      </trkpt>
      <trkpt lat="53.7552791" lon="-3.0350711">
        <name>Rowsley Road</name>
      </trkpt>
      <trkpt lat="53.7553513" lon="-3.0351531">
        <name>Rowsley Road</name>
      </trkpt>
      <trkpt lat="53.7554234" lon="-3.0352352">
        <name>Rowsley Road</name>
      </trkpt>
      <trkpt lat="53.7554956" lon="-3.0353173">
        <name>Rowsley Road</name>
      </trkpt>
      <trkpt lat="53.7555677" lon="-3.0353994">
        <name>Rowsley Road</name>
      </trkpt>
      <trkpt lat="53.7556399" lon="-3.0354814">
        <name>Rowsley Road</name>
      </trkpt>
      <trkpt lat="53.7557120" lon="-3.0355635">
        <name>Rowsley Road</name>
      </trkpt>
      <trkpt lat="53.7557841" lon="-3.0356456">
        <name>Rowsley Road</name>
      </trkpt>
      <trkpt lat="53.7558563" lon="-3.0357276">
        <name>Rowsley Road</name>
      </trkpt>
      <trkpt lat="53.7559284" lon="-3.0358097">
        <name>Rowsley Road</name>
      </trkpt>
      <trkpt lat="53.7560006" lon="-3.0358918">
        <name>Rowsley Road</name>
      </trkpt>
      <trkpt lat="53.7560727" lon="-3.0359739">
        <name>Rowsley Road</name>
      </trkpt>
      <trkpt lat="53.7561449" lon="-3.0360559">
        <name>Rowsley Road</name>
      </trkpt>
      <trkpt lat="53.7562170" lon="-3.0361380">
        <name>Rowsley Road</name>
      </trkpt>
      <trkpt lat="53.7562893" lon="-3.0362176">
        <name>Rowsley Road</name>
      </trkpt>
      <trkpt lat="53.7563616" lon="-3.0362973">
        <name>Rowsley Road</name>
      </trkpt>
      <trkpt lat="53.7564339" lon="-3.0363769">
        <name>Rowsley Road</name>
      </trkpt>
      <trkpt lat="53.7565062" lon="-3.0364566">
        <name>Rowsley Road</name>
      </trkpt>
      <trkpt lat="53.7565785" lon="-3.0365362">
        <name>Rowsley Road</name>
      </trkpt>
      <trkpt lat="53.7566508" lon="-3.0366159">
        <name>Rowsley Road</name>
      </trkpt>
      <trkpt lat="53.7567231" lon="-3.0366955">
        <name>Rowsley Road</name>
      </trkpt>
      <trkpt lat="53.7567954" lon="-3.0367752">
        <name>Rowsley Road</name>
      </trkpt>
      <trkpt lat="53.7568676" lon="-3.0368548">
        <name>Rowsley Road</name>
      </trkpt>
      <trkpt lat="53.7569399" lon="-3.0369345">
        <name>Rowsley Road</name>
      </trkpt>
      <trkpt lat="53.7570122" lon="-3.0370141">
        <name>Rowsley Road</name>
      </trkpt>
      <trkpt lat="53.7570845" lon="-3.0370938">
        <name>Rowsley Road</name>
      </trkpt>
      <trkpt lat="53.7571568" lon="-3.0371734">
        <name>Rowsley Road</name>
      </trkpt>
      <trkpt lat="53.7572291" lon="-3.0372531">
        <name>Rowsley Road</name>
      </trkpt>
      <trkpt lat="53.7573014" lon="-3.0373327">
        <name>Rowsley Road</name>
      </trkpt>
      <trkpt lat="53.7573737" lon="-3.0374124">
        <name>Rowsley Road</name>
      </trkpt>
      <trkpt lat="53.7574460" lon="-3.0374920">
        <name>Rowsley Road</name>
      </trkpt>
      <trkpt lat="53.7574855" lon="-3.0373845">
        <name>Rowsley Road</name>
      </trkpt>
      <trkpt lat="53.7575250" lon="-3.0372770">
        <name>Rowsley Road</name>
      </trkpt>
      <trkpt lat="53.7575695" lon="-3.0371530">
        <name>Rowsley Road</name>
      </trkpt>
      <trkpt lat="53.7576140" lon="-3.0370290">
        <name>Rowsley Road</name>
      </trkpt>
      <trkpt lat="53.7576585" lon="-3.0369050">
        <name>Rowsley Road</name>
      </trkpt>
      <trkpt lat="53.7577030" lon="-3.0367810">
        <name>Rowsley Road</name>
      </trkpt>
      <trkpt lat="53.7577475" lon="-3.0366570">
        <name>Rowsley Road</name>
      </trkpt>
      <trkpt lat="53.7577920" lon="-3.0365330">
        <name>Rowsley Road</name>
      </trkpt>
      <trkpt lat="53.7578410" lon="-3.0364115">
        <name>Rowsley Road</name>
      </trkpt>
      <trkpt lat="53.7578900" lon="-3.0362900">
        <name>Rowsley Road</name>
      </trkpt>
      <trkpt lat="53.7579390" lon="-3.0361685">
        <name>Rowsley Road</name>
      </trkpt>
      <trkpt lat="53.7579880" lon="-3.0360470">
        <name>Rowsley Road</name>
      </trkpt>
      <trkpt lat="53.7580285" lon="-3.0359443">
        <name>Rowsley Road</name>
      </trkpt>
      <trkpt lat="53.7580690" lon="-3.0358415">
        <name>Rowsley Road</name>
      </trkpt>
      <trkpt lat="53.7581095" lon="-3.0357387">
        <name>Rowsley Road</name>
      </trkpt>
      <trkpt lat="53.7581500" lon="-3.0356360">
        <name>Rowsley Road</name>
      </trkpt>
      <trkpt lat="53.7581928" lon="-3.0355244">
        <name>Rowsley Road</name>
      </trkpt>
      <trkpt lat="53.7582356" lon="-3.0354128">
        <name>Rowsley Road</name>
      </trkpt>
      <trkpt lat="53.7582784" lon="-3.0353012">
        <name>Rowsley Road</name>
      </trkpt>
      <trkpt lat="53.7583212" lon="-3.0351896">
        <name>Rowsley Road</name>
      </trkpt>
      <trkpt lat="53.7583640" lon="-3.0350780">
        <name>Rowsley Road</name>
      </trkpt>
      <trkpt lat="53.7584058" lon="-3.0349692">
        <name>Rowsley Road</name>
      </trkpt>
      <trkpt lat="53.7584476" lon="-3.0348604">
        <name>Rowsley Road</name>
      </trkpt>
      <trkpt lat="53.7584894" lon="-3.0347516">
        <name>Rowsley Road</name>
      </trkpt>
      <trkpt lat="53.7585312" lon="-3.0346428">
        <name>Rowsley Road</name>
      </trkpt>
      <trkpt lat="53.7585730" lon="-3.0345340">
        <name>Rowsley Road</name>
      </trkpt>
      <trkpt lat="53.7585940" lon="-3.0344790">
        <name>Rowsley Road</name>
      </trkpt>
      <trkpt lat="53.7586604" lon="-3.0345660">
        <name>Beach Road</name>
      </trkpt>
      <trkpt lat="53.7587268" lon="-3.0346530">
        <name>Beach Road</name>
      </trkpt>
      <trkpt lat="53.7587932" lon="-3.0347400">
        <name>Beach Road</name>
      </trkpt>
      <trkpt lat="53.7588596" lon="-3.0348270">
        <name>Beach Road</name>
      </trkpt>
      <trkpt lat="53.7589260" lon="-3.0349140">
        <name>Beach Road</name>
      </trkpt>
      <trkpt lat="53.7589993" lon="-3.0349872">
        <name>Beach Road</name>
      </trkpt>
      <trkpt lat="53.7590727" lon="-3.0350603">
        <name>Beach Road</name>
      </trkpt>
      <trkpt lat="53.7591460" lon="-3.0351335">
        <name>Beach Road</name>
      </trkpt>
      <trkpt lat="53.7592193" lon="-3.0352067">
        <name>Beach Road</name>
      </trkpt>
      <trkpt lat="53.7592927" lon="-3.0352798">
        <name>Beach Road</name>
      </trkpt>
      <trkpt lat="53.7593660" lon="-3.0353530">
        <name>Beach Road</name>
      </trkpt>
      <trkpt lat="53.7594118" lon="-3.0352361">
        <name>Beach Road</name>
      </trkpt>
      <trkpt lat="53.7594576" lon="-3.0351192">
        <name>Beach Road</name>
      </trkpt>
      <trkpt lat="53.7595035" lon="-3.0350023">
        <name>Beach Road</name>
      </trkpt>
      <trkpt lat="53.7595493" lon="-3.0348854">
        <name>Beach Road</name>
      </trkpt>
      <trkpt lat="53.7595951" lon="-3.0347685">
        <name>Beach Road</name>
      </trkpt>
      <trkpt lat="53.7596409" lon="-3.0346515">
        <name>Beach Road</name>
      </trkpt>
      <trkpt lat="53.7596867" lon="-3.0345346">
        <name>Beach Road</name>
      </trkpt>
      <trkpt lat="53.7597325" lon="-3.0344177">
        <name>Beach Road</name>
      </trkpt>
      <trkpt lat="53.7597784" lon="-3.0343008">
        <name>Beach Road</name>
      </trkpt>
      <trkpt lat="53.7598242" lon="-3.0341839">
        <name>Beach Road</name>
      </trkpt>
      <trkpt lat="53.7598700" lon="-3.0340670">
        <name>Beach Road</name>
      </trkpt>
      <trkpt lat="53.7599105" lon="-3.0339652">
        <name>Beach Road</name>
      </trkpt>
      <trkpt lat="53.7599510" lon="-3.0338635">
        <name>Beach Road</name>
      </trkpt>
      <trkpt lat="53.7599915" lon="-3.0337618">
        <name>Beach Road</name>
      </trkpt>
      <trkpt lat="53.7600320" lon="-3.0336600">
        <name>Beach Road</name>
      </trkpt>
      <trkpt lat="53.7601078" lon="-3.0337410">
        <name>Beach Road</name>
      </trkpt>
      <trkpt lat="53.7601836" lon="-3.0338220">
        <name>Beach Road</name>
      </trkpt>
      <trkpt lat="53.7602594" lon="-3.0339030">
        <name>Beach Road</name>
      </trkpt>
      <trkpt lat="53.7603352" lon="-3.0339840">
        <name>Beach Road</name>
      </trkpt>
      <trkpt lat="53.7604110" lon="-3.0340650">
        <name>Beach Road</name>
      </trkpt>
      <trkpt lat="53.7604868" lon="-3.0341460">
        <name>Beach Road</name>
      </trkpt>
      <trkpt lat="53.7605626" lon="-3.0342270">
        <name>Beach Road</name>
      </trkpt>
      <trkpt lat="53.7606384" lon="-3.0343080">
        <name>Beach Road</name>
      </trkpt>
      <trkpt lat="53.7607142" lon="-3.0343890">
        <name>Beach Road</name>
      </trkpt>
      <trkpt lat="53.7607900" lon="-3.0344700">
        <name>Beach Road</name>
      </trkpt>
      <trkpt lat="53.7608598" lon="-3.0345447">
        <name>Beach Road</name>
      </trkpt>
      <trkpt lat="53.7609296" lon="-3.0346193">
        <name>Beach Road</name>
      </trkpt>
      <trkpt lat="53.7609993" lon="-3.0346940">
        <name>Beach Road</name>
      </trkpt>
      <trkpt lat="53.7610691" lon="-3.0347687">
        <name>Beach Road</name>
      </trkpt>
      <trkpt lat="53.7611389" lon="-3.0348433">
        <name>Beach Road</name>
      </trkpt>
      <trkpt lat="53.7612087" lon="-3.0349180">
        <name>Beach Road</name>
      </trkpt>
      <trkpt lat="53.7612784" lon="-3.0349927">
        <name>Beach Road</name>
      </trkpt>
      <trkpt lat="53.7613482" lon="-3.0350673">
        <name>Beach Road</name>
      </trkpt>
      <trkpt lat="53.7614180" lon="-3.0351420">
        <name>Beach Road</name>
      </trkpt>
      <trkpt lat="53.7614010" lon="-3.0352838">
        <name>Beach Road</name>
      </trkpt>
      <trkpt lat="53.7613840" lon="-3.0354255">
        <name>Beach Road</name>
      </trkpt>
      <trkpt lat="53.7613670" lon="-3.0355673">
        <name>Beach Road</name>
      </trkpt>
      <trkpt lat="53.7613500" lon="-3.0357090">
        <name>Beach Road</name>
      </trkpt>
      <trkpt lat="53.7613165" lon="-3.0358185">
        <name>Chatsworth Road</name>
      </trkpt>
      <trkpt lat="53.7612830" lon="-3.0359280">
        <name>Chatsworth Road</name>
      </trkpt>
      <trkpt lat="53.7612495" lon="-3.0360375">
        <name>Chatsworth Road</name>
      </trkpt>
      <trkpt lat="53.7612160" lon="-3.0361470">
        <name>Chatsworth Road</name>
      </trkpt>
      <trkpt lat="53.7612925" lon="-3.0362260">
        <name>Chatsworth Road</name>
      </trkpt>
      <trkpt lat="53.7613690" lon="-3.0363050">
        <name>Chatsworth Road</name>
      </trkpt>
      <trkpt lat="53.7614455" lon="-3.0363840">
        <name>Chatsworth Road</name>
      </trkpt>
      <trkpt lat="53.7615220" lon="-3.0364630">
        <name>Chatsworth Road</name>
      </trkpt>
      <trkpt lat="53.7615985" lon="-3.0365420">
        <name>Chatsworth Road</name>
      </trkpt>
      <trkpt lat="53.7616750" lon="-3.0366210">
        <name>Chatsworth Road</name>
      </trkpt>
      <trkpt lat="53.7617479" lon="-3.0366963">
        <name>Chatsworth Road</name>
      </trkpt>
      <trkpt lat="53.7618207" lon="-3.0367716">
        <name>Chatsworth Road</name>
      </trkpt>
      <trkpt lat="53.7618936" lon="-3.0368469">
        <name>Chatsworth Road</name>
      </trkpt>
      <trkpt lat="53.7619664" lon="-3.0369221">
        <name>Chatsworth Road</name>
      </trkpt>
      <trkpt lat="53.7620393" lon="-3.0369974">
        <name>Chatsworth Road</name>
      </trkpt>
      <trkpt lat="53.7621121" lon="-3.0370727">
        <name>Chatsworth Road</name>
      </trkpt>
      <trkpt lat="53.7621850" lon="-3.0371480">
        <name>Chatsworth Road</name>
      </trkpt>
      <trkpt lat="53.7622633" lon="-3.0372187">
        <name>Chatsworth Road</name>
      </trkpt>
      <trkpt lat="53.7623417" lon="-3.0372893">
        <name>Chatsworth Road</name>
      </trkpt>
      <trkpt lat="53.7624200" lon="-3.0373600">
        <name>Chatsworth Road</name>
      </trkpt>
      <trkpt lat="53.7624942" lon="-3.0373738">
        <name>St Leonard's Road West</name>
      </trkpt>
      <trkpt lat="53.7625684" lon="-3.0373876">
        <name>St Leonard's Road West</name>
      </trkpt>
      <trkpt lat="53.7626426" lon="-3.0374014">
        <name>St Leonard's Road West</name>
      </trkpt>
      <trkpt lat="53.7627168" lon="-3.0374152">
        <name>St Leonard's Road West</name>
      </trkpt>
      <trkpt lat="53.7627910" lon="-3.0374290">
        <name>St Leonard's Road West</name>
      </trkpt>
      <trkpt lat="53.7627940" lon="-3.0373014">
        <name>St Leonard's Road West</name>
      </trkpt>
      <trkpt lat="53.7627970" lon="-3.0371738">
        <name>St Leonard's Road West</name>
      </trkpt>
      <trkpt lat="53.7628000" lon="-3.0370462">
        <name>St Leonard's Road West</name>
      </trkpt>
      <trkpt lat="53.7628030" lon="-3.0369186">
        <name>St Leonard's Road West</name>
      </trkpt>
      <trkpt lat="53.7628060" lon="-3.0367910">
        <name>St Leonard's Road West</name>
      </trkpt>
      <trkpt lat="53.7627947" lon="-3.0366550">
        <name>St Leonard's Road West</name>
      </trkpt>
      <trkpt lat="53.7627833" lon="-3.0365190">
        <name>St Leonard's Road West</name>
      </trkpt>
      <trkpt lat="53.7627720" lon="-3.0363830">
        <name>St Leonard's Road West</name>
      </trkpt>
      <trkpt lat="53.7627573" lon="-3.0362570">
        <name>St Leonard's Road West</name>
      </trkpt>
      <trkpt lat="53.7627427" lon="-3.0361310">
        <name>St Leonard's Road West</name>
      </trkpt>
      <trkpt lat="53.7627280" lon="-3.0360050">
        <name>St Leonard's Road West</name>
      </trkpt>
      <trkpt lat="53.7627098" lon="-3.0358631">
        <name>St Leonard's Road West</name>
      </trkpt>
      <trkpt lat="53.7626916" lon="-3.0357212">
        <name>St Leonard's Road West</name>
      </trkpt>
      <trkpt lat="53.7626734" lon="-3.0355793">
        <name>St Leonard's Road West</name>
      </trkpt>
      <trkpt lat="53.7626552" lon="-3.0354374">
        <name>St Leonard's Road West</name>
      </trkpt>
      <trkpt lat="53.7626370" lon="-3.0352955">
        <name>St Leonard's Road West</name>
      </trkpt>
      <trkpt lat="53.7626188" lon="-3.0351536">
        <name>St Leonard's Road West</name>
      </trkpt>
      <trkpt lat="53.7626006" lon="-3.0350117">
        <name>St Leonard's Road West</name>
      </trkpt>
      <trkpt lat="53.7625824" lon="-3.0348698">
        <name>St Leonard's Road West</name>
      </trkpt>
      <trkpt lat="53.7625642" lon="-3.0347279">
        <name>St Leonard's Road West</name>
      </trkpt>
      <trkpt lat="53.7625460" lon="-3.0345860">
        <name>St Leonard's Road West</name>
      </trkpt>
      <trkpt lat="53.7625283" lon="-3.0344537">
        <name>St Leonard's Road West</name>
      </trkpt>
      <trkpt lat="53.7625107" lon="-3.0343213">
        <name>St Leonard's Road West</name>
      </trkpt>
      <trkpt lat="53.7624930" lon="-3.0341890">
        <name>St Leonard's Road West</name>
      </trkpt>
      <trkpt lat="53.7624735" lon="-3.0340420">
        <name>St Leonard's Road West</name>
      </trkpt>
      <trkpt lat="53.7624540" lon="-3.0338950">
        <name>St Leonard's Road West</name>
      </trkpt>
      <trkpt lat="53.7624430" lon="-3.0338140">
        <name>St Leonard's Road West</name>
      </trkpt>
      <trkpt lat="53.7624320" lon="-3.0337330">
        <name>St Leonard's Road West</name>
      </trkpt>
      <trkpt lat="53.7624278" lon="-3.0335983">
        <name>St Leonard's Road West</name>
      </trkpt>
      <trkpt lat="53.7624237" lon="-3.0334637">
        <name>St Leonard's Road West</name>
      </trkpt>
      <trkpt lat="53.7624195" lon="-3.0333290">
        <name>St Leonard's Road West</name>
      </trkpt>
      <trkpt lat="53.7624153" lon="-3.0331943">
        <name>St Leonard's Road West</name>
      </trkpt>
      <trkpt lat="53.7624112" lon="-3.0330597">
        <name>St Leonard's Road West</name>
      </trkpt>
      <trkpt lat="53.7624070" lon="-3.0329250">
        <name>St Leonard's Road West</name>
      </trkpt>
      <trkpt lat="53.7623288" lon="-3.0329180">
        <name>St Leonard's Road West</name>
      </trkpt>
      <trkpt lat="53.7622506" lon="-3.0329110">
        <name>St Leonard's Road West</name>
      </trkpt>
      <trkpt lat="53.7621724" lon="-3.0329040">
        <name>St Leonard's Road West</name>
      </trkpt>
      <trkpt lat="53.7620942" lon="-3.0328970">
        <name>St Leonard's Road West</name>
      </trkpt>
      <trkpt lat="53.7620160" lon="-3.0328900">
        <name>St Leonard's Road West</name>
      </trkpt>
      <trkpt lat="53.7619533" lon="-3.0328743">
        <name>St Leonard's Road West</name>
      </trkpt>
      <trkpt lat="53.7618907" lon="-3.0328587">
        <name>St Leonard's Road West</name>
      </trkpt>
      <trkpt lat="53.7618280" lon="-3.0328430">
        <name>St Leonard's Road West</name>
      </trkpt>
      <trkpt lat="53.7617582" lon="-3.0327986">
        <name>St David's Road North</name>
      </trkpt>
      <trkpt lat="53.7616884" lon="-3.0327542">
        <name>St David's Road North</name>
      </trkpt>
      <trkpt lat="53.7616186" lon="-3.0327098">
        <name>St David's Road North</name>
      </trkpt>
      <trkpt lat="53.7615488" lon="-3.0326654">
        <name>St David's Road North</name>
      </trkpt>
      <trkpt lat="53.7614790" lon="-3.0326210">
        <name>St David's Road North</name>
      </trkpt>
      <trkpt lat="53.7614710" lon="-3.0327035">
        <name>St David's Road North</name>
      </trkpt>
      <trkpt lat="53.7614630" lon="-3.0327860">
        <name>St David's Road North</name>
      </trkpt>
      <trkpt lat="53.7614497" lon="-3.0329197">
        <name>St David's Road North</name>
      </trkpt>
      <trkpt lat="53.7614363" lon="-3.0330533">
        <name>St David's Road North</name>
      </trkpt>
      <trkpt lat="53.7614230" lon="-3.0331870">
        <name>St David's Road North</name>
      </trkpt>
      <trkpt lat="53.7614180" lon="-3.0333328">
        <name>Cross Street</name>
      </trkpt>
      <trkpt lat="53.7614130" lon="-3.0334786">
        <name>Cross Street</name>
      </trkpt>
      <trkpt lat="53.7614080" lon="-3.0336244">
        <name>Cross Street</name>
      </trkpt>
      <trkpt lat="53.7614030" lon="-3.0337702">
        <name>Cross Street</name>
      </trkpt>
      <trkpt lat="53.7613980" lon="-3.0339160">
        <name>Cross Street</name>
      </trkpt>
      <trkpt lat="53.7613247" lon="-3.0338348">
        <name>Cross Street</name>
      </trkpt>
      <trkpt lat="53.7612513" lon="-3.0337536">
        <name>Cross Street</name>
      </trkpt>
      <trkpt lat="53.7611780" lon="-3.0336723">
        <name>Cross Street</name>
      </trkpt>
      <trkpt lat="53.7611047" lon="-3.0335911">
        <name>Cross Street</name>
      </trkpt>
      <trkpt lat="53.7610313" lon="-3.0335099">
        <name>Cross Street</name>
      </trkpt>
      <trkpt lat="53.7609580" lon="-3.0334287">
        <name>Cross Street</name>
      </trkpt>
      <trkpt lat="53.7608847" lon="-3.0333474">
        <name>Cross Street</name>
      </trkpt>
      <trkpt lat="53.7608113" lon="-3.0332662">
        <name>Cross Street</name>
      </trkpt>
      <trkpt lat="53.7607380" lon="-3.0331850">
        <name>Cross Street</name>
      </trkpt>
      <trkpt lat="53.7606648" lon="-3.0331040">
        <name>Cross Street</name>
      </trkpt>
      <trkpt lat="53.7605916" lon="-3.0330230">
        <name>Cross Street</name>
      </trkpt>
      <trkpt lat="53.7605184" lon="-3.0329420">
        <name>Cross Street</name>
      </trkpt>
      <trkpt lat="53.7604452" lon="-3.0328610">
        <name>Cross Street</name>
      </trkpt>
      <trkpt lat="53.7603720" lon="-3.0327800">
        <name>Cross Street</name>
      </trkpt>
      <trkpt lat="53.7604210" lon="-3.0326546">
        <name>Myerscough Avenue</name>
      </trkpt>
      <trkpt lat="53.7604700" lon="-3.0325291">
        <name>Myerscough Avenue</name>
      </trkpt>
      <trkpt lat="53.7605190" lon="-3.0324037">
        <name>Myerscough Avenue</name>
      </trkpt>
      <trkpt lat="53.7605680" lon="-3.0322783">
        <name>Myerscough Avenue</name>
      </trkpt>
      <trkpt lat="53.7606170" lon="-3.0321529">
        <name>Myerscough Avenue</name>
      </trkpt>
      <trkpt lat="53.7606660" lon="-3.0320274">
        <name>Myerscough Avenue</name>
      </trkpt>
      <trkpt lat="53.7607150" lon="-3.0319020">
        <name>Myerscough Avenue</name>
      </trkpt>
      <trkpt lat="53.7606411" lon="-3.0318163">
        <name>Myerscough Avenue</name>
      </trkpt>
      <trkpt lat="53.7605672" lon="-3.0317305">
        <name>Myerscough Avenue</name>
      </trkpt>
      <trkpt lat="53.7604933" lon="-3.0316448">
        <name>Myerscough Avenue</name>
      </trkpt>
      <trkpt lat="53.7604194" lon="-3.0315591">
        <name>Myerscough Avenue</name>
      </trkpt>
      <trkpt lat="53.7603455" lon="-3.0314734">
        <name>Myerscough Avenue</name>
      </trkpt>
      <trkpt lat="53.7602715" lon="-3.0313876">
        <name>Myerscough Avenue</name>
      </trkpt>
      <trkpt lat="53.7601976" lon="-3.0313019">
        <name>Myerscough Avenue</name>
      </trkpt>
      <trkpt lat="53.7601237" lon="-3.0312162">
        <name>Myerscough Avenue</name>
      </trkpt>
      <trkpt lat="53.7600498" lon="-3.0311305">
        <name>Myerscough Avenue</name>
      </trkpt>
      <trkpt lat="53.7599759" lon="-3.0310447">
        <name>Myerscough Avenue</name>
      </trkpt>
      <trkpt lat="53.7599020" lon="-3.0309590">
        <name>Myerscough Avenue</name>
      </trkpt>
      <trkpt lat="53.7599400" lon="-3.0308578">
        <name>Myerscough Avenue</name>
      </trkpt>
      <trkpt lat="53.7599780" lon="-3.0307565">
        <name>Myerscough Avenue</name>
      </trkpt>
      <trkpt lat="53.7600160" lon="-3.0306553">
        <name>Myerscough Avenue</name>
      </trkpt>
      <trkpt lat="53.7600540" lon="-3.0305540">
        <name>Myerscough Avenue</name>
      </trkpt>
      <trkpt lat="53.7600790" lon="-3.0304880">
        <name>Myerscough Avenue</name>
      </trkpt>
      <trkpt lat="53.7601205" lon="-3.0303807">
        <name>Myerscough Avenue</name>
      </trkpt>
      <trkpt lat="53.7601620" lon="-3.0302735">
        <name>Myerscough Avenue</name>
      </trkpt>
      <trkpt lat="53.7602035" lon="-3.0301663">
        <name>Myerscough Avenue</name>
      </trkpt>
      <trkpt lat="53.7602450" lon="-3.0300590">
        <name>Myerscough Avenue</name>
      </trkpt>
      <trkpt lat="53.7603161" lon="-3.0301402">
        <name>Myerscough Avenue</name>
      </trkpt>
      <trkpt lat="53.7603872" lon="-3.0302214">
        <name>Myerscough Avenue</name>
      </trkpt>
      <trkpt lat="53.7604583" lon="-3.0303027">
        <name>Myerscough Avenue</name>
      </trkpt>
      <trkpt lat="53.7605294" lon="-3.0303839">
        <name>Myerscough Avenue</name>
      </trkpt>
      <trkpt lat="53.7606006" lon="-3.0304651">
        <name>Myerscough Avenue</name>
      </trkpt>
      <trkpt lat="53.7606717" lon="-3.0305463">
        <name>Myerscough Avenue</name>
      </trkpt>
      <trkpt lat="53.7607428" lon="-3.0306276">
        <name>Myerscough Avenue</name>
      </trkpt>
      <trkpt lat="53.7608139" lon="-3.0307088">
        <name>Myerscough Avenue</name>
      </trkpt>
      <trkpt lat="53.7608850" lon="-3.0307900">
        <name>Myerscough Avenue</name>
      </trkpt>
      <trkpt lat="53.7609566" lon="-3.0308717">
        <name>Heeley Road</name>
      </trkpt>
      <trkpt lat="53.7610282" lon="-3.0309534">
        <name>Heeley Road</name>
      </trkpt>
      <trkpt lat="53.7610998" lon="-3.0310351">
        <name>Heeley Road</name>
      </trkpt>
      <trkpt lat="53.7611714" lon="-3.0311168">
        <name>Heeley Road</name>
      </trkpt>
      <trkpt lat="53.7612430" lon="-3.0311985">
        <name>Heeley Road</name>
      </trkpt>
      <trkpt lat="53.7613146" lon="-3.0312802">
        <name>Heeley Road</name>
      </trkpt>
      <trkpt lat="53.7613862" lon="-3.0313619">
        <name>Heeley Road</name>
      </trkpt>
      <trkpt lat="53.7614578" lon="-3.0314436">
        <name>Heeley Road</name>
      </trkpt>
      <trkpt lat="53.7615294" lon="-3.0315253">
        <name>Heeley Road</name>
      </trkpt>
      <trkpt lat="53.7616010" lon="-3.0316070">
        <name>Heeley Road</name>
      </trkpt>
      <trkpt lat="53.7616060" lon="-3.0314850">
        <name>Heeley Road</name>
      </trkpt>
      <trkpt lat="53.7616110" lon="-3.0313630">
        <name>Heeley Road</name>
      </trkpt>
      <trkpt lat="53.7616160" lon="-3.0312410">
        <name>Heeley Road</name>
      </trkpt>
      <trkpt lat="53.7616210" lon="-3.0311190">
        <name>Heeley Road</name>
      </trkpt>
      <trkpt lat="53.7616260" lon="-3.0309970">
        <name>Heeley Road</name>
      </trkpt>
      <trkpt lat="53.7616320" lon="-3.0308494">
        <name>Heeley Road</name>
      </trkpt>
      <trkpt lat="53.7616380" lon="-3.0307018">
        <name>Heeley Road</name>
      </trkpt>
      <trkpt lat="53.7616440" lon="-3.0305542">
        <name>Heeley Road</name>
      </trkpt>
      <trkpt lat="53.7616500" lon="-3.0304066">
        <name>Heeley Road</name>
      </trkpt>
      <trkpt lat="53.7616560" lon="-3.0302590">
        <name>Heeley Road</name>
      </trkpt>
      <trkpt lat="53.7615862" lon="-3.0301793">
        <name>Kendal Road</name>
      </trkpt>
      <trkpt lat="53.7615163" lon="-3.0300997">
        <name>Kendal Road</name>
      </trkpt>
      <trkpt lat="53.7614465" lon="-3.0300200">
        <name>Kendal Road</name>
      </trkpt>
      <trkpt lat="53.7613767" lon="-3.0299403">
        <name>Kendal Road</name>
      </trkpt>
      <trkpt lat="53.7613068" lon="-3.0298607">
        <name>Kendal Road</name>
      </trkpt>
      <trkpt lat="53.7612370" lon="-3.0297810">
        <name>Kendal Road</name>
      </trkpt>
      <trkpt lat="53.7611672" lon="-3.0297013">
        <name>Kendal Road</name>
      </trkpt>
      <trkpt lat="53.7610973" lon="-3.0296217">
        <name>Kendal Road</name>
      </trkpt>
      <trkpt lat="53.7610275" lon="-3.0295420">
        <name>Kendal Road</name>
      </trkpt>
      <trkpt lat="53.7609577" lon="-3.0294623">
        <name>Kendal Road</name>
      </trkpt>
      <trkpt lat="53.7608878" lon="-3.0293827">
        <name>Kendal Road</name>
      </trkpt>
      <trkpt lat="53.7608180" lon="-3.0293030">
        <name>Kendal Road</name>
      </trkpt>
      <trkpt lat="53.7607770" lon="-3.0292550">
        <name>Kendal Road</name>
      </trkpt>
      <trkpt lat="53.7607233" lon="-3.0291917">
        <name>Kendal Road</name>
      </trkpt>
      <trkpt lat="53.7606697" lon="-3.0291283">
        <name>Kendal Road</name>
      </trkpt>
      <trkpt lat="53.7606160" lon="-3.0290650">
        <name>Kendal Road</name>
      </trkpt>
      <trkpt lat="53.7606553" lon="-3.0289570">
        <name>Kendal Road</name>
      </trkpt>
      <trkpt lat="53.7606947" lon="-3.0288490">
        <name>Kendal Road</name>
      </trkpt>
      <trkpt lat="53.7607340" lon="-3.0287410">
        <name>Kendal Road</name>
      </trkpt>
      <trkpt lat="53.7607505" lon="-3.0286425">
        <name>Kendal Road</name>
      </trkpt>
      <trkpt lat="53.7607670" lon="-3.0285440">
        <name>Kendal Road</name>
      </trkpt>
      <trkpt lat="53.7607742" lon="-3.0284124">
        <name>Kendal Road</name>
      </trkpt>
      <trkpt lat="53.7607814" lon="-3.0282808">
        <name>Kendal Road</name>
      </trkpt>
      <trkpt lat="53.7607886" lon="-3.0281492">
        <name>Kendal Road</name>
      </trkpt>
      <trkpt lat="53.7607958" lon="-3.0280176">
        <name>Kendal Road</name>
      </trkpt>
      <trkpt lat="53.7608030" lon="-3.0278860">
        <name>Kendal Road</name>
      </trkpt>
      <trkpt lat="53.7608750" lon="-3.0278955">
        <name>Kendal Road</name>
      </trkpt>
      <trkpt lat="53.7609470" lon="-3.0279050">
        <name>Kendal Road</name>
      </trkpt>
      <trkpt lat="53.7610334" lon="-3.0279156">
        <name>Kendal Road</name>
      </trkpt>
      <trkpt lat="53.7611197" lon="-3.0279263">
        <name>Kendal Road</name>
      </trkpt>
      <trkpt lat="53.7612061" lon="-3.0279369">
        <name>Kendal Road</name>
      </trkpt>
      <trkpt lat="53.7612925" lon="-3.0279475">
        <name>Kendal Road</name>
      </trkpt>
      <trkpt lat="53.7613789" lon="-3.0279581">
        <name>Kendal Road</name>
      </trkpt>
      <trkpt lat="53.7614653" lon="-3.0279687">
        <name>Kendal Road</name>
      </trkpt>
      <trkpt lat="53.7615516" lon="-3.0279794">
        <name>Kendal Road</name>
      </trkpt>
      <trkpt lat="53.7616380" lon="-3.0279900">
        <name>Kendal Road</name>
      </trkpt>
      <trkpt lat="53.7616875" lon="-3.0279960">
        <name>Highbury Road East</name>
      </trkpt>
      <trkpt lat="53.7617370" lon="-3.0280020">
        <name>Highbury Road East</name>
      </trkpt>
      <trkpt lat="53.7617417" lon="-3.0278511">
        <name>Highbury Road East</name>
      </trkpt>
      <trkpt lat="53.7617465" lon="-3.0277003">
        <name>Highbury Road East</name>
      </trkpt>
      <trkpt lat="53.7617512" lon="-3.0275494">
        <name>Highbury Road East</name>
      </trkpt>
      <trkpt lat="53.7617559" lon="-3.0273985">
        <name>Highbury Road East</name>
      </trkpt>
      <trkpt lat="53.7617606" lon="-3.0272477">
        <name>Highbury Road East</name>
      </trkpt>
      <trkpt lat="53.7617654" lon="-3.0270968">
        <name>Highbury Road East</name>
      </trkpt>
      <trkpt lat="53.7617701" lon="-3.0269460">
        <name>Highbury Road East</name>
      </trkpt>
      <trkpt lat="53.7617748" lon="-3.0267951">
        <name>Highbury Road East</name>
      </trkpt>
      <trkpt lat="53.7617795" lon="-3.0266442">
        <name>Highbury Road East</name>
      </trkpt>
      <trkpt lat="53.7617843" lon="-3.0264934">
        <name>Highbury Road East</name>
      </trkpt>
      <trkpt lat="53.7617890" lon="-3.0263425">
        <name>Highbury Road East</name>
      </trkpt>
      <trkpt lat="53.7617937" lon="-3.0261916">
        <name>Highbury Road East</name>
      </trkpt>
      <trkpt lat="53.7617985" lon="-3.0260408">
        <name>Highbury Road East</name>
      </trkpt>
      <trkpt lat="53.7618032" lon="-3.0258899">
        <name>Highbury Road East</name>
      </trkpt>
      <trkpt lat="53.7618079" lon="-3.0257390">
        <name>Highbury Road East</name>
      </trkpt>
      <trkpt lat="53.7618126" lon="-3.0255882">
        <name>Highbury Road East</name>
      </trkpt>
      <trkpt lat="53.7618174" lon="-3.0254373">
        <name>Highbury Road East</name>
      </trkpt>
      <trkpt lat="53.7618221" lon="-3.0252865">
        <name>Highbury Road East</name>
      </trkpt>
      <trkpt lat="53.7618268" lon="-3.0251356">
        <name>Highbury Road East</name>
      </trkpt>
      <trkpt lat="53.7618315" lon="-3.0249847">
        <name>Highbury Road East</name>
      </trkpt>
      <trkpt lat="53.7618363" lon="-3.0248339">
        <name>Highbury Road East</name>
      </trkpt>
      <trkpt lat="53.7618410" lon="-3.0246830">
        <name>Highbury Road East</name>
      </trkpt>
      <trkpt lat="53.7618447" lon="-3.0245807">
        <name>Highbury Road East</name>
      </trkpt>
      <trkpt lat="53.7618483" lon="-3.0244783">
        <name>Highbury Road East</name>
      </trkpt>
      <trkpt lat="53.7618520" lon="-3.0243760">
        <name>Highbury Road East</name>
      </trkpt>
    </trkseg>
  </trk>
</gpx>