<?xml version="1.0" encoding="UTF-8"?>
<gpx version="1.1" creator="TurboSanta Route Planner">
  <trk>
    <name>TurboSanta Route (10m density)</name>
    <trkseg>
      <trkpt lat="53.7361650" lon="-2.9790160">
        <name>Fairlawn Road</name>
      </trkpt>
      <trkpt lat="53.7362475" lon="-2.9789655">
        <name>Fairlawn Road</name>
      </trkpt>
      <trkpt lat="53.7363300" lon="-2.9789150">
        <name>Fairlawn Road</name>
      </trkpt>
      <trkpt lat="53.7364125" lon="-2.9788645">
        <name>Fairlawn Road</name>
      </trkpt>
      <trkpt lat="53.7364950" lon="-2.9788140">
        <name>Fairlawn Road</name>
      </trkpt>
      <trkpt lat="53.7365775" lon="-2.9787635">
        <name>Fairlawn Road</name>
      </trkpt>
      <trkpt lat="53.7366600" lon="-2.9787130">
        <name>Fairlawn Road</name>
      </trkpt>
      <trkpt lat="53.7367425" lon="-2.9786625">
        <name>Fairlawn Road</name>
      </trkpt>
      <trkpt lat="53.7368250" lon="-2.9786120">
        <name>Fairlawn Road</name>
      </trkpt>
      <trkpt lat="53.7369075" lon="-2.9785615">
        <name>Fairlawn Road</name>
      </trkpt>
      <trkpt lat="53.7369900" lon="-2.9785110">
        <name>Fairlawn Road</name>
      </trkpt>
      <trkpt lat="53.7370725" lon="-2.9784605">
        <name>Fairlawn Road</name>
      </trkpt>
      <trkpt lat="53.7371550" lon="-2.9784100">
        <name>Fairlawn Road</name>
      </trkpt>
      <trkpt lat="53.7371897" lon="-2.9785385">
        <name>Church Road</name>
      </trkpt>
      <trkpt lat="53.7372245" lon="-2.9786670">
        <name>Church Road</name>
      </trkpt>
      <trkpt lat="53.7372593" lon="-2.9787955">
        <name>Church Road</name>
      </trkpt>
      <trkpt lat="53.7372940" lon="-2.9789240">
        <name>Church Road</name>
      </trkpt>
      <trkpt lat="53.7373265" lon="-2.9790440">
        <name>Church Road</name>
      </trkpt>
      <trkpt lat="53.7373590" lon="-2.9791640">
        <name>Church Road</name>
      </trkpt>
      <trkpt lat="53.7373915" lon="-2.9792840">
        <name>Church Road</name>
      </trkpt>
      <trkpt lat="53.7374240" lon="-2.9794040">
        <name>Church Road</name>
      </trkpt>
      <trkpt lat="53.7374565" lon="-2.9795240">
        <name>Church Road</name>
      </trkpt>
      <trkpt lat="53.7374890" lon="-2.9796440">
        <name>Church Road</name>
      </trkpt>
      <trkpt lat="53.7374097" lon="-2.9796992">
        <name>Church Road</name>
      </trkpt>
      <trkpt lat="53.7373304" lon="-2.9797544">
        <name>Church Road</name>
      </trkpt>
      <trkpt lat="53.7372511" lon="-2.9798096">
        <name>Church Road</name>
      </trkpt>
      <trkpt lat="53.7371719" lon="-2.9798649">
        <name>Church Road</name>
      </trkpt>
      <trkpt lat="53.7370926" lon="-2.9799201">
        <name>Church Road</name>
      </trkpt>
      <trkpt lat="53.7370133" lon="-2.9799753">
        <name>Church Road</name>
      </trkpt>
      <trkpt lat="53.7369340" lon="-2.9800305">
        <name>Church Road</name>
      </trkpt>
      <trkpt lat="53.7368547" lon="-2.9800857">
        <name>Church Road</name>
      </trkpt>
      <trkpt lat="53.7367754" lon="-2.9801409">
        <name>Church Road</name>
      </trkpt>
      <trkpt lat="53.7366961" lon="-2.9801961">
        <name>Church Road</name>
      </trkpt>
      <trkpt lat="53.7366169" lon="-2.9802514">
        <name>Church Road</name>
      </trkpt>
      <trkpt lat="53.7365376" lon="-2.9803066">
        <name>Church Road</name>
      </trkpt>
      <trkpt lat="53.7364583" lon="-2.9803618">
        <name>Church Road</name>
      </trkpt>
      <trkpt lat="53.7363790" lon="-2.9804170">
        <name>Church Road</name>
      </trkpt>
      <trkpt lat="53.7364080" lon="-2.9805425">
        <name>Church Road</name>
      </trkpt>
      <trkpt lat="53.7364370" lon="-2.9806680">
        <name>Church Road</name>
      </trkpt>
      <trkpt lat="53.7364660" lon="-2.9807935">
        <name>Church Road</name>
      </trkpt>
      <trkpt lat="53.7364950" lon="-2.9809190">
        <name>Church Road</name>
      </trkpt>
      <trkpt lat="53.7365170" lon="-2.9810135">
        <name>Church Road</name>
      </trkpt>
      <trkpt lat="53.7365390" lon="-2.9811080">
        <name>Church Road</name>
      </trkpt>
      <trkpt lat="53.7365678" lon="-2.9812326">
        <name>Church Road</name>
      </trkpt>
      <trkpt lat="53.7365966" lon="-2.9813572">
        <name>Church Road</name>
      </trkpt>
      <trkpt lat="53.7366254" lon="-2.9814818">
        <name>Church Road</name>
      </trkpt>
      <trkpt lat="53.7366542" lon="-2.9816064">
        <name>Church Road</name>
      </trkpt>
      <trkpt lat="53.7366830" lon="-2.9817310">
        <name>Church Road</name>
      </trkpt>
      <trkpt lat="53.7367636" lon="-2.9816784">
        <name>Eden Avenue</name>
      </trkpt>
      <trkpt lat="53.7368441" lon="-2.9816258">
        <name>Eden Avenue</name>
      </trkpt>
      <trkpt lat="53.7369247" lon="-2.9815731">
        <name>Eden Avenue</name>
      </trkpt>
      <trkpt lat="53.7370052" lon="-2.9815205">
        <name>Eden Avenue</name>
      </trkpt>
      <trkpt lat="53.7370858" lon="-2.9814679">
        <name>Eden Avenue</name>
      </trkpt>
      <trkpt lat="53.7371664" lon="-2.9814152">
        <name>Eden Avenue</name>
      </trkpt>
      <trkpt lat="53.7372469" lon="-2.9813626">
        <name>Eden Avenue</name>
      </trkpt>
      <trkpt lat="53.7373275" lon="-2.9813100">
        <name>Eden Avenue</name>
      </trkpt>
      <trkpt lat="53.7374081" lon="-2.9812574">
        <name>Eden Avenue</name>
      </trkpt>
      <trkpt lat="53.7374886" lon="-2.9812047">
        <name>Eden Avenue</name>
      </trkpt>
      <trkpt lat="53.7375692" lon="-2.9811521">
        <name>Eden Avenue</name>
      </trkpt>
      <trkpt lat="53.7376498" lon="-2.9810995">
        <name>Eden Avenue</name>
      </trkpt>
      <trkpt lat="53.7377303" lon="-2.9810469">
        <name>Eden Avenue</name>
      </trkpt>
      <trkpt lat="53.7378109" lon="-2.9809942">
        <name>Eden Avenue</name>
      </trkpt>
      <trkpt lat="53.7378914" lon="-2.9809416">
        <name>Eden Avenue</name>
      </trkpt>
      <trkpt lat="53.7379720" lon="-2.9808890">
        <name>Eden Avenue</name>
      </trkpt>
      <trkpt lat="53.7380177" lon="-2.9809877">
        <name>Eden Avenue</name>
      </trkpt>
      <trkpt lat="53.7380633" lon="-2.9810863">
        <name>Eden Avenue</name>
      </trkpt>
      <trkpt lat="53.7381090" lon="-2.9811850">
        <name>Eden Avenue</name>
      </trkpt>
      <trkpt lat="53.7381603" lon="-2.9812977">
        <name>Clifton Drive</name>
      </trkpt>
      <trkpt lat="53.7382117" lon="-2.9814103">
        <name>Clifton Drive</name>
      </trkpt>
      <trkpt lat="53.7382630" lon="-2.9815230">
        <name>Clifton Drive</name>
      </trkpt>
      <trkpt lat="53.7383070" lon="-2.9816203">
        <name>Clifton Drive</name>
      </trkpt>
      <trkpt lat="53.7383510" lon="-2.9817175">
        <name>Clifton Drive</name>
      </trkpt>
      <trkpt lat="53.7383950" lon="-2.9818147">
        <name>Clifton Drive</name>
      </trkpt>
      <trkpt lat="53.7384390" lon="-2.9819120">
        <name>Clifton Drive</name>
      </trkpt>
      <trkpt lat="53.7384250" lon="-2.9819960">
        <name>Clifton Drive</name>
      </trkpt>
      <trkpt lat="53.7384420" lon="-2.9820820">
        <name>Clifton Drive</name>
      </trkpt>
      <trkpt lat="53.7383622" lon="-2.9821366">
        <name>Clifton Drive</name>
      </trkpt>
      <trkpt lat="53.7382824" lon="-2.9821912">
        <name>Clifton Drive</name>
      </trkpt>
      <trkpt lat="53.7382027" lon="-2.9822458">
        <name>Clifton Drive</name>
      </trkpt>
      <trkpt lat="53.7381229" lon="-2.9823004">
        <name>Clifton Drive</name>
      </trkpt>
      <trkpt lat="53.7380431" lon="-2.9823551">
        <name>Clifton Drive</name>
      </trkpt>
      <trkpt lat="53.7379633" lon="-2.9824097">
        <name>Clifton Drive</name>
      </trkpt>
      <trkpt lat="53.7378836" lon="-2.9824643">
        <name>Clifton Drive</name>
      </trkpt>
      <trkpt lat="53.7378038" lon="-2.9825189">
        <name>Clifton Drive</name>
      </trkpt>
      <trkpt lat="53.7377240" lon="-2.9825735">
        <name>Clifton Drive</name>
      </trkpt>
      <trkpt lat="53.7376442" lon="-2.9826281">
        <name>Clifton Drive</name>
      </trkpt>
      <trkpt lat="53.7375644" lon="-2.9826827">
        <name>Clifton Drive</name>
      </trkpt>
      <trkpt lat="53.7374847" lon="-2.9827373">
        <name>Clifton Drive</name>
      </trkpt>
      <trkpt lat="53.7374049" lon="-2.9827919">
        <name>Clifton Drive</name>
      </trkpt>
      <trkpt lat="53.7373251" lon="-2.9828466">
        <name>Clifton Drive</name>
      </trkpt>
      <trkpt lat="53.7372453" lon="-2.9829012">
        <name>Clifton Drive</name>
      </trkpt>
      <trkpt lat="53.7371656" lon="-2.9829558">
        <name>Clifton Drive</name>
      </trkpt>
      <trkpt lat="53.7370858" lon="-2.9830104">
        <name>Clifton Drive</name>
      </trkpt>
      <trkpt lat="53.7370060" lon="-2.9830650">
        <name>Clifton Drive</name>
      </trkpt>
      <trkpt lat="53.7370230" lon="-2.9831240">
        <name>Clifton Drive</name>
      </trkpt>
      <trkpt lat="53.7370548" lon="-2.9832524">
        <name>Clifton Drive</name>
      </trkpt>
      <trkpt lat="53.7370866" lon="-2.9833808">
        <name>Clifton Drive</name>
      </trkpt>
      <trkpt lat="53.7371184" lon="-2.9835092">
        <name>Clifton Drive</name>
      </trkpt>
      <trkpt lat="53.7371502" lon="-2.9836376">
        <name>Clifton Drive</name>
      </trkpt>
      <trkpt lat="53.7371820" lon="-2.9837660">
        <name>Clifton Drive</name>
      </trkpt>
      <trkpt lat="53.7372090" lon="-2.9838742">
        <name>Elms Avenue</name>
      </trkpt>
      <trkpt lat="53.7372360" lon="-2.9839825">
        <name>Elms Avenue</name>
      </trkpt>
      <trkpt lat="53.7372630" lon="-2.9840908">
        <name>Elms Avenue</name>
      </trkpt>
      <trkpt lat="53.7372900" lon="-2.9841990">
        <name>Elms Avenue</name>
      </trkpt>
      <trkpt lat="53.7373135" lon="-2.9842895">
        <name>Elms Avenue</name>
      </trkpt>
      <trkpt lat="53.7373370" lon="-2.9843800">
        <name>Elms Avenue</name>
      </trkpt>
      <trkpt lat="53.7374196" lon="-2.9843255">
        <name>Church Road</name>
      </trkpt>
      <trkpt lat="53.7375023" lon="-2.9842711">
        <name>Church Road</name>
      </trkpt>
      <trkpt lat="53.7375849" lon="-2.9842166">
        <name>Church Road</name>
      </trkpt>
      <trkpt lat="53.7376675" lon="-2.9841621">
        <name>Church Road</name>
      </trkpt>
      <trkpt lat="53.7377502" lon="-2.9841076">
        <name>Church Road</name>
      </trkpt>
      <trkpt lat="53.7378328" lon="-2.9840532">
        <name>Church Road</name>
      </trkpt>
      <trkpt lat="53.7379154" lon="-2.9839987">
        <name>Church Road</name>
      </trkpt>
      <trkpt lat="53.7379981" lon="-2.9839442">
        <name>Church Road</name>
      </trkpt>
      <trkpt lat="53.7380807" lon="-2.9838897">
        <name>Church Road</name>
      </trkpt>
      <trkpt lat="53.7381633" lon="-2.9838353">
        <name>Church Road</name>
      </trkpt>
      <trkpt lat="53.7382459" lon="-2.9837808">
        <name>Church Road</name>
      </trkpt>
      <trkpt lat="53.7383286" lon="-2.9837263">
        <name>Church Road</name>
      </trkpt>
      <trkpt lat="53.7384112" lon="-2.9836718">
        <name>Church Road</name>
      </trkpt>
      <trkpt lat="53.7384938" lon="-2.9836174">
        <name>Church Road</name>
      </trkpt>
      <trkpt lat="53.7385765" lon="-2.9835629">
        <name>Church Road</name>
      </trkpt>
      <trkpt lat="53.7386591" lon="-2.9835084">
        <name>Church Road</name>
      </trkpt>
      <trkpt lat="53.7387417" lon="-2.9834539">
        <name>Church Road</name>
      </trkpt>
      <trkpt lat="53.7388244" lon="-2.9833995">
        <name>Church Road</name>
      </trkpt>
      <trkpt lat="53.7389070" lon="-2.9833450">
        <name>Church Road</name>
      </trkpt>
      <trkpt lat="53.7389524" lon="-2.9834726">
        <name>Church Road</name>
      </trkpt>
      <trkpt lat="53.7389978" lon="-2.9836002">
        <name>Church Road</name>
      </trkpt>
      <trkpt lat="53.7390432" lon="-2.9837278">
        <name>Church Road</name>
      </trkpt>
      <trkpt lat="53.7390886" lon="-2.9838554">
        <name>Church Road</name>
      </trkpt>
      <trkpt lat="53.7391340" lon="-2.9839830">
        <name>Church Road</name>
      </trkpt>
      <trkpt lat="53.7391540" lon="-2.9840540">
        <name>Church Road</name>
      </trkpt>
      <trkpt lat="53.7391868" lon="-2.9841708">
        <name>Church Road</name>
      </trkpt>
      <trkpt lat="53.7392196" lon="-2.9842876">
        <name>Church Road</name>
      </trkpt>
      <trkpt lat="53.7392524" lon="-2.9844044">
        <name>Church Road</name>
      </trkpt>
      <trkpt lat="53.7392852" lon="-2.9845212">
        <name>Church Road</name>
      </trkpt>
      <trkpt lat="53.7393180" lon="-2.9846380">
        <name>Church Road</name>
      </trkpt>
      <trkpt lat="53.7393496" lon="-2.9847695">
        <name>Church Road</name>
      </trkpt>
      <trkpt lat="53.7393812" lon="-2.9849011">
        <name>Church Road</name>
      </trkpt>
      <trkpt lat="53.7394128" lon="-2.9850326">
        <name>Church Road</name>
      </trkpt>
      <trkpt lat="53.7394444" lon="-2.9851641">
        <name>Church Road</name>
      </trkpt>
      <trkpt lat="53.7394760" lon="-2.9852957">
        <name>Church Road</name>
      </trkpt>
      <trkpt lat="53.7395076" lon="-2.9854272">
        <name>Church Road</name>
      </trkpt>
      <trkpt lat="53.7395392" lon="-2.9855587">
        <name>Church Road</name>
      </trkpt>
      <trkpt lat="53.7395708" lon="-2.9856903">
        <name>Church Road</name>
      </trkpt>
      <trkpt lat="53.7396024" lon="-2.9858218">
        <name>Church Road</name>
      </trkpt>
      <trkpt lat="53.7396340" lon="-2.9859533">
        <name>Church Road</name>
      </trkpt>
      <trkpt lat="53.7396656" lon="-2.9860849">
        <name>Church Road</name>
      </trkpt>
      <trkpt lat="53.7396972" lon="-2.9862164">
        <name>Church Road</name>
      </trkpt>
      <trkpt lat="53.7397288" lon="-2.9863479">
        <name>Church Road</name>
      </trkpt>
      <trkpt lat="53.7397604" lon="-2.9864795">
        <name>Church Road</name>
      </trkpt>
      <trkpt lat="53.7397920" lon="-2.9866110">
        <name>Church Road</name>
      </trkpt>
      <trkpt lat="53.7398240" lon="-2.9867436">
        <name>Church Road</name>
      </trkpt>
      <trkpt lat="53.7398560" lon="-2.9868761">
        <name>Church Road</name>
      </trkpt>
      <trkpt lat="53.7398880" lon="-2.9870087">
        <name>Church Road</name>
      </trkpt>
      <trkpt lat="53.7399200" lon="-2.9871412">
        <name>Church Road</name>
      </trkpt>
      <trkpt lat="53.7399520" lon="-2.9872738">
        <name>Church Road</name>
      </trkpt>
      <trkpt lat="53.7399840" lon="-2.9874063">
        <name>Church Road</name>
      </trkpt>
      <trkpt lat="53.7400160" lon="-2.9875389">
        <name>Church Road</name>
      </trkpt>
      <trkpt lat="53.7400480" lon="-2.9876714">
        <name>Church Road</name>
      </trkpt>
      <trkpt lat="53.7400800" lon="-2.9878040">
        <name>Church Road</name>
      </trkpt>
      <trkpt lat="53.7401060" lon="-2.9879120">
        <name>Church Road</name>
      </trkpt>
      <trkpt lat="53.7401320" lon="-2.9880200">
        <name>Church Road</name>
      </trkpt>
      <trkpt lat="53.7401615" lon="-2.9881415">
        <name>Cambridge Road</name>
      </trkpt>
      <trkpt lat="53.7401910" lon="-2.9882630">
        <name>Cambridge Road</name>
      </trkpt>
      <trkpt lat="53.7402205" lon="-2.9883845">
        <name>Cambridge Road</name>
      </trkpt>
      <trkpt lat="53.7402500" lon="-2.9885060">
        <name>Cambridge Road</name>
      </trkpt>
      <trkpt lat="53.7402550" lon="-2.9886500">
        <name>Cambridge Road</name>
      </trkpt>
      <trkpt lat="53.7402520" lon="-2.9887250">
        <name>Cambridge Road</name>
      </trkpt>
      <trkpt lat="53.7402330" lon="-2.9888180">
        <name>West Bank Avenue</name>
      </trkpt>
      <trkpt lat="53.7402070" lon="-2.9888840">
        <name>West Bank Avenue</name>
      </trkpt>
      <trkpt lat="53.7401710" lon="-2.9889570">
        <name>Clifton Drive</name>
      </trkpt>
      <trkpt lat="53.7401030" lon="-2.9890350">
        <name>Clifton Drive</name>
      </trkpt>
      <trkpt lat="53.7400900" lon="-2.9890440">
        <name>Clifton Drive</name>
      </trkpt>
      <trkpt lat="53.7400300" lon="-2.9890833">
        <name>Clifton Drive</name>
      </trkpt>
      <trkpt lat="53.7399700" lon="-2.9891227">
        <name>Clifton Drive</name>
      </trkpt>
      <trkpt lat="53.7399100" lon="-2.9891620">
        <name>Clifton Drive</name>
      </trkpt>
      <trkpt lat="53.7398940" lon="-2.9891730">
        <name>Clifton Drive</name>
      </trkpt>
      <trkpt lat="53.7399220" lon="-2.9892898">
        <name>Clifton Drive</name>
      </trkpt>
      <trkpt lat="53.7399500" lon="-2.9894066">
        <name>Clifton Drive</name>
      </trkpt>
      <trkpt lat="53.7399780" lon="-2.9895234">
        <name>Clifton Drive</name>
      </trkpt>
      <trkpt lat="53.7400060" lon="-2.9896402">
        <name>Clifton Drive</name>
      </trkpt>
      <trkpt lat="53.7400340" lon="-2.9897570">
        <name>Clifton Drive</name>
      </trkpt>
      <trkpt lat="53.7400535" lon="-2.9898400">
        <name>Clifton Drive</name>
      </trkpt>
      <trkpt lat="53.7400730" lon="-2.9899230">
        <name>Clifton Drive</name>
      </trkpt>
      <trkpt lat="53.7401036" lon="-2.9900466">
        <name>Clifton Drive</name>
      </trkpt>
      <trkpt lat="53.7401342" lon="-2.9901702">
        <name>Clifton Drive</name>
      </trkpt>
      <trkpt lat="53.7401648" lon="-2.9902938">
        <name>Clifton Drive</name>
      </trkpt>
      <trkpt lat="53.7401954" lon="-2.9904174">
        <name>Clifton Drive</name>
      </trkpt>
      <trkpt lat="53.7402260" lon="-2.9905410">
        <name>Clifton Drive</name>
      </trkpt>
      <trkpt lat="53.7401447" lon="-2.9905960">
        <name>Riversleigh Avenue</name>
      </trkpt>
      <trkpt lat="53.7400633" lon="-2.9906510">
        <name>Riversleigh Avenue</name>
      </trkpt>
      <trkpt lat="53.7399820" lon="-2.9907060">
        <name>Riversleigh Avenue</name>
      </trkpt>
      <trkpt lat="53.7399014" lon="-2.9907608">
        <name>Riversleigh Avenue</name>
      </trkpt>
      <trkpt lat="53.7398208" lon="-2.9908156">
        <name>Riversleigh Avenue</name>
      </trkpt>
      <trkpt lat="53.7397402" lon="-2.9908704">
        <name>Riversleigh Avenue</name>
      </trkpt>
      <trkpt lat="53.7396596" lon="-2.9909252">
        <name>Riversleigh Avenue</name>
      </trkpt>
      <trkpt lat="53.7395790" lon="-2.9909800">
        <name>Riversleigh Avenue</name>
      </trkpt>
      <trkpt lat="53.7395001" lon="-2.9910360">
        <name>Cambridge Road</name>
      </trkpt>
      <trkpt lat="53.7394213" lon="-2.9910920">
        <name>Cambridge Road</name>
      </trkpt>
      <trkpt lat="53.7393424" lon="-2.9911480">
        <name>Cambridge Road</name>
      </trkpt>
      <trkpt lat="53.7392636" lon="-2.9912040">
        <name>Cambridge Road</name>
      </trkpt>
      <trkpt lat="53.7391847" lon="-2.9912600">
        <name>Cambridge Road</name>
      </trkpt>
      <trkpt lat="53.7391059" lon="-2.9913160">
        <name>Cambridge Road</name>
      </trkpt>
      <trkpt lat="53.7390270" lon="-2.9913720">
        <name>Cambridge Road</name>
      </trkpt>
      <trkpt lat="53.7390590" lon="-2.9915038">
        <name>Cambridge Road</name>
      </trkpt>
      <trkpt lat="53.7390910" lon="-2.9916357">
        <name>Cambridge Road</name>
      </trkpt>
      <trkpt lat="53.7391230" lon="-2.9917675">
        <name>Cambridge Road</name>
      </trkpt>
      <trkpt lat="53.7391550" lon="-2.9918993">
        <name>Cambridge Road</name>
      </trkpt>
      <trkpt lat="53.7391870" lon="-2.9920312">
        <name>Cambridge Road</name>
      </trkpt>
      <trkpt lat="53.7392190" lon="-2.9921630">
        <name>Cambridge Road</name>
      </trkpt>
      <trkpt lat="53.7392497" lon="-2.9922898">
        <name>Cambridge Road</name>
      </trkpt>
      <trkpt lat="53.7392805" lon="-2.9924165">
        <name>Cambridge Road</name>
      </trkpt>
      <trkpt lat="53.7393113" lon="-2.9925432">
        <name>Cambridge Road</name>
      </trkpt>
      <trkpt lat="53.7393420" lon="-2.9926700">
        <name>Cambridge Road</name>
      </trkpt>
      <trkpt lat="53.7394194" lon="-2.9926161">
        <name>Cambridge Road</name>
      </trkpt>
      <trkpt lat="53.7394969" lon="-2.9925623">
        <name>Cambridge Road</name>
      </trkpt>
      <trkpt lat="53.7395743" lon="-2.9925084">
        <name>Cambridge Road</name>
      </trkpt>
      <trkpt lat="53.7396517" lon="-2.9924546">
        <name>Cambridge Road</name>
      </trkpt>
      <trkpt lat="53.7397291" lon="-2.9924007">
        <name>Cambridge Road</name>
      </trkpt>
      <trkpt lat="53.7398066" lon="-2.9923469">
        <name>Cambridge Road</name>
      </trkpt>
      <trkpt lat="53.7398840" lon="-2.9922930">
        <name>Cambridge Road</name>
      </trkpt>
      <trkpt lat="53.7399670" lon="-2.9922354">
        <name>Cambridge Road</name>
      </trkpt>
      <trkpt lat="53.7400500" lon="-2.9921778">
        <name>Cambridge Road</name>
      </trkpt>
      <trkpt lat="53.7401330" lon="-2.9921201">
        <name>Cambridge Road</name>
      </trkpt>
      <trkpt lat="53.7402160" lon="-2.9920625">
        <name>Cambridge Road</name>
      </trkpt>
      <trkpt lat="53.7402990" lon="-2.9920049">
        <name>Cambridge Road</name>
      </trkpt>
      <trkpt lat="53.7403820" lon="-2.9919472">
        <name>Cambridge Road</name>
      </trkpt>
      <trkpt lat="53.7404650" lon="-2.9918896">
        <name>Cambridge Road</name>
      </trkpt>
      <trkpt lat="53.7405480" lon="-2.9918320">
        <name>Cambridge Road</name>
      </trkpt>
      <trkpt lat="53.7405815" lon="-2.9919710">
        <name>Cambridge Road</name>
      </trkpt>
      <trkpt lat="53.7406150" lon="-2.9921100">
        <name>Cambridge Road</name>
      </trkpt>
      <trkpt lat="53.7406475" lon="-2.9922450">
        <name>Cambridge Road</name>
      </trkpt>
      <trkpt lat="53.7406800" lon="-2.9923800">
        <name>Cambridge Road</name>
      </trkpt>
      <trkpt lat="53.7406970" lon="-2.9924520">
        <name>Cambridge Road</name>
      </trkpt>
      <trkpt lat="53.7407238" lon="-2.9925698">
        <name>Cambridge Road</name>
      </trkpt>
      <trkpt lat="53.7407506" lon="-2.9926876">
        <name>Cambridge Road</name>
      </trkpt>
      <trkpt lat="53.7407774" lon="-2.9928054">
        <name>Cambridge Road</name>
      </trkpt>
      <trkpt lat="53.7408042" lon="-2.9929232">
        <name>Cambridge Road</name>
      </trkpt>
      <trkpt lat="53.7408310" lon="-2.9930410">
        <name>Cambridge Road</name>
      </trkpt>
      <trkpt lat="53.7407630" lon="-2.9930932">
        <name>Cambridge Road</name>
      </trkpt>
      <trkpt lat="53.7406950" lon="-2.9931455">
        <name>Cambridge Road</name>
      </trkpt>
      <trkpt lat="53.7406270" lon="-2.9931978">
        <name>Cambridge Road</name>
      </trkpt>
      <trkpt lat="53.7405590" lon="-2.9932500">
        <name>Cambridge Road</name>
      </trkpt>
      <trkpt lat="53.7405845" lon="-2.9933675">
        <name>Cambridge Road</name>
      </trkpt>
      <trkpt lat="53.7406100" lon="-2.9934850">
        <name>Cambridge Road</name>
      </trkpt>
      <trkpt lat="53.7406355" lon="-2.9936025">
        <name>Cambridge Road</name>
      </trkpt>
      <trkpt lat="53.7406610" lon="-2.9937200">
        <name>Cambridge Road</name>
      </trkpt>
      <trkpt lat="53.7406820" lon="-2.9938170">
        <name>Cambridge Road</name>
      </trkpt>
      <trkpt lat="53.7407020" lon="-2.9939060">
        <name>Cambridge Road</name>
      </trkpt>
      <trkpt lat="53.7407326" lon="-2.9940358">
        <name>Cambridge Road</name>
      </trkpt>
      <trkpt lat="53.7407632" lon="-2.9941656">
        <name>Cambridge Road</name>
      </trkpt>
      <trkpt lat="53.7407938" lon="-2.9942954">
        <name>Cambridge Road</name>
      </trkpt>
      <trkpt lat="53.7408244" lon="-2.9944252">
        <name>Cambridge Road</name>
      </trkpt>
      <trkpt lat="53.7408550" lon="-2.9945550">
        <name>Cambridge Road</name>
      </trkpt>
      <trkpt lat="53.7409242" lon="-2.9945068">
        <name>Cambridge Road</name>
      </trkpt>
      <trkpt lat="53.7409934" lon="-2.9944586">
        <name>Cambridge Road</name>
      </trkpt>
      <trkpt lat="53.7410626" lon="-2.9944104">
        <name>Cambridge Road</name>
      </trkpt>
      <trkpt lat="53.7411318" lon="-2.9943622">
        <name>Cambridge Road</name>
      </trkpt>
      <trkpt lat="53.7412010" lon="-2.9943140">
        <name>Cambridge Road</name>
      </trkpt>
      <trkpt lat="53.7412837" lon="-2.9942563">
        <name>Cambridge Road</name>
      </trkpt>
      <trkpt lat="53.7413665" lon="-2.9941985">
        <name>Cambridge Road</name>
      </trkpt>
      <trkpt lat="53.7414493" lon="-2.9941407">
        <name>Cambridge Road</name>
      </trkpt>
      <trkpt lat="53.7415320" lon="-2.9940830">
        <name>Cambridge Road</name>
      </trkpt>
      <trkpt lat="53.7415659" lon="-2.9942226">
        <name>Cambridge Road</name>
      </trkpt>
      <trkpt lat="53.7415997" lon="-2.9943621">
        <name>Cambridge Road</name>
      </trkpt>
      <trkpt lat="53.7416336" lon="-2.9945017">
        <name>Cambridge Road</name>
      </trkpt>
      <trkpt lat="53.7416674" lon="-2.9946413">
        <name>Cambridge Road</name>
      </trkpt>
      <trkpt lat="53.7417013" lon="-2.9947809">
        <name>Cambridge Road</name>
      </trkpt>
      <trkpt lat="53.7417351" lon="-2.9949204">
        <name>Cambridge Road</name>
      </trkpt>
      <trkpt lat="53.7417690" lon="-2.9950600">
        <name>Cambridge Road</name>
      </trkpt>
      <trkpt lat="53.7418018" lon="-2.9951952">
        <name>Cambridge Road</name>
      </trkpt>
      <trkpt lat="53.7418345" lon="-2.9953305">
        <name>Cambridge Road</name>
      </trkpt>
      <trkpt lat="53.7418673" lon="-2.9954657">
        <name>Cambridge Road</name>
      </trkpt>
      <trkpt lat="53.7419001" lon="-2.9956009">
        <name>Cambridge Road</name>
      </trkpt>
      <trkpt lat="53.7419328" lon="-2.9957362">
        <name>Cambridge Road</name>
      </trkpt>
      <trkpt lat="53.7419656" lon="-2.9958714">
        <name>Cambridge Road</name>
      </trkpt>
      <trkpt lat="53.7419984" lon="-2.9960066">
        <name>Cambridge Road</name>
      </trkpt>
      <trkpt lat="53.7420312" lon="-2.9961418">
        <name>Cambridge Road</name>
      </trkpt>
      <trkpt lat="53.7420639" lon="-2.9962771">
        <name>Cambridge Road</name>
      </trkpt>
      <trkpt lat="53.7420967" lon="-2.9964123">
        <name>Cambridge Road</name>
      </trkpt>
      <trkpt lat="53.7421295" lon="-2.9965475">
        <name>Cambridge Road</name>
      </trkpt>
      <trkpt lat="53.7421622" lon="-2.9966828">
        <name>Cambridge Road</name>
      </trkpt>
      <trkpt lat="53.7421950" lon="-2.9968180">
        <name>Cambridge Road</name>
      </trkpt>
      <trkpt lat="53.7422285" lon="-2.9969210">
        <name>Cambridge Road</name>
      </trkpt>
      <trkpt lat="53.7422620" lon="-2.9970240">
        <name>Cambridge Road</name>
      </trkpt>
      <trkpt lat="53.7423190" lon="-2.9971260">
        <name>Cambridge Road</name>
      </trkpt>
      <trkpt lat="53.7423533" lon="-2.9972666">
        <name>Cambridge Road</name>
      </trkpt>
      <trkpt lat="53.7423875" lon="-2.9974072">
        <name>Cambridge Road</name>
      </trkpt>
      <trkpt lat="53.7424218" lon="-2.9975478">
        <name>Cambridge Road</name>
      </trkpt>
      <trkpt lat="53.7424560" lon="-2.9976883">
        <name>Cambridge Road</name>
      </trkpt>
      <trkpt lat="53.7424903" lon="-2.9978289">
        <name>Cambridge Road</name>
      </trkpt>
      <trkpt lat="53.7425245" lon="-2.9979695">
        <name>Cambridge Road</name>
      </trkpt>
      <trkpt lat="53.7425588" lon="-2.9981101">
        <name>Cambridge Road</name>
      </trkpt>
      <trkpt lat="53.7425930" lon="-2.9982507">
        <name>Cambridge Road</name>
      </trkpt>
      <trkpt lat="53.7426272" lon="-2.9983913">
        <name>Cambridge Road</name>
      </trkpt>
      <trkpt lat="53.7426615" lon="-2.9985318">
        <name>Cambridge Road</name>
      </trkpt>
      <trkpt lat="53.7426958" lon="-2.9986724">
        <name>Cambridge Road</name>
      </trkpt>
      <trkpt lat="53.7427300" lon="-2.9988130">
        <name>Cambridge Road</name>
      </trkpt>
      <trkpt lat="53.7427640" lon="-2.9989521">
        <name>Cambridge Road</name>
      </trkpt>
      <trkpt lat="53.7427980" lon="-2.9990911">
        <name>Cambridge Road</name>
      </trkpt>
      <trkpt lat="53.7428320" lon="-2.9992302">
        <name>Cambridge Road</name>
      </trkpt>
      <trkpt lat="53.7428660" lon="-2.9993693">
        <name>Cambridge Road</name>
      </trkpt>
      <trkpt lat="53.7429000" lon="-2.9995084">
        <name>Cambridge Road</name>
      </trkpt>
      <trkpt lat="53.7429340" lon="-2.9996474">
        <name>Cambridge Road</name>
      </trkpt>
      <trkpt lat="53.7429680" lon="-2.9997865">
        <name>Cambridge Road</name>
      </trkpt>
      <trkpt lat="53.7430020" lon="-2.9999256">
        <name>Cambridge Road</name>
      </trkpt>
      <trkpt lat="53.7430360" lon="-3.0000646">
        <name>Cambridge Road</name>
      </trkpt>
      <trkpt lat="53.7430700" lon="-3.0002037">
        <name>Cambridge Road</name>
      </trkpt>
      <trkpt lat="53.7431040" lon="-3.0003428">
        <name>Cambridge Road</name>
      </trkpt>
      <trkpt lat="53.7431380" lon="-3.0004819">
        <name>Cambridge Road</name>
      </trkpt>
      <trkpt lat="53.7431720" lon="-3.0006209">
        <name>Cambridge Road</name>
      </trkpt>
      <trkpt lat="53.7432060" lon="-3.0007600">
        <name>Cambridge Road</name>
      </trkpt>
      <trkpt lat="53.7431740" lon="-3.0007810">
        <name>Ansdell Road South</name>
      </trkpt>
      <trkpt lat="53.7431044" lon="-3.0008290">
        <name>Ansdell Road South</name>
      </trkpt>
      <trkpt lat="53.7430348" lon="-3.0008770">
        <name>Ansdell Road South</name>
      </trkpt>
      <trkpt lat="53.7429652" lon="-3.0009250">
        <name>Ansdell Road South</name>
      </trkpt>
      <trkpt lat="53.7428956" lon="-3.0009730">
        <name>Ansdell Road South</name>
      </trkpt>
      <trkpt lat="53.7428260" lon="-3.0010210">
        <name>Ansdell Road South</name>
      </trkpt>
      <trkpt lat="53.7427503" lon="-3.0010733">
        <name>Ansdell Road South</name>
      </trkpt>
      <trkpt lat="53.7426745" lon="-3.0011255">
        <name>Ansdell Road South</name>
      </trkpt>
      <trkpt lat="53.7425987" lon="-3.0011778">
        <name>Ansdell Road South</name>
      </trkpt>
      <trkpt lat="53.7425230" lon="-3.0012300">
        <name>Ansdell Road South</name>
      </trkpt>
      <trkpt lat="53.7424940" lon="-3.0012500">
        <name>Ansdell Road South</name>
      </trkpt>
      <trkpt lat="53.7424740" lon="-3.0011930">
        <name>Windsor Road</name>
      </trkpt>
      <trkpt lat="53.7424452" lon="-3.0010750">
        <name>Windsor Road</name>
      </trkpt>
      <trkpt lat="53.7424164" lon="-3.0009570">
        <name>Windsor Road</name>
      </trkpt>
      <trkpt lat="53.7423876" lon="-3.0008390">
        <name>Windsor Road</name>
      </trkpt>
      <trkpt lat="53.7423588" lon="-3.0007210">
        <name>Windsor Road</name>
      </trkpt>
      <trkpt lat="53.7423300" lon="-3.0006030">
        <name>Windsor Road</name>
      </trkpt>
      <trkpt lat="53.7422969" lon="-3.0004683">
        <name>Windsor Road</name>
      </trkpt>
      <trkpt lat="53.7422638" lon="-3.0003336">
        <name>Windsor Road</name>
      </trkpt>
      <trkpt lat="53.7422307" lon="-3.0001988">
        <name>Windsor Road</name>
      </trkpt>
      <trkpt lat="53.7421976" lon="-3.0000641">
        <name>Windsor Road</name>
      </trkpt>
      <trkpt lat="53.7421644" lon="-2.9999294">
        <name>Windsor Road</name>
      </trkpt>
      <trkpt lat="53.7421313" lon="-2.9997947">
        <name>Windsor Road</name>
      </trkpt>
      <trkpt lat="53.7420982" lon="-2.9996599">
        <name>Windsor Road</name>
      </trkpt>
      <trkpt lat="53.7420651" lon="-2.9995252">
        <name>Windsor Road</name>
      </trkpt>
      <trkpt lat="53.7420320" lon="-2.9993905">
        <name>Windsor Road</name>
      </trkpt>
      <trkpt lat="53.7419989" lon="-2.9992558">
        <name>Windsor Road</name>
      </trkpt>
      <trkpt lat="53.7419658" lon="-2.9991211">
        <name>Windsor Road</name>
      </trkpt>
      <trkpt lat="53.7419327" lon="-2.9989863">
        <name>Windsor Road</name>
      </trkpt>
      <trkpt lat="53.7418996" lon="-2.9988516">
        <name>Windsor Road</name>
      </trkpt>
      <trkpt lat="53.7418664" lon="-2.9987169">
        <name>Windsor Road</name>
      </trkpt>
      <trkpt lat="53.7418333" lon="-2.9985822">
        <name>Windsor Road</name>
      </trkpt>
      <trkpt lat="53.7418002" lon="-2.9984474">
        <name>Windsor Road</name>
      </trkpt>
      <trkpt lat="53.7417671" lon="-2.9983127">
        <name>Windsor Road</name>
      </trkpt>
      <trkpt lat="53.7417340" lon="-2.9981780">
        <name>Windsor Road</name>
      </trkpt>
      <trkpt lat="53.7417290" lon="-2.9981560">
        <name>Windsor Road</name>
      </trkpt>
      <trkpt lat="53.7416996" lon="-2.9980274">
        <name>Bazley Road</name>
      </trkpt>
      <trkpt lat="53.7416702" lon="-2.9978988">
        <name>Bazley Road</name>
      </trkpt>
      <trkpt lat="53.7416408" lon="-2.9977702">
        <name>Bazley Road</name>
      </trkpt>
      <trkpt lat="53.7416114" lon="-2.9976416">
        <name>Bazley Road</name>
      </trkpt>
      <trkpt lat="53.7415820" lon="-2.9975130">
        <name>Bazley Road</name>
      </trkpt>
      <trkpt lat="53.7415410" lon="-2.9975410">
        <name>Bazley Road</name>
      </trkpt>
      <trkpt lat="53.7414732" lon="-2.9975873">
        <name>Bazley Road</name>
      </trkpt>
      <trkpt lat="53.7414055" lon="-2.9976335">
        <name>Bazley Road</name>
      </trkpt>
      <trkpt lat="53.7413377" lon="-2.9976798">
        <name>Bazley Road</name>
      </trkpt>
      <trkpt lat="53.7412700" lon="-2.9977260">
        <name>Bazley Road</name>
      </trkpt>
      <trkpt lat="53.7411904" lon="-2.9977804">
        <name>Bazley Road</name>
      </trkpt>
      <trkpt lat="53.7411109" lon="-2.9978349">
        <name>Bazley Road</name>
      </trkpt>
      <trkpt lat="53.7410313" lon="-2.9978893">
        <name>Bazley Road</name>
      </trkpt>
      <trkpt lat="53.7409517" lon="-2.9979437">
        <name>Bazley Road</name>
      </trkpt>
      <trkpt lat="53.7408721" lon="-2.9979981">
        <name>Bazley Road</name>
      </trkpt>
      <trkpt lat="53.7407926" lon="-2.9980526">
        <name>Bazley Road</name>
      </trkpt>
      <trkpt lat="53.7407130" lon="-2.9981070">
        <name>Bazley Road</name>
      </trkpt>
      <trkpt lat="53.7406540" lon="-2.9981480">
        <name>Bazley Road</name>
      </trkpt>
      <trkpt lat="53.7406670" lon="-2.9982000">
        <name>Bazley Road</name>
      </trkpt>
      <trkpt lat="53.7406540" lon="-2.9981480">
        <name>Bazley Road</name>
      </trkpt>
      <trkpt lat="53.7406010" lon="-2.9981840">
        <name>Clifton Drive</name>
      </trkpt>
      <trkpt lat="53.7405209" lon="-2.9982389">
        <name>Clifton Drive</name>
      </trkpt>
      <trkpt lat="53.7404408" lon="-2.9982938">
        <name>Clifton Drive</name>
      </trkpt>
      <trkpt lat="53.7403607" lon="-2.9983487">
        <name>Clifton Drive</name>
      </trkpt>
      <trkpt lat="53.7402806" lon="-2.9984036">
        <name>Clifton Drive</name>
      </trkpt>
      <trkpt lat="53.7402004" lon="-2.9984584">
        <name>Clifton Drive</name>
      </trkpt>
      <trkpt lat="53.7401203" lon="-2.9985133">
        <name>Clifton Drive</name>
      </trkpt>
      <trkpt lat="53.7400402" lon="-2.9985682">
        <name>Clifton Drive</name>
      </trkpt>
      <trkpt lat="53.7399601" lon="-2.9986231">
        <name>Clifton Drive</name>
      </trkpt>
      <trkpt lat="53.7398800" lon="-2.9986780">
        <name>Clifton Drive</name>
      </trkpt>
      <trkpt lat="53.7399068" lon="-2.9987972">
        <name>Clifton Drive</name>
      </trkpt>
      <trkpt lat="53.7399335" lon="-2.9989165">
        <name>Clifton Drive</name>
      </trkpt>
      <trkpt lat="53.7399602" lon="-2.9990358">
        <name>Clifton Drive</name>
      </trkpt>
      <trkpt lat="53.7399870" lon="-2.9991550">
        <name>Clifton Drive</name>
      </trkpt>
      <trkpt lat="53.7400080" lon="-2.9992440">
        <name>Clifton Drive</name>
      </trkpt>
      <trkpt lat="53.7400406" lon="-2.9993842">
        <name>Clifton Drive</name>
      </trkpt>
      <trkpt lat="53.7400732" lon="-2.9995244">
        <name>Clifton Drive</name>
      </trkpt>
      <trkpt lat="53.7401058" lon="-2.9996646">
        <name>Clifton Drive</name>
      </trkpt>
      <trkpt lat="53.7401384" lon="-2.9998048">
        <name>Clifton Drive</name>
      </trkpt>
      <trkpt lat="53.7401710" lon="-2.9999450">
        <name>Clifton Drive</name>
      </trkpt>
      <trkpt lat="53.7402017" lon="-3.0000745">
        <name>Clifton Drive</name>
      </trkpt>
      <trkpt lat="53.7402325" lon="-3.0002040">
        <name>Clifton Drive</name>
      </trkpt>
      <trkpt lat="53.7402632" lon="-3.0003335">
        <name>Clifton Drive</name>
      </trkpt>
      <trkpt lat="53.7402940" lon="-3.0004630">
        <name>Clifton Drive</name>
      </trkpt>
      <trkpt lat="53.7403200" lon="-3.0005740">
        <name>Pembroke Road</name>
      </trkpt>
      <trkpt lat="53.7403510" lon="-3.0007050">
        <name>Pembroke Road</name>
      </trkpt>
      <trkpt lat="53.7403820" lon="-3.0008360">
        <name>Pembroke Road</name>
      </trkpt>
      <trkpt lat="53.7404130" lon="-3.0009670">
        <name>Pembroke Road</name>
      </trkpt>
      <trkpt lat="53.7404440" lon="-3.0010980">
        <name>Pembroke Road</name>
      </trkpt>
      <trkpt lat="53.7404670" lon="-3.0011930">
        <name>Pembroke Road</name>
      </trkpt>
      <trkpt lat="53.7405502" lon="-3.0011361">
        <name>Windsor Road</name>
      </trkpt>
      <trkpt lat="53.7406334" lon="-3.0010792">
        <name>Windsor Road</name>
      </trkpt>
      <trkpt lat="53.7407167" lon="-3.0010223">
        <name>Windsor Road</name>
      </trkpt>
      <trkpt lat="53.7407999" lon="-3.0009654">
        <name>Windsor Road</name>
      </trkpt>
      <trkpt lat="53.7408831" lon="-3.0009086">
        <name>Windsor Road</name>
      </trkpt>
      <trkpt lat="53.7409663" lon="-3.0008517">
        <name>Windsor Road</name>
      </trkpt>
      <trkpt lat="53.7410496" lon="-3.0007948">
        <name>Windsor Road</name>
      </trkpt>
      <trkpt lat="53.7411328" lon="-3.0007379">
        <name>Windsor Road</name>
      </trkpt>
      <trkpt lat="53.7412160" lon="-3.0006810">
        <name>Windsor Road</name>
      </trkpt>
      <trkpt lat="53.7412800" lon="-3.0006370">
        <name>Windsor Road</name>
      </trkpt>
      <trkpt lat="53.7413123" lon="-3.0007757">
        <name>Windsor Road</name>
      </trkpt>
      <trkpt lat="53.7413446" lon="-3.0009144">
        <name>Windsor Road</name>
      </trkpt>
      <trkpt lat="53.7413769" lon="-3.0010531">
        <name>Windsor Road</name>
      </trkpt>
      <trkpt lat="53.7414091" lon="-3.0011919">
        <name>Windsor Road</name>
      </trkpt>
      <trkpt lat="53.7414414" lon="-3.0013306">
        <name>Windsor Road</name>
      </trkpt>
      <trkpt lat="53.7414737" lon="-3.0014693">
        <name>Windsor Road</name>
      </trkpt>
      <trkpt lat="53.7415060" lon="-3.0016080">
        <name>Windsor Road</name>
      </trkpt>
      <trkpt lat="53.7415365" lon="-3.0017385">
        <name>Windsor Road</name>
      </trkpt>
      <trkpt lat="53.7415670" lon="-3.0018690">
        <name>Windsor Road</name>
      </trkpt>
      <trkpt lat="53.7414890" lon="-3.0019140">
        <name>Windsor Road</name>
      </trkpt>
      <trkpt lat="53.7414066" lon="-3.0019613">
        <name>Windsor Road</name>
      </trkpt>
      <trkpt lat="53.7413242" lon="-3.0020086">
        <name>Windsor Road</name>
      </trkpt>
      <trkpt lat="53.7412418" lon="-3.0020559">
        <name>Windsor Road</name>
      </trkpt>
      <trkpt lat="53.7411594" lon="-3.0021032">
        <name>Windsor Road</name>
      </trkpt>
      <trkpt lat="53.7410770" lon="-3.0021505">
        <name>Windsor Road</name>
      </trkpt>
      <trkpt lat="53.7409947" lon="-3.0021978">
        <name>Windsor Road</name>
      </trkpt>
      <trkpt lat="53.7409123" lon="-3.0022451">
        <name>Windsor Road</name>
      </trkpt>
      <trkpt lat="53.7408299" lon="-3.0022924">
        <name>Windsor Road</name>
      </trkpt>
      <trkpt lat="53.7407475" lon="-3.0023397">
        <name>Windsor Road</name>
      </trkpt>
      <trkpt lat="53.7406651" lon="-3.0023870">
        <name>Windsor Road</name>
      </trkpt>
      <trkpt lat="53.7405827" lon="-3.0024343">
        <name>Windsor Road</name>
      </trkpt>
      <trkpt lat="53.7405003" lon="-3.0024817">
        <name>Windsor Road</name>
      </trkpt>
      <trkpt lat="53.7404179" lon="-3.0025290">
        <name>Windsor Road</name>
      </trkpt>
      <trkpt lat="53.7403355" lon="-3.0025763">
        <name>Windsor Road</name>
      </trkpt>
      <trkpt lat="53.7402531" lon="-3.0026236">
        <name>Windsor Road</name>
      </trkpt>
      <trkpt lat="53.7401707" lon="-3.0026709">
        <name>Windsor Road</name>
      </trkpt>
      <trkpt lat="53.7400883" lon="-3.0027182">
        <name>Windsor Road</name>
      </trkpt>
      <trkpt lat="53.7400060" lon="-3.0027655">
        <name>Windsor Road</name>
      </trkpt>
      <trkpt lat="53.7399236" lon="-3.0028128">
        <name>Windsor Road</name>
      </trkpt>
      <trkpt lat="53.7398412" lon="-3.0028601">
        <name>Windsor Road</name>
      </trkpt>
      <trkpt lat="53.7397588" lon="-3.0029074">
        <name>Windsor Road</name>
      </trkpt>
      <trkpt lat="53.7396764" lon="-3.0029547">
        <name>Windsor Road</name>
      </trkpt>
      <trkpt lat="53.7395940" lon="-3.0030020">
        <name>Windsor Road</name>
      </trkpt>
      <trkpt lat="53.7395110" lon="-3.0030490">
        <name>Windsor Road</name>
      </trkpt>
      <trkpt lat="53.7395207" lon="-3.0031730">
        <name>Windsor Road</name>
      </trkpt>
      <trkpt lat="53.7395305" lon="-3.0032970">
        <name>Windsor Road</name>
      </trkpt>
      <trkpt lat="53.7395403" lon="-3.0034210">
        <name>Windsor Road</name>
      </trkpt>
      <trkpt lat="53.7395500" lon="-3.0035450">
        <name>Windsor Road</name>
      </trkpt>
      <trkpt lat="53.7395583" lon="-3.0036507">
        <name>Woodlands Road</name>
      </trkpt>
      <trkpt lat="53.7395667" lon="-3.0037563">
        <name>Woodlands Road</name>
      </trkpt>
      <trkpt lat="53.7395750" lon="-3.0038620">
        <name>Woodlands Road</name>
      </trkpt>
      <trkpt lat="53.7395820" lon="-3.0039495">
        <name>Woodlands Road</name>
      </trkpt>
      <trkpt lat="53.7395890" lon="-3.0040370">
        <name>Woodlands Road</name>
      </trkpt>
      <trkpt lat="53.7396010" lon="-3.0041865">
        <name>Kingsway</name>
      </trkpt>
      <trkpt lat="53.7396130" lon="-3.0043360">
        <name>Kingsway</name>
      </trkpt>
      <trkpt lat="53.7396770" lon="-3.0043020">
        <name>Kingsway</name>
      </trkpt>
      <trkpt lat="53.7397618" lon="-3.0042564">
        <name>Kingsway</name>
      </trkpt>
      <trkpt lat="53.7398466" lon="-3.0042108">
        <name>Kingsway</name>
      </trkpt>
      <trkpt lat="53.7399314" lon="-3.0041652">
        <name>Kingsway</name>
      </trkpt>
      <trkpt lat="53.7400162" lon="-3.0041196">
        <name>Kingsway</name>
      </trkpt>
      <trkpt lat="53.7401010" lon="-3.0040740">
        <name>Kingsway</name>
      </trkpt>
      <trkpt lat="53.7401858" lon="-3.0040284">
        <name>Kingsway</name>
      </trkpt>
      <trkpt lat="53.7402706" lon="-3.0039828">
        <name>Kingsway</name>
      </trkpt>
      <trkpt lat="53.7403554" lon="-3.0039372">
        <name>Kingsway</name>
      </trkpt>
      <trkpt lat="53.7404402" lon="-3.0038916">
        <name>Kingsway</name>
      </trkpt>
      <trkpt lat="53.7405250" lon="-3.0038460">
        <name>Kingsway</name>
      </trkpt>
      <trkpt lat="53.7406098" lon="-3.0038004">
        <name>Kingsway</name>
      </trkpt>
      <trkpt lat="53.7406946" lon="-3.0037548">
        <name>Kingsway</name>
      </trkpt>
      <trkpt lat="53.7407794" lon="-3.0037092">
        <name>Kingsway</name>
      </trkpt>
      <trkpt lat="53.7408642" lon="-3.0036636">
        <name>Kingsway</name>
      </trkpt>
      <trkpt lat="53.7409490" lon="-3.0036180">
        <name>Kingsway</name>
      </trkpt>
      <trkpt lat="53.7410338" lon="-3.0035724">
        <name>Kingsway</name>
      </trkpt>
      <trkpt lat="53.7411186" lon="-3.0035268">
        <name>Kingsway</name>
      </trkpt>
      <trkpt lat="53.7412034" lon="-3.0034812">
        <name>Kingsway</name>
      </trkpt>
      <trkpt lat="53.7412882" lon="-3.0034356">
        <name>Kingsway</name>
      </trkpt>
      <trkpt lat="53.7413730" lon="-3.0033900">
        <name>Kingsway</name>
      </trkpt>
      <trkpt lat="53.7414578" lon="-3.0033444">
        <name>Kingsway</name>
      </trkpt>
      <trkpt lat="53.7415426" lon="-3.0032988">
        <name>Kingsway</name>
      </trkpt>
      <trkpt lat="53.7416274" lon="-3.0032532">
        <name>Kingsway</name>
      </trkpt>
      <trkpt lat="53.7417122" lon="-3.0032076">
        <name>Kingsway</name>
      </trkpt>
      <trkpt lat="53.7417970" lon="-3.0031620">
        <name>Kingsway</name>
      </trkpt>
      <trkpt lat="53.7418700" lon="-3.0031220">
        <name>Kingsway</name>
      </trkpt>
      <trkpt lat="53.7418985" lon="-3.0032413">
        <name>Kingsway</name>
      </trkpt>
      <trkpt lat="53.7419270" lon="-3.0033607">
        <name>Kingsway</name>
      </trkpt>
      <trkpt lat="53.7419555" lon="-3.0034800">
        <name>Kingsway</name>
      </trkpt>
      <trkpt lat="53.7419840" lon="-3.0035993">
        <name>Kingsway</name>
      </trkpt>
      <trkpt lat="53.7420125" lon="-3.0037187">
        <name>Kingsway</name>
      </trkpt>
      <trkpt lat="53.7420410" lon="-3.0038380">
        <name>Kingsway</name>
      </trkpt>
      <trkpt lat="53.7420714" lon="-3.0039658">
        <name>Kingsway</name>
      </trkpt>
      <trkpt lat="53.7421018" lon="-3.0040936">
        <name>Kingsway</name>
      </trkpt>
      <trkpt lat="53.7421322" lon="-3.0042214">
        <name>Kingsway</name>
      </trkpt>
      <trkpt lat="53.7421626" lon="-3.0043492">
        <name>Kingsway</name>
      </trkpt>
      <trkpt lat="53.7421930" lon="-3.0044770">
        <name>Kingsway</name>
      </trkpt>
      <trkpt lat="53.7421250" lon="-3.0045090">
        <name>Kingsway</name>
      </trkpt>
      <trkpt lat="53.7420415" lon="-3.0045490">
        <name>Kingsway</name>
      </trkpt>
      <trkpt lat="53.7419580" lon="-3.0045891">
        <name>Kingsway</name>
      </trkpt>
      <trkpt lat="53.7418744" lon="-3.0046291">
        <name>Kingsway</name>
      </trkpt>
      <trkpt lat="53.7417909" lon="-3.0046692">
        <name>Kingsway</name>
      </trkpt>
      <trkpt lat="53.7417074" lon="-3.0047092">
        <name>Kingsway</name>
      </trkpt>
      <trkpt lat="53.7416239" lon="-3.0047492">
        <name>Kingsway</name>
      </trkpt>
      <trkpt lat="53.7415404" lon="-3.0047893">
        <name>Kingsway</name>
      </trkpt>
      <trkpt lat="53.7414568" lon="-3.0048293">
        <name>Kingsway</name>
      </trkpt>
      <trkpt lat="53.7413733" lon="-3.0048694">
        <name>Kingsway</name>
      </trkpt>
      <trkpt lat="53.7412898" lon="-3.0049094">
        <name>Kingsway</name>
      </trkpt>
      <trkpt lat="53.7412063" lon="-3.0049494">
        <name>Kingsway</name>
      </trkpt>
      <trkpt lat="53.7411228" lon="-3.0049895">
        <name>Kingsway</name>
      </trkpt>
      <trkpt lat="53.7410392" lon="-3.0050295">
        <name>Kingsway</name>
      </trkpt>
      <trkpt lat="53.7409557" lon="-3.0050696">
        <name>Kingsway</name>
      </trkpt>
      <trkpt lat="53.7408722" lon="-3.0051096">
        <name>Kingsway</name>
      </trkpt>
      <trkpt lat="53.7407887" lon="-3.0051496">
        <name>Kingsway</name>
      </trkpt>
      <trkpt lat="53.7407052" lon="-3.0051897">
        <name>Kingsway</name>
      </trkpt>
      <trkpt lat="53.7406216" lon="-3.0052297">
        <name>Kingsway</name>
      </trkpt>
      <trkpt lat="53.7405381" lon="-3.0052698">
        <name>Kingsway</name>
      </trkpt>
      <trkpt lat="53.7404546" lon="-3.0053098">
        <name>Kingsway</name>
      </trkpt>
      <trkpt lat="53.7403711" lon="-3.0053498">
        <name>Kingsway</name>
      </trkpt>
      <trkpt lat="53.7402876" lon="-3.0053899">
        <name>Kingsway</name>
      </trkpt>
      <trkpt lat="53.7402040" lon="-3.0054299">
        <name>Kingsway</name>
      </trkpt>
      <trkpt lat="53.7401205" lon="-3.0054700">
        <name>Kingsway</name>
      </trkpt>
      <trkpt lat="53.7400370" lon="-3.0055100">
        <name>Kingsway</name>
      </trkpt>
    </trkseg>
  </trk>
</gpx>