<?xml version="1.0" encoding="UTF-8"?>
<gpx version="1.1" creator="TurboSanta Route Planner">
  <trk>
    <name>TurboSanta Route (10m density)</name>
    <trkseg>
      <trkpt lat="53.7629010" lon="-3.0329500">
        <name>Frobisher Drive</name>
      </trkpt>
      <trkpt lat="53.7629710" lon="-3.0329800">
        <name>Frobisher Drive</name>
      </trkpt>
      <trkpt lat="53.7630410" lon="-3.0330100">
        <name>Frobisher Drive</name>
      </trkpt>
      <trkpt lat="53.7631110" lon="-3.0330400">
        <name>Frobisher Drive</name>
      </trkpt>
      <trkpt lat="53.7631830" lon="-3.0330708">
        <name>Frobisher Drive</name>
      </trkpt>
      <trkpt lat="53.7632550" lon="-3.0331015">
        <name>Frobisher Drive</name>
      </trkpt>
      <trkpt lat="53.7633270" lon="-3.0331322">
        <name>Frobisher Drive</name>
      </trkpt>
      <trkpt lat="53.7633990" lon="-3.0331630">
        <name>Frobisher Drive</name>
      </trkpt>
      <trkpt lat="53.7634813" lon="-3.0332040">
        <name>Frobisher Drive</name>
      </trkpt>
      <trkpt lat="53.7635637" lon="-3.0332450">
        <name>Frobisher Drive</name>
      </trkpt>
      <trkpt lat="53.7636460" lon="-3.0332860">
        <name>Frobisher Drive</name>
      </trkpt>
      <trkpt lat="53.7637335" lon="-3.0333120">
        <name>Frobisher Drive</name>
      </trkpt>
      <trkpt lat="53.7638210" lon="-3.0333380">
        <name>Frobisher Drive</name>
      </trkpt>
      <trkpt lat="53.7639030" lon="-3.0333570">
        <name>Frobisher Drive</name>
      </trkpt>
      <trkpt lat="53.7639850" lon="-3.0333760">
        <name>Frobisher Drive</name>
      </trkpt>
      <trkpt lat="53.7640670" lon="-3.0333950">
        <name>Frobisher Drive</name>
      </trkpt>
      <trkpt lat="53.7641475" lon="-3.0334080">
        <name>Frobisher Drive</name>
      </trkpt>
      <trkpt lat="53.7642280" lon="-3.0334210">
        <name>Frobisher Drive</name>
      </trkpt>
      <trkpt lat="53.7643130" lon="-3.0334490">
        <name>Frobisher Drive</name>
      </trkpt>
      <trkpt lat="53.7643980" lon="-3.0334770">
        <name>Frobisher Drive</name>
      </trkpt>
      <trkpt lat="53.7644540" lon="-3.0335185">
        <name>Frobisher Drive</name>
      </trkpt>
      <trkpt lat="53.7645100" lon="-3.0335600">
        <name>Frobisher Drive</name>
      </trkpt>
      <trkpt lat="53.7645640" lon="-3.0336275">
        <name>Frobisher Drive</name>
      </trkpt>
      <trkpt lat="53.7646180" lon="-3.0336950">
        <name>Frobisher Drive</name>
      </trkpt>
      <trkpt lat="53.7646730" lon="-3.0337910">
        <name>Frobisher Drive</name>
      </trkpt>
      <trkpt lat="53.7647145" lon="-3.0338875">
        <name>Frobisher Drive</name>
      </trkpt>
      <trkpt lat="53.7647560" lon="-3.0339840">
        <name>Frobisher Drive</name>
      </trkpt>
      <trkpt lat="53.7647880" lon="-3.0341030">
        <name>Frobisher Drive</name>
      </trkpt>
      <trkpt lat="53.7648020" lon="-3.0341880">
        <name>Frobisher Drive</name>
      </trkpt>
      <trkpt lat="53.7648160" lon="-3.0342730">
        <name>Frobisher Drive</name>
      </trkpt>
      <trkpt lat="53.7648307" lon="-3.0343817">
        <name>Frobisher Drive</name>
      </trkpt>
      <trkpt lat="53.7648453" lon="-3.0344903">
        <name>Frobisher Drive</name>
      </trkpt>
      <trkpt lat="53.7648600" lon="-3.0345990">
        <name>Frobisher Drive</name>
      </trkpt>
      <trkpt lat="53.7648730" lon="-3.0346790">
        <name>Frobisher Drive</name>
      </trkpt>
      <trkpt lat="53.7648860" lon="-3.0347590">
        <name>Frobisher Drive</name>
      </trkpt>
      <trkpt lat="53.7649080" lon="-3.0348180">
        <name>Frobisher Drive</name>
      </trkpt>
      <trkpt lat="53.7649430" lon="-3.0348770">
        <name>Frobisher Drive</name>
      </trkpt>
      <trkpt lat="53.7649880" lon="-3.0349400">
        <name>Frobisher Drive</name>
      </trkpt>
      <trkpt lat="53.7650250" lon="-3.0349690">
        <name>Frobisher Drive</name>
      </trkpt>
      <trkpt lat="53.7650390" lon="-3.0349800">
        <name>Frobisher Drive</name>
      </trkpt>
      <trkpt lat="53.7651080" lon="-3.0350150">
        <name>Frobisher Drive</name>
      </trkpt>
      <trkpt lat="53.7651680" lon="-3.0350210">
        <name>Frobisher Drive</name>
      </trkpt>
      <trkpt lat="53.7652120" lon="-3.0350020">
        <name>Frobisher Drive</name>
      </trkpt>
      <trkpt lat="53.7652560" lon="-3.0349830">
        <name>Frobisher Drive</name>
      </trkpt>
      <trkpt lat="53.7652970" lon="-3.0349470">
        <name>Frobisher Drive</name>
      </trkpt>
      <trkpt lat="53.7653340" lon="-3.0349000">
        <name>Frobisher Drive</name>
      </trkpt>
      <trkpt lat="53.7653740" lon="-3.0348290">
        <name>Frobisher Drive</name>
      </trkpt>
      <trkpt lat="53.7653980" lon="-3.0347650">
        <name>Frobisher Drive</name>
      </trkpt>
      <trkpt lat="53.7654210" lon="-3.0346840">
        <name>Frobisher Drive</name>
      </trkpt>
      <trkpt lat="53.7654310" lon="-3.0346020">
        <name>Frobisher Drive</name>
      </trkpt>
      <trkpt lat="53.7654340" lon="-3.0345020">
        <name>Frobisher Drive</name>
      </trkpt>
      <trkpt lat="53.7654280" lon="-3.0344150">
        <name>Frobisher Drive</name>
      </trkpt>
      <trkpt lat="53.7654225" lon="-3.0342990">
        <name>Frobisher Drive</name>
      </trkpt>
      <trkpt lat="53.7654170" lon="-3.0341830">
        <name>Frobisher Drive</name>
      </trkpt>
      <trkpt lat="53.7654175" lon="-3.0340890">
        <name>Frobisher Drive</name>
      </trkpt>
      <trkpt lat="53.7654180" lon="-3.0339950">
        <name>Frobisher Drive</name>
      </trkpt>
      <trkpt lat="53.7654440" lon="-3.0338870">
        <name>Frobisher Drive</name>
      </trkpt>
      <trkpt lat="53.7654695" lon="-3.0338015">
        <name>Frobisher Drive</name>
      </trkpt>
      <trkpt lat="53.7654950" lon="-3.0337160">
        <name>Frobisher Drive</name>
      </trkpt>
      <trkpt lat="53.7655310" lon="-3.0336410">
        <name>Frobisher Drive</name>
      </trkpt>
      <trkpt lat="53.7655925" lon="-3.0335465">
        <name>Frobisher Drive</name>
      </trkpt>
      <trkpt lat="53.7656540" lon="-3.0334520">
        <name>Frobisher Drive</name>
      </trkpt>
      <trkpt lat="53.7657090" lon="-3.0334085">
        <name>Frobisher Drive</name>
      </trkpt>
      <trkpt lat="53.7657640" lon="-3.0333650">
        <name>Frobisher Drive</name>
      </trkpt>
      <trkpt lat="53.7657990" lon="-3.0333210">
        <name>Frobisher Drive</name>
      </trkpt>
      <trkpt lat="53.7658490" lon="-3.0332580">
        <name>Frobisher Drive</name>
      </trkpt>
      <trkpt lat="53.7659130" lon="-3.0331520">
        <name>Frobisher Drive</name>
      </trkpt>
      <trkpt lat="53.7659520" lon="-3.0330500">
        <name>Frobisher Drive</name>
      </trkpt>
      <trkpt lat="53.7659780" lon="-3.0329490">
        <name>Frobisher Drive</name>
      </trkpt>
      <trkpt lat="53.7659940" lon="-3.0328395">
        <name>Frobisher Drive</name>
      </trkpt>
      <trkpt lat="53.7660100" lon="-3.0327300">
        <name>Frobisher Drive</name>
      </trkpt>
      <trkpt lat="53.7660105" lon="-3.0326455">
        <name>Frobisher Drive</name>
      </trkpt>
      <trkpt lat="53.7660110" lon="-3.0325610">
        <name>Frobisher Drive</name>
      </trkpt>
      <trkpt lat="53.7659980" lon="-3.0324860">
        <name>Frobisher Drive</name>
      </trkpt>
      <trkpt lat="53.7659850" lon="-3.0324110">
        <name>Frobisher Drive</name>
      </trkpt>
      <trkpt lat="53.7659670" lon="-3.0323100">
        <name>Frobisher Drive</name>
      </trkpt>
      <trkpt lat="53.7659330" lon="-3.0322200">
        <name>Frobisher Drive</name>
      </trkpt>
      <trkpt lat="53.7658790" lon="-3.0321080">
        <name>Frobisher Drive</name>
      </trkpt>
      <trkpt lat="53.7658115" lon="-3.0320290">
        <name>Frobisher Drive</name>
      </trkpt>
      <trkpt lat="53.7657440" lon="-3.0319500">
        <name>Frobisher Drive</name>
      </trkpt>
      <trkpt lat="53.7656920" lon="-3.0318765">
        <name>Frobisher Drive</name>
      </trkpt>
      <trkpt lat="53.7656400" lon="-3.0318030">
        <name>Frobisher Drive</name>
      </trkpt>
      <trkpt lat="53.7655880" lon="-3.0317295">
        <name>Frobisher Drive</name>
      </trkpt>
      <trkpt lat="53.7655360" lon="-3.0316560">
        <name>Frobisher Drive</name>
      </trkpt>
      <trkpt lat="53.7655020" lon="-3.0315960">
        <name>Frobisher Drive</name>
      </trkpt>
      <trkpt lat="53.7654580" lon="-3.0314790">
        <name>Frobisher Drive</name>
      </trkpt>
      <trkpt lat="53.7654140" lon="-3.0313620">
        <name>Frobisher Drive</name>
      </trkpt>
      <trkpt lat="53.7653895" lon="-3.0312535">
        <name>Frobisher Drive</name>
      </trkpt>
      <trkpt lat="53.7653650" lon="-3.0311450">
        <name>Frobisher Drive</name>
      </trkpt>
      <trkpt lat="53.7653497" lon="-3.0310263">
        <name>Frobisher Drive</name>
      </trkpt>
      <trkpt lat="53.7653343" lon="-3.0309077">
        <name>Frobisher Drive</name>
      </trkpt>
      <trkpt lat="53.7653190" lon="-3.0307890">
        <name>Frobisher Drive</name>
      </trkpt>
      <trkpt lat="53.7653160" lon="-3.0306865">
        <name>Frobisher Drive</name>
      </trkpt>
      <trkpt lat="53.7653130" lon="-3.0305840">
        <name>Frobisher Drive</name>
      </trkpt>
      <trkpt lat="53.7653210" lon="-3.0304515">
        <name>Frobisher Drive</name>
      </trkpt>
      <trkpt lat="53.7653290" lon="-3.0303190">
        <name>Frobisher Drive</name>
      </trkpt>
      <trkpt lat="53.7653497" lon="-3.0301783">
        <name>Frobisher Drive</name>
      </trkpt>
      <trkpt lat="53.7653703" lon="-3.0300377">
        <name>Frobisher Drive</name>
      </trkpt>
      <trkpt lat="53.7653910" lon="-3.0298970">
        <name>Frobisher Drive</name>
      </trkpt>
      <trkpt lat="53.7654155" lon="-3.0297642">
        <name>Frobisher Drive</name>
      </trkpt>
      <trkpt lat="53.7654400" lon="-3.0296315">
        <name>Frobisher Drive</name>
      </trkpt>
      <trkpt lat="53.7654645" lon="-3.0294988">
        <name>Frobisher Drive</name>
      </trkpt>
      <trkpt lat="53.7654890" lon="-3.0293660">
        <name>Frobisher Drive</name>
      </trkpt>
      <trkpt lat="53.7655180" lon="-3.0292765">
        <name>Frobisher Drive</name>
      </trkpt>
      <trkpt lat="53.7655470" lon="-3.0291870">
        <name>Frobisher Drive</name>
      </trkpt>
      <trkpt lat="53.7655600" lon="-3.0291470">
        <name>Frobisher Drive</name>
      </trkpt>
      <trkpt lat="53.7655860" lon="-3.0290780">
        <name>Frobisher Drive</name>
      </trkpt>
      <trkpt lat="53.7656120" lon="-3.0290090">
        <name>Frobisher Drive</name>
      </trkpt>
      <trkpt lat="53.7656513" lon="-3.0289247">
        <name>Frobisher Drive</name>
      </trkpt>
      <trkpt lat="53.7656907" lon="-3.0288403">
        <name>Frobisher Drive</name>
      </trkpt>
      <trkpt lat="53.7657300" lon="-3.0287560">
        <name>Frobisher Drive</name>
      </trkpt>
      <trkpt lat="53.7657855" lon="-3.0286580">
        <name>Frobisher Drive</name>
      </trkpt>
      <trkpt lat="53.7658410" lon="-3.0285600">
        <name>Frobisher Drive</name>
      </trkpt>
      <trkpt lat="53.7658925" lon="-3.0284575">
        <name>Frobisher Drive</name>
      </trkpt>
      <trkpt lat="53.7659440" lon="-3.0283550">
        <name>Frobisher Drive</name>
      </trkpt>
      <trkpt lat="53.7659880" lon="-3.0282460">
        <name>Frobisher Drive</name>
      </trkpt>
      <trkpt lat="53.7660320" lon="-3.0281370">
        <name>Frobisher Drive</name>
      </trkpt>
      <trkpt lat="53.7660540" lon="-3.0280555">
        <name>Frobisher Drive</name>
      </trkpt>
      <trkpt lat="53.7660760" lon="-3.0279740">
        <name>Frobisher Drive</name>
      </trkpt>
      <trkpt lat="53.7660950" lon="-3.0278835">
        <name>Frobisher Drive</name>
      </trkpt>
      <trkpt lat="53.7661140" lon="-3.0277930">
        <name>Frobisher Drive</name>
      </trkpt>
      <trkpt lat="53.7661389" lon="-3.0276506">
        <name>Frobisher Drive</name>
      </trkpt>
      <trkpt lat="53.7661637" lon="-3.0275082">
        <name>Frobisher Drive</name>
      </trkpt>
      <trkpt lat="53.7661886" lon="-3.0273658">
        <name>Frobisher Drive</name>
      </trkpt>
      <trkpt lat="53.7662135" lon="-3.0272234">
        <name>Frobisher Drive</name>
      </trkpt>
      <trkpt lat="53.7662383" lon="-3.0270810">
        <name>Frobisher Drive</name>
      </trkpt>
      <trkpt lat="53.7662632" lon="-3.0269386">
        <name>Frobisher Drive</name>
      </trkpt>
      <trkpt lat="53.7662881" lon="-3.0267962">
        <name>Frobisher Drive</name>
      </trkpt>
      <trkpt lat="53.7663129" lon="-3.0266538">
        <name>Frobisher Drive</name>
      </trkpt>
      <trkpt lat="53.7663378" lon="-3.0265114">
        <name>Frobisher Drive</name>
      </trkpt>
      <trkpt lat="53.7663627" lon="-3.0263690">
        <name>Frobisher Drive</name>
      </trkpt>
      <trkpt lat="53.7663875" lon="-3.0262266">
        <name>Frobisher Drive</name>
      </trkpt>
      <trkpt lat="53.7664124" lon="-3.0260842">
        <name>Frobisher Drive</name>
      </trkpt>
      <trkpt lat="53.7664373" lon="-3.0259418">
        <name>Frobisher Drive</name>
      </trkpt>
      <trkpt lat="53.7664621" lon="-3.0257994">
        <name>Frobisher Drive</name>
      </trkpt>
      <trkpt lat="53.7664870" lon="-3.0256570">
        <name>Frobisher Drive</name>
      </trkpt>
      <trkpt lat="53.7664195" lon="-3.0256185">
        <name>Frobisher Drive</name>
      </trkpt>
      <trkpt lat="53.7663520" lon="-3.0255800">
        <name>Frobisher Drive</name>
      </trkpt>
      <trkpt lat="53.7662845" lon="-3.0255415">
        <name>Frobisher Drive</name>
      </trkpt>
      <trkpt lat="53.7662170" lon="-3.0255030">
        <name>Frobisher Drive</name>
      </trkpt>
      <trkpt lat="53.7661497" lon="-3.0254647">
        <name>Frobisher Drive</name>
      </trkpt>
      <trkpt lat="53.7660823" lon="-3.0254263">
        <name>Frobisher Drive</name>
      </trkpt>
      <trkpt lat="53.7660150" lon="-3.0253880">
        <name>Frobisher Drive</name>
      </trkpt>
      <trkpt lat="53.7659377" lon="-3.0253440">
        <name>Frobisher Drive</name>
      </trkpt>
      <trkpt lat="53.7658603" lon="-3.0253000">
        <name>Frobisher Drive</name>
      </trkpt>
      <trkpt lat="53.7657830" lon="-3.0252560">
        <name>Frobisher Drive</name>
      </trkpt>
      <trkpt lat="53.7656988" lon="-3.0252082">
        <name>Frobisher Drive</name>
      </trkpt>
      <trkpt lat="53.7656146" lon="-3.0251604">
        <name>Frobisher Drive</name>
      </trkpt>
      <trkpt lat="53.7655304" lon="-3.0251126">
        <name>Frobisher Drive</name>
      </trkpt>
      <trkpt lat="53.7654462" lon="-3.0250648">
        <name>Frobisher Drive</name>
      </trkpt>
      <trkpt lat="53.7653620" lon="-3.0250170">
        <name>Frobisher Drive</name>
      </trkpt>
      <trkpt lat="53.7652955" lon="-3.0249780">
        <name>Frobisher Drive</name>
      </trkpt>
      <trkpt lat="53.7652290" lon="-3.0249390">
        <name>Frobisher Drive</name>
      </trkpt>
      <trkpt lat="53.7651625" lon="-3.0249000">
        <name>Frobisher Drive</name>
      </trkpt>
      <trkpt lat="53.7650960" lon="-3.0248610">
        <name>Frobisher Drive</name>
      </trkpt>
      <trkpt lat="53.7650788" lon="-3.0250088">
        <name>Frobisher Drive</name>
      </trkpt>
      <trkpt lat="53.7650617" lon="-3.0251567">
        <name>Frobisher Drive</name>
      </trkpt>
      <trkpt lat="53.7650445" lon="-3.0253045">
        <name>Frobisher Drive</name>
      </trkpt>
      <trkpt lat="53.7650273" lon="-3.0254523">
        <name>Frobisher Drive</name>
      </trkpt>
      <trkpt lat="53.7650102" lon="-3.0256002">
        <name>Frobisher Drive</name>
      </trkpt>
      <trkpt lat="53.7649930" lon="-3.0257480">
        <name>Frobisher Drive</name>
      </trkpt>
      <trkpt lat="53.7649755" lon="-3.0258865">
        <name>Frobisher Drive</name>
      </trkpt>
      <trkpt lat="53.7649580" lon="-3.0260250">
        <name>Frobisher Drive</name>
      </trkpt>
      <trkpt lat="53.7649405" lon="-3.0261635">
        <name>Frobisher Drive</name>
      </trkpt>
      <trkpt lat="53.7649230" lon="-3.0263020">
        <name>Frobisher Drive</name>
      </trkpt>
      <trkpt lat="53.7649070" lon="-3.0264220">
        <name>Frobisher Drive</name>
      </trkpt>
      <trkpt lat="53.7648910" lon="-3.0265420">
        <name>Frobisher Drive</name>
      </trkpt>
      <trkpt lat="53.7648750" lon="-3.0266620">
        <name>Frobisher Drive</name>
      </trkpt>
      <trkpt lat="53.7648590" lon="-3.0267820">
        <name>Frobisher Drive</name>
      </trkpt>
      <trkpt lat="53.7648430" lon="-3.0269020">
        <name>Frobisher Drive</name>
      </trkpt>
      <trkpt lat="53.7648317" lon="-3.0270427">
        <name>Rodney Avenue</name>
      </trkpt>
      <trkpt lat="53.7648203" lon="-3.0271833">
        <name>Rodney Avenue</name>
      </trkpt>
      <trkpt lat="53.7648090" lon="-3.0273240">
        <name>Rodney Avenue</name>
      </trkpt>
      <trkpt lat="53.7648115" lon="-3.0274730">
        <name>Rodney Avenue</name>
      </trkpt>
      <trkpt lat="53.7648140" lon="-3.0276220">
        <name>Rodney Avenue</name>
      </trkpt>
      <trkpt lat="53.7648265" lon="-3.0277430">
        <name>Leach Lane</name>
      </trkpt>
      <trkpt lat="53.7648390" lon="-3.0278640">
        <name>Leach Lane</name>
      </trkpt>
      <trkpt lat="53.7648483" lon="-3.0279730">
        <name>Leach Lane</name>
      </trkpt>
      <trkpt lat="53.7648577" lon="-3.0280820">
        <name>Leach Lane</name>
      </trkpt>
      <trkpt lat="53.7648670" lon="-3.0281910">
        <name>Leach Lane</name>
      </trkpt>
      <trkpt lat="53.7648670" lon="-3.0283410">
        <name>Leach Lane</name>
      </trkpt>
      <trkpt lat="53.7648670" lon="-3.0284910">
        <name>Leach Lane</name>
      </trkpt>
      <trkpt lat="53.7648515" lon="-3.0286275">
        <name>Leach Lane</name>
      </trkpt>
      <trkpt lat="53.7648360" lon="-3.0287640">
        <name>Leach Lane</name>
      </trkpt>
      <trkpt lat="53.7647602" lon="-3.0287312">
        <name>Leach Lane</name>
      </trkpt>
      <trkpt lat="53.7646843" lon="-3.0286983">
        <name>Leach Lane</name>
      </trkpt>
      <trkpt lat="53.7646085" lon="-3.0286655">
        <name>Leach Lane</name>
      </trkpt>
      <trkpt lat="53.7645327" lon="-3.0286327">
        <name>Leach Lane</name>
      </trkpt>
      <trkpt lat="53.7644568" lon="-3.0285998">
        <name>Leach Lane</name>
      </trkpt>
      <trkpt lat="53.7643810" lon="-3.0285670">
        <name>Leach Lane</name>
      </trkpt>
      <trkpt lat="53.7643070" lon="-3.0285350">
        <name>Leach Lane</name>
      </trkpt>
      <trkpt lat="53.7642295" lon="-3.0284850">
        <name>Leach Lane</name>
      </trkpt>
      <trkpt lat="53.7641520" lon="-3.0284350">
        <name>Leach Lane</name>
      </trkpt>
      <trkpt lat="53.7640745" lon="-3.0283850">
        <name>Leach Lane</name>
      </trkpt>
      <trkpt lat="53.7639970" lon="-3.0283350">
        <name>Leach Lane</name>
      </trkpt>
      <trkpt lat="53.7640124" lon="-3.0281887">
        <name>Leach Lane</name>
      </trkpt>
      <trkpt lat="53.7640278" lon="-3.0280424">
        <name>Leach Lane</name>
      </trkpt>
      <trkpt lat="53.7640431" lon="-3.0278961">
        <name>Leach Lane</name>
      </trkpt>
      <trkpt lat="53.7640585" lon="-3.0277497">
        <name>Leach Lane</name>
      </trkpt>
      <trkpt lat="53.7640739" lon="-3.0276034">
        <name>Leach Lane</name>
      </trkpt>
      <trkpt lat="53.7640893" lon="-3.0274571">
        <name>Leach Lane</name>
      </trkpt>
      <trkpt lat="53.7641046" lon="-3.0273108">
        <name>Leach Lane</name>
      </trkpt>
      <trkpt lat="53.7641200" lon="-3.0271645">
        <name>Leach Lane</name>
      </trkpt>
      <trkpt lat="53.7641354" lon="-3.0270182">
        <name>Leach Lane</name>
      </trkpt>
      <trkpt lat="53.7641507" lon="-3.0268719">
        <name>Leach Lane</name>
      </trkpt>
      <trkpt lat="53.7641661" lon="-3.0267256">
        <name>Leach Lane</name>
      </trkpt>
      <trkpt lat="53.7641815" lon="-3.0265793">
        <name>Leach Lane</name>
      </trkpt>
      <trkpt lat="53.7641969" lon="-3.0264329">
        <name>Leach Lane</name>
      </trkpt>
      <trkpt lat="53.7642122" lon="-3.0262866">
        <name>Leach Lane</name>
      </trkpt>
      <trkpt lat="53.7642276" lon="-3.0261403">
        <name>Leach Lane</name>
      </trkpt>
      <trkpt lat="53.7642430" lon="-3.0259940">
        <name>Leach Lane</name>
      </trkpt>
      <trkpt lat="53.7642583" lon="-3.0258479">
        <name>Leach Lane</name>
      </trkpt>
      <trkpt lat="53.7642736" lon="-3.0257018">
        <name>Leach Lane</name>
      </trkpt>
      <trkpt lat="53.7642889" lon="-3.0255557">
        <name>Leach Lane</name>
      </trkpt>
      <trkpt lat="53.7643042" lon="-3.0254096">
        <name>Leach Lane</name>
      </trkpt>
      <trkpt lat="53.7643195" lon="-3.0252635">
        <name>Leach Lane</name>
      </trkpt>
      <trkpt lat="53.7643348" lon="-3.0251174">
        <name>Leach Lane</name>
      </trkpt>
      <trkpt lat="53.7643501" lon="-3.0249713">
        <name>Leach Lane</name>
      </trkpt>
      <trkpt lat="53.7643654" lon="-3.0248252">
        <name>Leach Lane</name>
      </trkpt>
      <trkpt lat="53.7643807" lon="-3.0246791">
        <name>Leach Lane</name>
      </trkpt>
      <trkpt lat="53.7643960" lon="-3.0245330">
        <name>Leach Lane</name>
      </trkpt>
      <trkpt lat="53.7643160" lon="-3.0245097">
        <name>Clive Avenue</name>
      </trkpt>
      <trkpt lat="53.7642360" lon="-3.0244863">
        <name>Clive Avenue</name>
      </trkpt>
      <trkpt lat="53.7641560" lon="-3.0244630">
        <name>Clive Avenue</name>
      </trkpt>
      <trkpt lat="53.7640760" lon="-3.0244397">
        <name>Clive Avenue</name>
      </trkpt>
      <trkpt lat="53.7639960" lon="-3.0244163">
        <name>Clive Avenue</name>
      </trkpt>
      <trkpt lat="53.7639160" lon="-3.0243930">
        <name>Clive Avenue</name>
      </trkpt>
      <trkpt lat="53.7638360" lon="-3.0243697">
        <name>Clive Avenue</name>
      </trkpt>
      <trkpt lat="53.7637560" lon="-3.0243463">
        <name>Clive Avenue</name>
      </trkpt>
      <trkpt lat="53.7636760" lon="-3.0243230">
        <name>Clive Avenue</name>
      </trkpt>
      <trkpt lat="53.7636600" lon="-3.0244727">
        <name>Clive Avenue</name>
      </trkpt>
      <trkpt lat="53.7636440" lon="-3.0246223">
        <name>Clive Avenue</name>
      </trkpt>
      <trkpt lat="53.7636280" lon="-3.0247720">
        <name>Clive Avenue</name>
      </trkpt>
      <trkpt lat="53.7636120" lon="-3.0249217">
        <name>Clive Avenue</name>
      </trkpt>
      <trkpt lat="53.7635960" lon="-3.0250713">
        <name>Clive Avenue</name>
      </trkpt>
      <trkpt lat="53.7635800" lon="-3.0252210">
        <name>Clive Avenue</name>
      </trkpt>
      <trkpt lat="53.7635670" lon="-3.0253520">
        <name>Clive Avenue</name>
      </trkpt>
      <trkpt lat="53.7635540" lon="-3.0254830">
        <name>Clive Avenue</name>
      </trkpt>
      <trkpt lat="53.7635410" lon="-3.0256140">
        <name>Clive Avenue</name>
      </trkpt>
      <trkpt lat="53.7635280" lon="-3.0257446">
        <name>Clive Avenue</name>
      </trkpt>
      <trkpt lat="53.7635150" lon="-3.0258752">
        <name>Clive Avenue</name>
      </trkpt>
      <trkpt lat="53.7635020" lon="-3.0260058">
        <name>Clive Avenue</name>
      </trkpt>
      <trkpt lat="53.7634890" lon="-3.0261364">
        <name>Clive Avenue</name>
      </trkpt>
      <trkpt lat="53.7634760" lon="-3.0262670">
        <name>Clive Avenue</name>
      </trkpt>
      <trkpt lat="53.7634657" lon="-3.0264172">
        <name>Clive Avenue</name>
      </trkpt>
      <trkpt lat="53.7634555" lon="-3.0265675">
        <name>Clive Avenue</name>
      </trkpt>
      <trkpt lat="53.7634453" lon="-3.0267177">
        <name>Clive Avenue</name>
      </trkpt>
      <trkpt lat="53.7634350" lon="-3.0268680">
        <name>Clive Avenue</name>
      </trkpt>
      <trkpt lat="53.7634283" lon="-3.0270061">
        <name>Clive Avenue</name>
      </trkpt>
      <trkpt lat="53.7634217" lon="-3.0271442">
        <name>Clive Avenue</name>
      </trkpt>
      <trkpt lat="53.7634150" lon="-3.0272823">
        <name>Clive Avenue</name>
      </trkpt>
      <trkpt lat="53.7634083" lon="-3.0274204">
        <name>Clive Avenue</name>
      </trkpt>
      <trkpt lat="53.7634017" lon="-3.0275586">
        <name>Clive Avenue</name>
      </trkpt>
      <trkpt lat="53.7633950" lon="-3.0276967">
        <name>Clive Avenue</name>
      </trkpt>
      <trkpt lat="53.7633883" lon="-3.0278348">
        <name>Clive Avenue</name>
      </trkpt>
      <trkpt lat="53.7633817" lon="-3.0279729">
        <name>Clive Avenue</name>
      </trkpt>
      <trkpt lat="53.7633750" lon="-3.0281110">
        <name>Clive Avenue</name>
      </trkpt>
      <trkpt lat="53.7633637" lon="-3.0282577">
        <name>Clive Avenue</name>
      </trkpt>
      <trkpt lat="53.7633523" lon="-3.0284043">
        <name>Clive Avenue</name>
      </trkpt>
      <trkpt lat="53.7633410" lon="-3.0285510">
        <name>Clive Avenue</name>
      </trkpt>
      <trkpt lat="53.7633230" lon="-3.0286620">
        <name>Clive Avenue</name>
      </trkpt>
      <trkpt lat="53.7633050" lon="-3.0287730">
        <name>Clive Avenue</name>
      </trkpt>
      <trkpt lat="53.7632870" lon="-3.0288840">
        <name>Clive Avenue</name>
      </trkpt>
      <trkpt lat="53.7632690" lon="-3.0289950">
        <name>Clive Avenue</name>
      </trkpt>
      <trkpt lat="53.7632017" lon="-3.0289683">
        <name>Clive Avenue</name>
      </trkpt>
      <trkpt lat="53.7631343" lon="-3.0289417">
        <name>Clive Avenue</name>
      </trkpt>
      <trkpt lat="53.7630670" lon="-3.0289150">
        <name>Clive Avenue</name>
      </trkpt>
      <trkpt lat="53.7629993" lon="-3.0288960">
        <name>Clive Avenue</name>
      </trkpt>
      <trkpt lat="53.7629317" lon="-3.0288770">
        <name>Clive Avenue</name>
      </trkpt>
      <trkpt lat="53.7628640" lon="-3.0288580">
        <name>Clive Avenue</name>
      </trkpt>
      <trkpt lat="53.7627878" lon="-3.0288430">
        <name>Clive Avenue</name>
      </trkpt>
      <trkpt lat="53.7627115" lon="-3.0288280">
        <name>Clive Avenue</name>
      </trkpt>
      <trkpt lat="53.7626353" lon="-3.0288130">
        <name>Clive Avenue</name>
      </trkpt>
      <trkpt lat="53.7625590" lon="-3.0287980">
        <name>Clive Avenue</name>
      </trkpt>
      <trkpt lat="53.7625637" lon="-3.0286785">
        <name>Clive Avenue</name>
      </trkpt>
      <trkpt lat="53.7625685" lon="-3.0285590">
        <name>Clive Avenue</name>
      </trkpt>
      <trkpt lat="53.7625733" lon="-3.0284395">
        <name>Clive Avenue</name>
      </trkpt>
      <trkpt lat="53.7625780" lon="-3.0283200">
        <name>Clive Avenue</name>
      </trkpt>
      <trkpt lat="53.7625823" lon="-3.0282140">
        <name>Clive Avenue</name>
      </trkpt>
      <trkpt lat="53.7625867" lon="-3.0281080">
        <name>Clive Avenue</name>
      </trkpt>
      <trkpt lat="53.7625910" lon="-3.0280020">
        <name>Clive Avenue</name>
      </trkpt>
      <trkpt lat="53.7625965" lon="-3.0278526">
        <name>Marlborough Road</name>
      </trkpt>
      <trkpt lat="53.7626019" lon="-3.0277032">
        <name>Marlborough Road</name>
      </trkpt>
      <trkpt lat="53.7626074" lon="-3.0275537">
        <name>Marlborough Road</name>
      </trkpt>
      <trkpt lat="53.7626128" lon="-3.0274043">
        <name>Marlborough Road</name>
      </trkpt>
      <trkpt lat="53.7626183" lon="-3.0272549">
        <name>Marlborough Road</name>
      </trkpt>
      <trkpt lat="53.7626238" lon="-3.0271055">
        <name>Marlborough Road</name>
      </trkpt>
      <trkpt lat="53.7626292" lon="-3.0269560">
        <name>Marlborough Road</name>
      </trkpt>
      <trkpt lat="53.7626347" lon="-3.0268066">
        <name>Marlborough Road</name>
      </trkpt>
      <trkpt lat="53.7626402" lon="-3.0266572">
        <name>Marlborough Road</name>
      </trkpt>
      <trkpt lat="53.7626456" lon="-3.0265078">
        <name>Marlborough Road</name>
      </trkpt>
      <trkpt lat="53.7626511" lon="-3.0263583">
        <name>Marlborough Road</name>
      </trkpt>
      <trkpt lat="53.7626565" lon="-3.0262089">
        <name>Marlborough Road</name>
      </trkpt>
      <trkpt lat="53.7626620" lon="-3.0260595">
        <name>Marlborough Road</name>
      </trkpt>
      <trkpt lat="53.7626675" lon="-3.0259101">
        <name>Marlborough Road</name>
      </trkpt>
      <trkpt lat="53.7626729" lon="-3.0257607">
        <name>Marlborough Road</name>
      </trkpt>
      <trkpt lat="53.7626784" lon="-3.0256112">
        <name>Marlborough Road</name>
      </trkpt>
      <trkpt lat="53.7626838" lon="-3.0254618">
        <name>Marlborough Road</name>
      </trkpt>
      <trkpt lat="53.7626893" lon="-3.0253124">
        <name>Marlborough Road</name>
      </trkpt>
      <trkpt lat="53.7626948" lon="-3.0251630">
        <name>Marlborough Road</name>
      </trkpt>
      <trkpt lat="53.7627002" lon="-3.0250135">
        <name>Marlborough Road</name>
      </trkpt>
      <trkpt lat="53.7627057" lon="-3.0248641">
        <name>Marlborough Road</name>
      </trkpt>
      <trkpt lat="53.7627112" lon="-3.0247147">
        <name>Marlborough Road</name>
      </trkpt>
      <trkpt lat="53.7627166" lon="-3.0245653">
        <name>Marlborough Road</name>
      </trkpt>
      <trkpt lat="53.7627221" lon="-3.0244158">
        <name>Marlborough Road</name>
      </trkpt>
      <trkpt lat="53.7627275" lon="-3.0242664">
        <name>Marlborough Road</name>
      </trkpt>
      <trkpt lat="53.7627330" lon="-3.0241170">
        <name>Marlborough Road</name>
      </trkpt>
      <trkpt lat="53.7628220" lon="-3.0241170">
        <name>Marlborough Road</name>
      </trkpt>
      <trkpt lat="53.7628685" lon="-3.0241170">
        <name>Marlborough Road</name>
      </trkpt>
      <trkpt lat="53.7629150" lon="-3.0241170">
        <name>Marlborough Road</name>
      </trkpt>
      <trkpt lat="53.7629350" lon="-3.0240345">
        <name>Marlborough Road</name>
      </trkpt>
      <trkpt lat="53.7629550" lon="-3.0239520">
        <name>Marlborough Road</name>
      </trkpt>
      <trkpt lat="53.7629900" lon="-3.0238392">
        <name>Marlborough Road</name>
      </trkpt>
      <trkpt lat="53.7630250" lon="-3.0237264">
        <name>Marlborough Road</name>
      </trkpt>
      <trkpt lat="53.7630600" lon="-3.0236136">
        <name>Marlborough Road</name>
      </trkpt>
      <trkpt lat="53.7630950" lon="-3.0235008">
        <name>Marlborough Road</name>
      </trkpt>
      <trkpt lat="53.7631300" lon="-3.0233880">
        <name>Marlborough Road</name>
      </trkpt>
      <trkpt lat="53.7631708" lon="-3.0232560">
        <name>Marlborough Road</name>
      </trkpt>
      <trkpt lat="53.7632117" lon="-3.0231240">
        <name>Marlborough Road</name>
      </trkpt>
      <trkpt lat="53.7632525" lon="-3.0229920">
        <name>Marlborough Road</name>
      </trkpt>
      <trkpt lat="53.7632933" lon="-3.0228600">
        <name>Marlborough Road</name>
      </trkpt>
      <trkpt lat="53.7633342" lon="-3.0227280">
        <name>Marlborough Road</name>
      </trkpt>
      <trkpt lat="53.7633750" lon="-3.0225960">
        <name>Marlborough Road</name>
      </trkpt>
      <trkpt lat="53.7634490" lon="-3.0226636">
        <name>Marlborough Road</name>
      </trkpt>
      <trkpt lat="53.7635230" lon="-3.0227312">
        <name>Marlborough Road</name>
      </trkpt>
      <trkpt lat="53.7635970" lon="-3.0227988">
        <name>Marlborough Road</name>
      </trkpt>
      <trkpt lat="53.7636710" lon="-3.0228664">
        <name>Marlborough Road</name>
      </trkpt>
      <trkpt lat="53.7637450" lon="-3.0229340">
        <name>Marlborough Road</name>
      </trkpt>
      <trkpt lat="53.7638194" lon="-3.0229492">
        <name>Chatham Avenue</name>
      </trkpt>
      <trkpt lat="53.7638938" lon="-3.0229644">
        <name>Chatham Avenue</name>
      </trkpt>
      <trkpt lat="53.7639682" lon="-3.0229796">
        <name>Chatham Avenue</name>
      </trkpt>
      <trkpt lat="53.7640426" lon="-3.0229948">
        <name>Chatham Avenue</name>
      </trkpt>
      <trkpt lat="53.7641170" lon="-3.0230100">
        <name>Chatham Avenue</name>
      </trkpt>
      <trkpt lat="53.7642023" lon="-3.0230277">
        <name>Chatham Avenue</name>
      </trkpt>
      <trkpt lat="53.7642877" lon="-3.0230453">
        <name>Chatham Avenue</name>
      </trkpt>
      <trkpt lat="53.7643730" lon="-3.0230630">
        <name>Chatham Avenue</name>
      </trkpt>
      <trkpt lat="53.7644583" lon="-3.0230807">
        <name>Chatham Avenue</name>
      </trkpt>
      <trkpt lat="53.7645437" lon="-3.0230983">
        <name>Chatham Avenue</name>
      </trkpt>
      <trkpt lat="53.7646290" lon="-3.0231160">
        <name>Chatham Avenue</name>
      </trkpt>
      <trkpt lat="53.7646993" lon="-3.0231400">
        <name>Chatham Avenue</name>
      </trkpt>
      <trkpt lat="53.7647697" lon="-3.0231640">
        <name>Chatham Avenue</name>
      </trkpt>
      <trkpt lat="53.7648400" lon="-3.0231880">
        <name>Chatham Avenue</name>
      </trkpt>
      <trkpt lat="53.7648910" lon="-3.0232150">
        <name>Chatham Avenue</name>
      </trkpt>
      <trkpt lat="53.7649420" lon="-3.0232420">
        <name>Chatham Avenue</name>
      </trkpt>
      <trkpt lat="53.7650180" lon="-3.0232820">
        <name>Chatham Avenue</name>
      </trkpt>
      <trkpt lat="53.7650940" lon="-3.0233220">
        <name>Chatham Avenue</name>
      </trkpt>
      <trkpt lat="53.7651723" lon="-3.0233631">
        <name>Chatham Avenue</name>
      </trkpt>
      <trkpt lat="53.7652506" lon="-3.0234043">
        <name>Chatham Avenue</name>
      </trkpt>
      <trkpt lat="53.7653289" lon="-3.0234454">
        <name>Chatham Avenue</name>
      </trkpt>
      <trkpt lat="53.7654071" lon="-3.0234866">
        <name>Chatham Avenue</name>
      </trkpt>
      <trkpt lat="53.7654854" lon="-3.0235277">
        <name>Chatham Avenue</name>
      </trkpt>
      <trkpt lat="53.7655637" lon="-3.0235689">
        <name>Chatham Avenue</name>
      </trkpt>
      <trkpt lat="53.7656420" lon="-3.0236100">
        <name>Chatham Avenue</name>
      </trkpt>
      <trkpt lat="53.7656930" lon="-3.0234860">
        <name>Leach Lane</name>
      </trkpt>
      <trkpt lat="53.7657684" lon="-3.0234132">
        <name>Leach Lane</name>
      </trkpt>
      <trkpt lat="53.7658438" lon="-3.0233404">
        <name>Leach Lane</name>
      </trkpt>
      <trkpt lat="53.7659192" lon="-3.0232676">
        <name>Leach Lane</name>
      </trkpt>
      <trkpt lat="53.7659946" lon="-3.0231948">
        <name>Leach Lane</name>
      </trkpt>
      <trkpt lat="53.7660700" lon="-3.0231220">
        <name>Leach Lane</name>
      </trkpt>
      <trkpt lat="53.7661412" lon="-3.0230531">
        <name>Grenville Avenue</name>
      </trkpt>
      <trkpt lat="53.7662124" lon="-3.0229842">
        <name>Grenville Avenue</name>
      </trkpt>
      <trkpt lat="53.7662837" lon="-3.0229153">
        <name>Grenville Avenue</name>
      </trkpt>
      <trkpt lat="53.7663549" lon="-3.0228464">
        <name>Grenville Avenue</name>
      </trkpt>
      <trkpt lat="53.7664261" lon="-3.0227776">
        <name>Grenville Avenue</name>
      </trkpt>
      <trkpt lat="53.7664973" lon="-3.0227087">
        <name>Grenville Avenue</name>
      </trkpt>
      <trkpt lat="53.7665686" lon="-3.0226398">
        <name>Grenville Avenue</name>
      </trkpt>
      <trkpt lat="53.7666398" lon="-3.0225709">
        <name>Grenville Avenue</name>
      </trkpt>
      <trkpt lat="53.7667110" lon="-3.0225020">
        <name>Grenville Avenue</name>
      </trkpt>
      <trkpt lat="53.7666667" lon="-3.0223788">
        <name>Grenville Avenue</name>
      </trkpt>
      <trkpt lat="53.7666223" lon="-3.0222557">
        <name>Grenville Avenue</name>
      </trkpt>
      <trkpt lat="53.7665780" lon="-3.0221325">
        <name>Grenville Avenue</name>
      </trkpt>
      <trkpt lat="53.7665337" lon="-3.0220093">
        <name>Grenville Avenue</name>
      </trkpt>
      <trkpt lat="53.7664893" lon="-3.0218862">
        <name>Grenville Avenue</name>
      </trkpt>
      <trkpt lat="53.7664450" lon="-3.0217630">
        <name>Grenville Avenue</name>
      </trkpt>
      <trkpt lat="53.7664013" lon="-3.0216416">
        <name>Grenville Avenue</name>
      </trkpt>
      <trkpt lat="53.7663576" lon="-3.0215201">
        <name>Grenville Avenue</name>
      </trkpt>
      <trkpt lat="53.7663139" lon="-3.0213987">
        <name>Grenville Avenue</name>
      </trkpt>
      <trkpt lat="53.7662701" lon="-3.0212773">
        <name>Grenville Avenue</name>
      </trkpt>
      <trkpt lat="53.7662264" lon="-3.0211559">
        <name>Grenville Avenue</name>
      </trkpt>
      <trkpt lat="53.7661827" lon="-3.0210344">
        <name>Grenville Avenue</name>
      </trkpt>
      <trkpt lat="53.7661390" lon="-3.0209130">
        <name>Grenville Avenue</name>
      </trkpt>
      <trkpt lat="53.7662136" lon="-3.0208372">
        <name>Grenville Avenue</name>
      </trkpt>
      <trkpt lat="53.7662882" lon="-3.0207614">
        <name>Grenville Avenue</name>
      </trkpt>
      <trkpt lat="53.7663628" lon="-3.0206856">
        <name>Grenville Avenue</name>
      </trkpt>
      <trkpt lat="53.7664374" lon="-3.0206098">
        <name>Grenville Avenue</name>
      </trkpt>
      <trkpt lat="53.7665120" lon="-3.0205340">
        <name>Grenville Avenue</name>
      </trkpt>
      <trkpt lat="53.7665866" lon="-3.0204582">
        <name>Grenville Avenue</name>
      </trkpt>
      <trkpt lat="53.7666612" lon="-3.0203824">
        <name>Grenville Avenue</name>
      </trkpt>
      <trkpt lat="53.7667358" lon="-3.0203066">
        <name>Grenville Avenue</name>
      </trkpt>
      <trkpt lat="53.7668104" lon="-3.0202308">
        <name>Grenville Avenue</name>
      </trkpt>
      <trkpt lat="53.7668850" lon="-3.0201550">
        <name>Grenville Avenue</name>
      </trkpt>
      <trkpt lat="53.7669299" lon="-3.0202833">
        <name>Grenville Avenue</name>
      </trkpt>
      <trkpt lat="53.7669747" lon="-3.0204116">
        <name>Grenville Avenue</name>
      </trkpt>
      <trkpt lat="53.7670196" lon="-3.0205399">
        <name>Grenville Avenue</name>
      </trkpt>
      <trkpt lat="53.7670644" lon="-3.0206681">
        <name>Grenville Avenue</name>
      </trkpt>
      <trkpt lat="53.7671093" lon="-3.0207964">
        <name>Grenville Avenue</name>
      </trkpt>
      <trkpt lat="53.7671541" lon="-3.0209247">
        <name>Grenville Avenue</name>
      </trkpt>
      <trkpt lat="53.7671990" lon="-3.0210530">
        <name>Grenville Avenue</name>
      </trkpt>
      <trkpt lat="53.7672403" lon="-3.0211710">
        <name>Grenville Avenue</name>
      </trkpt>
      <trkpt lat="53.7672817" lon="-3.0212890">
        <name>Grenville Avenue</name>
      </trkpt>
      <trkpt lat="53.7673230" lon="-3.0214070">
        <name>Grenville Avenue</name>
      </trkpt>
      <trkpt lat="53.7673868" lon="-3.0213437">
        <name>Grenville Avenue</name>
      </trkpt>
      <trkpt lat="53.7674505" lon="-3.0212805">
        <name>Grenville Avenue</name>
      </trkpt>
      <trkpt lat="53.7675142" lon="-3.0212173">
        <name>Grenville Avenue</name>
      </trkpt>
      <trkpt lat="53.7675780" lon="-3.0211540">
        <name>Grenville Avenue</name>
      </trkpt>
      <trkpt lat="53.7676430" lon="-3.0210590">
        <name>Grenville Avenue</name>
      </trkpt>
      <trkpt lat="53.7677080" lon="-3.0209640">
        <name>Grenville Avenue</name>
      </trkpt>
      <trkpt lat="53.7677730" lon="-3.0208690">
        <name>Grenville Avenue</name>
      </trkpt>
      <trkpt lat="53.7678143" lon="-3.0207597">
        <name>Grenville Avenue</name>
      </trkpt>
      <trkpt lat="53.7678557" lon="-3.0206503">
        <name>Grenville Avenue</name>
      </trkpt>
      <trkpt lat="53.7678970" lon="-3.0205410">
        <name>Grenville Avenue</name>
      </trkpt>
      <trkpt lat="53.7679220" lon="-3.0204433">
        <name>Grenville Avenue</name>
      </trkpt>
      <trkpt lat="53.7679470" lon="-3.0203457">
        <name>Grenville Avenue</name>
      </trkpt>
      <trkpt lat="53.7679720" lon="-3.0202480">
        <name>Grenville Avenue</name>
      </trkpt>
      <trkpt lat="53.7679900" lon="-3.0201310">
        <name>Grenville Avenue</name>
      </trkpt>
      <trkpt lat="53.7680080" lon="-3.0200140">
        <name>Grenville Avenue</name>
      </trkpt>
      <trkpt lat="53.7680260" lon="-3.0198970">
        <name>Grenville Avenue</name>
      </trkpt>
      <trkpt lat="53.7680263" lon="-3.0197680">
        <name>Grasmere Road</name>
      </trkpt>
      <trkpt lat="53.7680267" lon="-3.0196390">
        <name>Grasmere Road</name>
      </trkpt>
      <trkpt lat="53.7680270" lon="-3.0195100">
        <name>Grasmere Road</name>
      </trkpt>
      <trkpt lat="53.7680040" lon="-3.0194125">
        <name>Grasmere Road</name>
      </trkpt>
      <trkpt lat="53.7679810" lon="-3.0193150">
        <name>Grasmere Road</name>
      </trkpt>
      <trkpt lat="53.7679460" lon="-3.0192220">
        <name>Grasmere Road</name>
      </trkpt>
      <trkpt lat="53.7679110" lon="-3.0191290">
        <name>Grasmere Road</name>
      </trkpt>
      <trkpt lat="53.7678723" lon="-3.0190086">
        <name>Grasmere Road</name>
      </trkpt>
      <trkpt lat="53.7678336" lon="-3.0188882">
        <name>Grasmere Road</name>
      </trkpt>
      <trkpt lat="53.7677949" lon="-3.0187678">
        <name>Grasmere Road</name>
      </trkpt>
      <trkpt lat="53.7677562" lon="-3.0186474">
        <name>Grasmere Road</name>
      </trkpt>
      <trkpt lat="53.7677175" lon="-3.0185270">
        <name>Grasmere Road</name>
      </trkpt>
      <trkpt lat="53.7676788" lon="-3.0184066">
        <name>Grasmere Road</name>
      </trkpt>
      <trkpt lat="53.7676401" lon="-3.0182862">
        <name>Grasmere Road</name>
      </trkpt>
      <trkpt lat="53.7676014" lon="-3.0181658">
        <name>Grasmere Road</name>
      </trkpt>
      <trkpt lat="53.7675627" lon="-3.0180454">
        <name>Grasmere Road</name>
      </trkpt>
      <trkpt lat="53.7675240" lon="-3.0179250">
        <name>Grasmere Road</name>
      </trkpt>
      <trkpt lat="53.7675265" lon="-3.0178320">
        <name>Highbury Road East</name>
      </trkpt>
      <trkpt lat="53.7675290" lon="-3.0177390">
        <name>Highbury Road East</name>
      </trkpt>
      <trkpt lat="53.7675597" lon="-3.0176030">
        <name>Highbury Road East</name>
      </trkpt>
      <trkpt lat="53.7675903" lon="-3.0174670">
        <name>Highbury Road East</name>
      </trkpt>
      <trkpt lat="53.7676210" lon="-3.0173310">
        <name>Highbury Road East</name>
      </trkpt>
      <trkpt lat="53.7676540" lon="-3.0172024">
        <name>Highbury Road East</name>
      </trkpt>
      <trkpt lat="53.7676870" lon="-3.0170738">
        <name>Highbury Road East</name>
      </trkpt>
      <trkpt lat="53.7677200" lon="-3.0169452">
        <name>Highbury Road East</name>
      </trkpt>
      <trkpt lat="53.7677530" lon="-3.0168166">
        <name>Highbury Road East</name>
      </trkpt>
      <trkpt lat="53.7677860" lon="-3.0166880">
        <name>Highbury Road East</name>
      </trkpt>
      <trkpt lat="53.7678195" lon="-3.0165567">
        <name>Highbury Road East</name>
      </trkpt>
      <trkpt lat="53.7678530" lon="-3.0164255">
        <name>Highbury Road East</name>
      </trkpt>
      <trkpt lat="53.7678865" lon="-3.0162943">
        <name>Highbury Road East</name>
      </trkpt>
      <trkpt lat="53.7679200" lon="-3.0161630">
        <name>Highbury Road East</name>
      </trkpt>
      <trkpt lat="53.7679510" lon="-3.0160220">
        <name>Highbury Road East</name>
      </trkpt>
      <trkpt lat="53.7679680" lon="-3.0159390">
        <name>Highbury Road East</name>
      </trkpt>
      <trkpt lat="53.7678888" lon="-3.0158778">
        <name>Highbury Road East</name>
      </trkpt>
      <trkpt lat="53.7678095" lon="-3.0158165">
        <name>Highbury Road East</name>
      </trkpt>
      <trkpt lat="53.7677302" lon="-3.0157552">
        <name>Highbury Road East</name>
      </trkpt>
      <trkpt lat="53.7676510" lon="-3.0156940">
        <name>Highbury Road East</name>
      </trkpt>
      <trkpt lat="53.7675718" lon="-3.0156327">
        <name>Highbury Road East</name>
      </trkpt>
      <trkpt lat="53.7674925" lon="-3.0155715">
        <name>Highbury Road East</name>
      </trkpt>
      <trkpt lat="53.7674133" lon="-3.0155103">
        <name>Highbury Road East</name>
      </trkpt>
      <trkpt lat="53.7673340" lon="-3.0154490">
        <name>Highbury Road East</name>
      </trkpt>
      <trkpt lat="53.7672547" lon="-3.0153877">
        <name>Highbury Road East</name>
      </trkpt>
      <trkpt lat="53.7671755" lon="-3.0153265">
        <name>Highbury Road East</name>
      </trkpt>
      <trkpt lat="53.7670963" lon="-3.0152653">
        <name>Highbury Road East</name>
      </trkpt>
      <trkpt lat="53.7670170" lon="-3.0152040">
        <name>Highbury Road East</name>
      </trkpt>
      <trkpt lat="53.7669378" lon="-3.0151428">
        <name>Highbury Road East</name>
      </trkpt>
      <trkpt lat="53.7668585" lon="-3.0150815">
        <name>Highbury Road East</name>
      </trkpt>
      <trkpt lat="53.7667792" lon="-3.0150203">
        <name>Highbury Road East</name>
      </trkpt>
      <trkpt lat="53.7667000" lon="-3.0149590">
        <name>Highbury Road East</name>
      </trkpt>
      <trkpt lat="53.7666320" lon="-3.0149065">
        <name>Headroomgate Road</name>
      </trkpt>
      <trkpt lat="53.7665640" lon="-3.0148540">
        <name>Headroomgate Road</name>
      </trkpt>
      <trkpt lat="53.7664960" lon="-3.0148015">
        <name>Headroomgate Road</name>
      </trkpt>
      <trkpt lat="53.7664280" lon="-3.0147490">
        <name>Headroomgate Road</name>
      </trkpt>
      <trkpt lat="53.7664060" lon="-3.0147590">
        <name>Headroomgate Road</name>
      </trkpt>
      <trkpt lat="53.7663870" lon="-3.0147690">
        <name>Headroomgate Road</name>
      </trkpt>
      <trkpt lat="53.7663564" lon="-3.0148889">
        <name>Kilnhouse Lane</name>
      </trkpt>
      <trkpt lat="53.7663259" lon="-3.0150087">
        <name>Kilnhouse Lane</name>
      </trkpt>
      <trkpt lat="53.7662953" lon="-3.0151286">
        <name>Kilnhouse Lane</name>
      </trkpt>
      <trkpt lat="53.7662647" lon="-3.0152484">
        <name>Kilnhouse Lane</name>
      </trkpt>
      <trkpt lat="53.7662341" lon="-3.0153683">
        <name>Kilnhouse Lane</name>
      </trkpt>
      <trkpt lat="53.7662036" lon="-3.0154881">
        <name>Kilnhouse Lane</name>
      </trkpt>
      <trkpt lat="53.7661730" lon="-3.0156080">
        <name>Kilnhouse Lane</name>
      </trkpt>
    </trkseg>
  </trk>
</gpx>