<?xml version="1.0" encoding="UTF-8"?>
<gpx version="1.1" creator="TurboSanta Route Planner">
  <trk>
    <name>TurboSanta Route (10m density)</name>
    <trkseg>
      <trkpt lat="53.7608160" lon="-3.0275680">
        <name>St Leonard's Road East</name>
      </trkpt>
      <trkpt lat="53.7608217" lon="-3.0274248">
        <name>St Leonard's Road East</name>
      </trkpt>
      <trkpt lat="53.7608273" lon="-3.0272816">
        <name>St Leonard's Road East</name>
      </trkpt>
      <trkpt lat="53.7608330" lon="-3.0271384">
        <name>St Leonard's Road East</name>
      </trkpt>
      <trkpt lat="53.7608387" lon="-3.0269952">
        <name>St Leonard's Road East</name>
      </trkpt>
      <trkpt lat="53.7608443" lon="-3.0268520">
        <name>St Leonard's Road East</name>
      </trkpt>
      <trkpt lat="53.7608500" lon="-3.0267088">
        <name>St Leonard's Road East</name>
      </trkpt>
      <trkpt lat="53.7608557" lon="-3.0265656">
        <name>St Leonard's Road East</name>
      </trkpt>
      <trkpt lat="53.7608613" lon="-3.0264224">
        <name>St Leonard's Road East</name>
      </trkpt>
      <trkpt lat="53.7608670" lon="-3.0262792">
        <name>St Leonard's Road East</name>
      </trkpt>
      <trkpt lat="53.7608727" lon="-3.0261360">
        <name>St Leonard's Road East</name>
      </trkpt>
      <trkpt lat="53.7608783" lon="-3.0259928">
        <name>St Leonard's Road East</name>
      </trkpt>
      <trkpt lat="53.7608840" lon="-3.0258496">
        <name>St Leonard's Road East</name>
      </trkpt>
      <trkpt lat="53.7608897" lon="-3.0257064">
        <name>St Leonard's Road East</name>
      </trkpt>
      <trkpt lat="53.7608953" lon="-3.0255632">
        <name>St Leonard's Road East</name>
      </trkpt>
      <trkpt lat="53.7609010" lon="-3.0254200">
        <name>St Leonard's Road East</name>
      </trkpt>
      <trkpt lat="53.7608130" lon="-3.0254002">
        <name>Dorset Road</name>
      </trkpt>
      <trkpt lat="53.7607250" lon="-3.0253804">
        <name>Dorset Road</name>
      </trkpt>
      <trkpt lat="53.7606370" lon="-3.0253607">
        <name>Dorset Road</name>
      </trkpt>
      <trkpt lat="53.7605490" lon="-3.0253409">
        <name>Dorset Road</name>
      </trkpt>
      <trkpt lat="53.7604610" lon="-3.0253211">
        <name>Dorset Road</name>
      </trkpt>
      <trkpt lat="53.7603730" lon="-3.0253013">
        <name>Dorset Road</name>
      </trkpt>
      <trkpt lat="53.7602850" lon="-3.0252816">
        <name>Dorset Road</name>
      </trkpt>
      <trkpt lat="53.7601970" lon="-3.0252618">
        <name>Dorset Road</name>
      </trkpt>
      <trkpt lat="53.7601090" lon="-3.0252420">
        <name>Dorset Road</name>
      </trkpt>
      <trkpt lat="53.7600555" lon="-3.0252300">
        <name>Dorset Road</name>
      </trkpt>
      <trkpt lat="53.7600020" lon="-3.0252180">
        <name>Dorset Road</name>
      </trkpt>
      <trkpt lat="53.7599966" lon="-3.0253608">
        <name>Dorset Road</name>
      </trkpt>
      <trkpt lat="53.7599912" lon="-3.0255036">
        <name>Dorset Road</name>
      </trkpt>
      <trkpt lat="53.7599858" lon="-3.0256464">
        <name>Dorset Road</name>
      </trkpt>
      <trkpt lat="53.7599804" lon="-3.0257892">
        <name>Dorset Road</name>
      </trkpt>
      <trkpt lat="53.7599750" lon="-3.0259320">
        <name>Dorset Road</name>
      </trkpt>
      <trkpt lat="53.7599696" lon="-3.0260748">
        <name>Dorset Road</name>
      </trkpt>
      <trkpt lat="53.7599642" lon="-3.0262176">
        <name>Dorset Road</name>
      </trkpt>
      <trkpt lat="53.7599588" lon="-3.0263604">
        <name>Dorset Road</name>
      </trkpt>
      <trkpt lat="53.7599534" lon="-3.0265032">
        <name>Dorset Road</name>
      </trkpt>
      <trkpt lat="53.7599480" lon="-3.0266460">
        <name>Dorset Road</name>
      </trkpt>
      <trkpt lat="53.7599426" lon="-3.0267888">
        <name>Dorset Road</name>
      </trkpt>
      <trkpt lat="53.7599372" lon="-3.0269316">
        <name>Dorset Road</name>
      </trkpt>
      <trkpt lat="53.7599318" lon="-3.0270744">
        <name>Dorset Road</name>
      </trkpt>
      <trkpt lat="53.7599264" lon="-3.0272172">
        <name>Dorset Road</name>
      </trkpt>
      <trkpt lat="53.7599210" lon="-3.0273600">
        <name>Dorset Road</name>
      </trkpt>
      <trkpt lat="53.7598320" lon="-3.0273470">
        <name>Dorset Road</name>
      </trkpt>
      <trkpt lat="53.7597510" lon="-3.0274080">
        <name>Dorset Road</name>
      </trkpt>
      <trkpt lat="53.7597020" lon="-3.0275065">
        <name>Dorset Road</name>
      </trkpt>
      <trkpt lat="53.7596530" lon="-3.0276050">
        <name>Dorset Road</name>
      </trkpt>
      <trkpt lat="53.7596040" lon="-3.0277035">
        <name>Dorset Road</name>
      </trkpt>
      <trkpt lat="53.7595550" lon="-3.0278020">
        <name>Dorset Road</name>
      </trkpt>
      <trkpt lat="53.7595015" lon="-3.0279105">
        <name>Gretdale Avenue</name>
      </trkpt>
      <trkpt lat="53.7594480" lon="-3.0280190">
        <name>Gretdale Avenue</name>
      </trkpt>
      <trkpt lat="53.7594520" lon="-3.0281170">
        <name>Gretdale Avenue</name>
      </trkpt>
      <trkpt lat="53.7594790" lon="-3.0281780">
        <name>Gretdale Avenue</name>
      </trkpt>
      <trkpt lat="53.7595390" lon="-3.0282607">
        <name>Gretdale Avenue</name>
      </trkpt>
      <trkpt lat="53.7595990" lon="-3.0283434">
        <name>Gretdale Avenue</name>
      </trkpt>
      <trkpt lat="53.7596590" lon="-3.0284261">
        <name>Gretdale Avenue</name>
      </trkpt>
      <trkpt lat="53.7597190" lon="-3.0285089">
        <name>Gretdale Avenue</name>
      </trkpt>
      <trkpt lat="53.7597790" lon="-3.0285916">
        <name>Gretdale Avenue</name>
      </trkpt>
      <trkpt lat="53.7598390" lon="-3.0286743">
        <name>Gretdale Avenue</name>
      </trkpt>
      <trkpt lat="53.7598990" lon="-3.0287570">
        <name>Gretdale Avenue</name>
      </trkpt>
      <trkpt lat="53.7599320" lon="-3.0288680">
        <name>Gretdale Avenue</name>
      </trkpt>
      <trkpt lat="53.7599120" lon="-3.0289770">
        <name>Gretdale Avenue</name>
      </trkpt>
      <trkpt lat="53.7598590" lon="-3.0290834">
        <name>Gretdale Avenue</name>
      </trkpt>
      <trkpt lat="53.7598060" lon="-3.0291899">
        <name>Gretdale Avenue</name>
      </trkpt>
      <trkpt lat="53.7597530" lon="-3.0292963">
        <name>Gretdale Avenue</name>
      </trkpt>
      <trkpt lat="53.7597000" lon="-3.0294027">
        <name>Gretdale Avenue</name>
      </trkpt>
      <trkpt lat="53.7596470" lon="-3.0295091">
        <name>Gretdale Avenue</name>
      </trkpt>
      <trkpt lat="53.7595940" lon="-3.0296156">
        <name>Gretdale Avenue</name>
      </trkpt>
      <trkpt lat="53.7595410" lon="-3.0297220">
        <name>Gretdale Avenue</name>
      </trkpt>
      <trkpt lat="53.7594806" lon="-3.0296340">
        <name>Gretdale Avenue</name>
      </trkpt>
      <trkpt lat="53.7594201" lon="-3.0295460">
        <name>Gretdale Avenue</name>
      </trkpt>
      <trkpt lat="53.7593597" lon="-3.0294580">
        <name>Gretdale Avenue</name>
      </trkpt>
      <trkpt lat="53.7592993" lon="-3.0293700">
        <name>Gretdale Avenue</name>
      </trkpt>
      <trkpt lat="53.7592389" lon="-3.0292820">
        <name>Gretdale Avenue</name>
      </trkpt>
      <trkpt lat="53.7591784" lon="-3.0291940">
        <name>Gretdale Avenue</name>
      </trkpt>
      <trkpt lat="53.7591180" lon="-3.0291060">
        <name>Gretdale Avenue</name>
      </trkpt>
      <trkpt lat="53.7590558" lon="-3.0290154">
        <name>Gretdale Avenue</name>
      </trkpt>
      <trkpt lat="53.7589936" lon="-3.0289248">
        <name>Gretdale Avenue</name>
      </trkpt>
      <trkpt lat="53.7589314" lon="-3.0288342">
        <name>Gretdale Avenue</name>
      </trkpt>
      <trkpt lat="53.7588692" lon="-3.0287436">
        <name>Gretdale Avenue</name>
      </trkpt>
      <trkpt lat="53.7588070" lon="-3.0286530">
        <name>Gretdale Avenue</name>
      </trkpt>
      <trkpt lat="53.7587448" lon="-3.0285624">
        <name>Gretdale Avenue</name>
      </trkpt>
      <trkpt lat="53.7586826" lon="-3.0284718">
        <name>Gretdale Avenue</name>
      </trkpt>
      <trkpt lat="53.7586204" lon="-3.0283812">
        <name>Gretdale Avenue</name>
      </trkpt>
      <trkpt lat="53.7585582" lon="-3.0282906">
        <name>Gretdale Avenue</name>
      </trkpt>
      <trkpt lat="53.7584960" lon="-3.0282000">
        <name>Gretdale Avenue</name>
      </trkpt>
      <trkpt lat="53.7585520" lon="-3.0280902">
        <name>Gretdale Avenue</name>
      </trkpt>
      <trkpt lat="53.7586080" lon="-3.0279804">
        <name>Gretdale Avenue</name>
      </trkpt>
      <trkpt lat="53.7586640" lon="-3.0278707">
        <name>Gretdale Avenue</name>
      </trkpt>
      <trkpt lat="53.7587200" lon="-3.0277609">
        <name>Gretdale Avenue</name>
      </trkpt>
      <trkpt lat="53.7587760" lon="-3.0276511">
        <name>Gretdale Avenue</name>
      </trkpt>
      <trkpt lat="53.7588320" lon="-3.0275413">
        <name>Gretdale Avenue</name>
      </trkpt>
      <trkpt lat="53.7588880" lon="-3.0274316">
        <name>Gretdale Avenue</name>
      </trkpt>
      <trkpt lat="53.7589440" lon="-3.0273218">
        <name>Gretdale Avenue</name>
      </trkpt>
      <trkpt lat="53.7590000" lon="-3.0272120">
        <name>Gretdale Avenue</name>
      </trkpt>
      <trkpt lat="53.7590370" lon="-3.0271010">
        <name>Gretdale Avenue</name>
      </trkpt>
      <trkpt lat="53.7590530" lon="-3.0269940">
        <name>Gretdale Avenue</name>
      </trkpt>
      <trkpt lat="53.7590578" lon="-3.0268430">
        <name>Gretdale Avenue</name>
      </trkpt>
      <trkpt lat="53.7590625" lon="-3.0266920">
        <name>Gretdale Avenue</name>
      </trkpt>
      <trkpt lat="53.7590673" lon="-3.0265410">
        <name>Gretdale Avenue</name>
      </trkpt>
      <trkpt lat="53.7590720" lon="-3.0263900">
        <name>Gretdale Avenue</name>
      </trkpt>
      <trkpt lat="53.7590760" lon="-3.0262670">
        <name>Gretdale Avenue</name>
      </trkpt>
      <trkpt lat="53.7590800" lon="-3.0261440">
        <name>Gretdale Avenue</name>
      </trkpt>
      <trkpt lat="53.7590851" lon="-3.0259931">
        <name>Gretdale Avenue</name>
      </trkpt>
      <trkpt lat="53.7590903" lon="-3.0258423">
        <name>Gretdale Avenue</name>
      </trkpt>
      <trkpt lat="53.7590954" lon="-3.0256914">
        <name>Gretdale Avenue</name>
      </trkpt>
      <trkpt lat="53.7591006" lon="-3.0255406">
        <name>Gretdale Avenue</name>
      </trkpt>
      <trkpt lat="53.7591057" lon="-3.0253897">
        <name>Gretdale Avenue</name>
      </trkpt>
      <trkpt lat="53.7591109" lon="-3.0252389">
        <name>Gretdale Avenue</name>
      </trkpt>
      <trkpt lat="53.7591160" lon="-3.0250880">
        <name>Gretdale Avenue</name>
      </trkpt>
      <trkpt lat="53.7590400" lon="-3.0250793">
        <name>Gretdale Avenue</name>
      </trkpt>
      <trkpt lat="53.7589640" lon="-3.0250707">
        <name>Gretdale Avenue</name>
      </trkpt>
      <trkpt lat="53.7588880" lon="-3.0250620">
        <name>Gretdale Avenue</name>
      </trkpt>
      <trkpt lat="53.7588120" lon="-3.0250533">
        <name>Gretdale Avenue</name>
      </trkpt>
      <trkpt lat="53.7587360" lon="-3.0250447">
        <name>Gretdale Avenue</name>
      </trkpt>
      <trkpt lat="53.7586600" lon="-3.0250360">
        <name>Gretdale Avenue</name>
      </trkpt>
      <trkpt lat="53.7585726" lon="-3.0250314">
        <name>Oxford Road</name>
      </trkpt>
      <trkpt lat="53.7584852" lon="-3.0250268">
        <name>Oxford Road</name>
      </trkpt>
      <trkpt lat="53.7583978" lon="-3.0250222">
        <name>Oxford Road</name>
      </trkpt>
      <trkpt lat="53.7583104" lon="-3.0250176">
        <name>Oxford Road</name>
      </trkpt>
      <trkpt lat="53.7582230" lon="-3.0250130">
        <name>Oxford Road</name>
      </trkpt>
      <trkpt lat="53.7581463" lon="-3.0250122">
        <name>Oxford Road</name>
      </trkpt>
      <trkpt lat="53.7580697" lon="-3.0250113">
        <name>Oxford Road</name>
      </trkpt>
      <trkpt lat="53.7579930" lon="-3.0250105">
        <name>Oxford Road</name>
      </trkpt>
      <trkpt lat="53.7579163" lon="-3.0250097">
        <name>Oxford Road</name>
      </trkpt>
      <trkpt lat="53.7578397" lon="-3.0250088">
        <name>Oxford Road</name>
      </trkpt>
      <trkpt lat="53.7577630" lon="-3.0250080">
        <name>Oxford Road</name>
      </trkpt>
      <trkpt lat="53.7577270" lon="-3.0250080">
        <name>Oxford Road</name>
      </trkpt>
      <trkpt lat="53.7576508" lon="-3.0250100">
        <name>Oxford Road</name>
      </trkpt>
      <trkpt lat="53.7575747" lon="-3.0250120">
        <name>Oxford Road</name>
      </trkpt>
      <trkpt lat="53.7574985" lon="-3.0250140">
        <name>Oxford Road</name>
      </trkpt>
      <trkpt lat="53.7574223" lon="-3.0250160">
        <name>Oxford Road</name>
      </trkpt>
      <trkpt lat="53.7573462" lon="-3.0250180">
        <name>Oxford Road</name>
      </trkpt>
      <trkpt lat="53.7572700" lon="-3.0250200">
        <name>Oxford Road</name>
      </trkpt>
      <trkpt lat="53.7572636" lon="-3.0248758">
        <name>Oxford Road</name>
      </trkpt>
      <trkpt lat="53.7572572" lon="-3.0247316">
        <name>Oxford Road</name>
      </trkpt>
      <trkpt lat="53.7572508" lon="-3.0245874">
        <name>Oxford Road</name>
      </trkpt>
      <trkpt lat="53.7572444" lon="-3.0244432">
        <name>Oxford Road</name>
      </trkpt>
      <trkpt lat="53.7572380" lon="-3.0242990">
        <name>Oxford Road</name>
      </trkpt>
      <trkpt lat="53.7572307" lon="-3.0241623">
        <name>Oxford Road</name>
      </trkpt>
      <trkpt lat="53.7572234" lon="-3.0240256">
        <name>Oxford Road</name>
      </trkpt>
      <trkpt lat="53.7572161" lon="-3.0238889">
        <name>Oxford Road</name>
      </trkpt>
      <trkpt lat="53.7572089" lon="-3.0237521">
        <name>Oxford Road</name>
      </trkpt>
      <trkpt lat="53.7572016" lon="-3.0236154">
        <name>Oxford Road</name>
      </trkpt>
      <trkpt lat="53.7571943" lon="-3.0234787">
        <name>Oxford Road</name>
      </trkpt>
      <trkpt lat="53.7571870" lon="-3.0233420">
        <name>Oxford Road</name>
      </trkpt>
      <trkpt lat="53.7571024" lon="-3.0233527">
        <name>Mayfield Road</name>
      </trkpt>
      <trkpt lat="53.7570179" lon="-3.0233634">
        <name>Mayfield Road</name>
      </trkpt>
      <trkpt lat="53.7569333" lon="-3.0233741">
        <name>Mayfield Road</name>
      </trkpt>
      <trkpt lat="53.7568487" lon="-3.0233849">
        <name>Mayfield Road</name>
      </trkpt>
      <trkpt lat="53.7567641" lon="-3.0233956">
        <name>Mayfield Road</name>
      </trkpt>
      <trkpt lat="53.7566796" lon="-3.0234063">
        <name>Mayfield Road</name>
      </trkpt>
      <trkpt lat="53.7565950" lon="-3.0234170">
        <name>Mayfield Road</name>
      </trkpt>
      <trkpt lat="53.7565060" lon="-3.0234285">
        <name>Mayfield Road</name>
      </trkpt>
      <trkpt lat="53.7564170" lon="-3.0234400">
        <name>Mayfield Road</name>
      </trkpt>
      <trkpt lat="53.7563326" lon="-3.0234567">
        <name>Mayfield Road</name>
      </trkpt>
      <trkpt lat="53.7562482" lon="-3.0234735">
        <name>Mayfield Road</name>
      </trkpt>
      <trkpt lat="53.7561639" lon="-3.0234903">
        <name>Mayfield Road</name>
      </trkpt>
      <trkpt lat="53.7560795" lon="-3.0235070">
        <name>Mayfield Road</name>
      </trkpt>
      <trkpt lat="53.7559951" lon="-3.0235237">
        <name>Mayfield Road</name>
      </trkpt>
      <trkpt lat="53.7559107" lon="-3.0235405">
        <name>Mayfield Road</name>
      </trkpt>
      <trkpt lat="53.7558264" lon="-3.0235573">
        <name>Mayfield Road</name>
      </trkpt>
      <trkpt lat="53.7557420" lon="-3.0235740">
        <name>Mayfield Road</name>
      </trkpt>
      <trkpt lat="53.7556652" lon="-3.0235985">
        <name>Mayfield Road</name>
      </trkpt>
      <trkpt lat="53.7555885" lon="-3.0236230">
        <name>Mayfield Road</name>
      </trkpt>
      <trkpt lat="53.7555117" lon="-3.0236475">
        <name>Mayfield Road</name>
      </trkpt>
      <trkpt lat="53.7554350" lon="-3.0236720">
        <name>Mayfield Road</name>
      </trkpt>
      <trkpt lat="53.7553789" lon="-3.0237758">
        <name>Mayfield Road</name>
      </trkpt>
      <trkpt lat="53.7553228" lon="-3.0238796">
        <name>Mayfield Road</name>
      </trkpt>
      <trkpt lat="53.7552667" lon="-3.0239834">
        <name>Mayfield Road</name>
      </trkpt>
      <trkpt lat="53.7552106" lon="-3.0240872">
        <name>Mayfield Road</name>
      </trkpt>
      <trkpt lat="53.7551545" lon="-3.0241910">
        <name>Mayfield Road</name>
      </trkpt>
      <trkpt lat="53.7550984" lon="-3.0242948">
        <name>Mayfield Road</name>
      </trkpt>
      <trkpt lat="53.7550423" lon="-3.0243986">
        <name>Mayfield Road</name>
      </trkpt>
      <trkpt lat="53.7549862" lon="-3.0245024">
        <name>Mayfield Road</name>
      </trkpt>
      <trkpt lat="53.7549301" lon="-3.0246062">
        <name>Mayfield Road</name>
      </trkpt>
      <trkpt lat="53.7548740" lon="-3.0247100">
        <name>Mayfield Road</name>
      </trkpt>
      <trkpt lat="53.7548146" lon="-3.0248196">
        <name>Mayfield Road</name>
      </trkpt>
      <trkpt lat="53.7547552" lon="-3.0249292">
        <name>Mayfield Road</name>
      </trkpt>
      <trkpt lat="53.7546958" lon="-3.0250388">
        <name>Mayfield Road</name>
      </trkpt>
      <trkpt lat="53.7546364" lon="-3.0251484">
        <name>Mayfield Road</name>
      </trkpt>
      <trkpt lat="53.7545770" lon="-3.0252580">
        <name>Mayfield Road</name>
      </trkpt>
      <trkpt lat="53.7546400" lon="-3.0253496">
        <name>Mayfield Road</name>
      </trkpt>
      <trkpt lat="53.7547030" lon="-3.0254411">
        <name>Mayfield Road</name>
      </trkpt>
      <trkpt lat="53.7547660" lon="-3.0255327">
        <name>Mayfield Road</name>
      </trkpt>
      <trkpt lat="53.7548290" lon="-3.0256243">
        <name>Mayfield Road</name>
      </trkpt>
      <trkpt lat="53.7548920" lon="-3.0257159">
        <name>Mayfield Road</name>
      </trkpt>
      <trkpt lat="53.7549550" lon="-3.0258074">
        <name>Mayfield Road</name>
      </trkpt>
      <trkpt lat="53.7550180" lon="-3.0258990">
        <name>Mayfield Road</name>
      </trkpt>
      <trkpt lat="53.7550807" lon="-3.0259923">
        <name>Mayfield Road</name>
      </trkpt>
      <trkpt lat="53.7551433" lon="-3.0260857">
        <name>Mayfield Road</name>
      </trkpt>
      <trkpt lat="53.7552060" lon="-3.0261790">
        <name>Mayfield Road</name>
      </trkpt>
      <trkpt lat="53.7552730" lon="-3.0262790">
        <name>Mayfield Road</name>
      </trkpt>
      <trkpt lat="53.7553400" lon="-3.0263790">
        <name>Mayfield Road</name>
      </trkpt>
      <trkpt lat="53.7554038" lon="-3.0264729">
        <name>Mayfield Road</name>
      </trkpt>
      <trkpt lat="53.7554676" lon="-3.0265668">
        <name>Mayfield Road</name>
      </trkpt>
      <trkpt lat="53.7555313" lon="-3.0266607">
        <name>Mayfield Road</name>
      </trkpt>
      <trkpt lat="53.7555951" lon="-3.0267546">
        <name>Mayfield Road</name>
      </trkpt>
      <trkpt lat="53.7556589" lon="-3.0268484">
        <name>Mayfield Road</name>
      </trkpt>
      <trkpt lat="53.7557227" lon="-3.0269423">
        <name>Mayfield Road</name>
      </trkpt>
      <trkpt lat="53.7557864" lon="-3.0270362">
        <name>Mayfield Road</name>
      </trkpt>
      <trkpt lat="53.7558502" lon="-3.0271301">
        <name>Mayfield Road</name>
      </trkpt>
      <trkpt lat="53.7559140" lon="-3.0272240">
        <name>Mayfield Road</name>
      </trkpt>
      <trkpt lat="53.7558627" lon="-3.0273233">
        <name>Dorset Road</name>
      </trkpt>
      <trkpt lat="53.7558113" lon="-3.0274227">
        <name>Dorset Road</name>
      </trkpt>
      <trkpt lat="53.7557600" lon="-3.0275220">
        <name>Dorset Road</name>
      </trkpt>
      <trkpt lat="53.7557240" lon="-3.0275910">
        <name>Dorset Road</name>
      </trkpt>
      <trkpt lat="53.7556880" lon="-3.0276600">
        <name>Dorset Road</name>
      </trkpt>
      <trkpt lat="53.7556335" lon="-3.0277646">
        <name>Dorset Road</name>
      </trkpt>
      <trkpt lat="53.7555790" lon="-3.0278692">
        <name>Dorset Road</name>
      </trkpt>
      <trkpt lat="53.7555245" lon="-3.0279738">
        <name>Dorset Road</name>
      </trkpt>
      <trkpt lat="53.7554700" lon="-3.0280784">
        <name>Dorset Road</name>
      </trkpt>
      <trkpt lat="53.7554155" lon="-3.0281830">
        <name>Dorset Road</name>
      </trkpt>
      <trkpt lat="53.7553610" lon="-3.0282876">
        <name>Dorset Road</name>
      </trkpt>
      <trkpt lat="53.7553065" lon="-3.0283922">
        <name>Dorset Road</name>
      </trkpt>
      <trkpt lat="53.7552520" lon="-3.0284968">
        <name>Dorset Road</name>
      </trkpt>
      <trkpt lat="53.7551975" lon="-3.0286014">
        <name>Dorset Road</name>
      </trkpt>
      <trkpt lat="53.7551430" lon="-3.0287060">
        <name>Dorset Road</name>
      </trkpt>
      <trkpt lat="53.7550972" lon="-3.0288048">
        <name>Dorset Road</name>
      </trkpt>
      <trkpt lat="53.7550514" lon="-3.0289036">
        <name>Dorset Road</name>
      </trkpt>
      <trkpt lat="53.7550056" lon="-3.0290024">
        <name>Dorset Road</name>
      </trkpt>
      <trkpt lat="53.7549598" lon="-3.0291012">
        <name>Dorset Road</name>
      </trkpt>
      <trkpt lat="53.7549140" lon="-3.0292000">
        <name>Dorset Road</name>
      </trkpt>
      <trkpt lat="53.7549730" lon="-3.0292854">
        <name>Dorset Road</name>
      </trkpt>
      <trkpt lat="53.7550320" lon="-3.0293708">
        <name>Dorset Road</name>
      </trkpt>
      <trkpt lat="53.7550910" lon="-3.0294562">
        <name>Dorset Road</name>
      </trkpt>
      <trkpt lat="53.7551500" lon="-3.0295416">
        <name>Dorset Road</name>
      </trkpt>
      <trkpt lat="53.7552090" lon="-3.0296270">
        <name>Dorset Road</name>
      </trkpt>
      <trkpt lat="53.7552676" lon="-3.0297118">
        <name>Dorset Road</name>
      </trkpt>
      <trkpt lat="53.7553262" lon="-3.0297966">
        <name>Dorset Road</name>
      </trkpt>
      <trkpt lat="53.7553848" lon="-3.0298814">
        <name>Dorset Road</name>
      </trkpt>
      <trkpt lat="53.7554434" lon="-3.0299662">
        <name>Dorset Road</name>
      </trkpt>
      <trkpt lat="53.7555020" lon="-3.0300510">
        <name>Dorset Road</name>
      </trkpt>
      <trkpt lat="53.7555576" lon="-3.0299417">
        <name>Dorset Road</name>
      </trkpt>
      <trkpt lat="53.7556132" lon="-3.0298323">
        <name>Dorset Road</name>
      </trkpt>
      <trkpt lat="53.7556688" lon="-3.0297230">
        <name>Dorset Road</name>
      </trkpt>
      <trkpt lat="53.7557244" lon="-3.0296137">
        <name>Dorset Road</name>
      </trkpt>
      <trkpt lat="53.7557801" lon="-3.0295043">
        <name>Dorset Road</name>
      </trkpt>
      <trkpt lat="53.7558357" lon="-3.0293950">
        <name>Dorset Road</name>
      </trkpt>
      <trkpt lat="53.7558913" lon="-3.0292857">
        <name>Dorset Road</name>
      </trkpt>
      <trkpt lat="53.7559469" lon="-3.0291763">
        <name>Dorset Road</name>
      </trkpt>
      <trkpt lat="53.7560025" lon="-3.0290670">
        <name>Dorset Road</name>
      </trkpt>
      <trkpt lat="53.7560581" lon="-3.0289577">
        <name>Dorset Road</name>
      </trkpt>
      <trkpt lat="53.7561137" lon="-3.0288483">
        <name>Dorset Road</name>
      </trkpt>
      <trkpt lat="53.7561693" lon="-3.0287390">
        <name>Dorset Road</name>
      </trkpt>
      <trkpt lat="53.7562249" lon="-3.0286297">
        <name>Dorset Road</name>
      </trkpt>
      <trkpt lat="53.7562806" lon="-3.0285203">
        <name>Dorset Road</name>
      </trkpt>
      <trkpt lat="53.7563362" lon="-3.0284110">
        <name>Dorset Road</name>
      </trkpt>
      <trkpt lat="53.7563918" lon="-3.0283017">
        <name>Dorset Road</name>
      </trkpt>
      <trkpt lat="53.7564474" lon="-3.0281923">
        <name>Dorset Road</name>
      </trkpt>
      <trkpt lat="53.7565030" lon="-3.0280830">
        <name>Dorset Road</name>
      </trkpt>
      <trkpt lat="53.7565600" lon="-3.0279710">
        <name>Dorset Road</name>
      </trkpt>
      <trkpt lat="53.7566170" lon="-3.0278590">
        <name>Dorset Road</name>
      </trkpt>
      <trkpt lat="53.7566740" lon="-3.0277470">
        <name>Dorset Road</name>
      </trkpt>
      <trkpt lat="53.7567310" lon="-3.0276350">
        <name>Dorset Road</name>
      </trkpt>
      <trkpt lat="53.7567880" lon="-3.0275230">
        <name>Dorset Road</name>
      </trkpt>
      <trkpt lat="53.7568450" lon="-3.0274110">
        <name>Dorset Road</name>
      </trkpt>
      <trkpt lat="53.7568989" lon="-3.0273051">
        <name>Dorset Road</name>
      </trkpt>
      <trkpt lat="53.7569528" lon="-3.0271992">
        <name>Dorset Road</name>
      </trkpt>
      <trkpt lat="53.7570067" lon="-3.0270933">
        <name>Dorset Road</name>
      </trkpt>
      <trkpt lat="53.7570606" lon="-3.0269874">
        <name>Dorset Road</name>
      </trkpt>
      <trkpt lat="53.7571144" lon="-3.0268816">
        <name>Dorset Road</name>
      </trkpt>
      <trkpt lat="53.7571683" lon="-3.0267757">
        <name>Dorset Road</name>
      </trkpt>
      <trkpt lat="53.7572222" lon="-3.0266698">
        <name>Dorset Road</name>
      </trkpt>
      <trkpt lat="53.7572761" lon="-3.0265639">
        <name>Dorset Road</name>
      </trkpt>
      <trkpt lat="53.7573300" lon="-3.0264580">
        <name>Dorset Road</name>
      </trkpt>
      <trkpt lat="53.7573410" lon="-3.0265090">
        <name>Oxford Road</name>
      </trkpt>
      <trkpt lat="53.7573530" lon="-3.0265530">
        <name>Oxford Road</name>
      </trkpt>
      <trkpt lat="53.7573710" lon="-3.0265850">
        <name>Oxford Road</name>
      </trkpt>
      <trkpt lat="53.7573930" lon="-3.0266220">
        <name>Headroomgate Road</name>
      </trkpt>
      <trkpt lat="53.7574566" lon="-3.0267121">
        <name>Headroomgate Road</name>
      </trkpt>
      <trkpt lat="53.7575202" lon="-3.0268023">
        <name>Headroomgate Road</name>
      </trkpt>
      <trkpt lat="53.7575839" lon="-3.0268924">
        <name>Headroomgate Road</name>
      </trkpt>
      <trkpt lat="53.7576475" lon="-3.0269825">
        <name>Headroomgate Road</name>
      </trkpt>
      <trkpt lat="53.7577111" lon="-3.0270726">
        <name>Headroomgate Road</name>
      </trkpt>
      <trkpt lat="53.7577748" lon="-3.0271628">
        <name>Headroomgate Road</name>
      </trkpt>
      <trkpt lat="53.7578384" lon="-3.0272529">
        <name>Headroomgate Road</name>
      </trkpt>
      <trkpt lat="53.7579020" lon="-3.0273430">
        <name>Headroomgate Road</name>
      </trkpt>
      <trkpt lat="53.7578450" lon="-3.0274587">
        <name>Headroomgate Road</name>
      </trkpt>
      <trkpt lat="53.7577880" lon="-3.0275744">
        <name>Headroomgate Road</name>
      </trkpt>
      <trkpt lat="53.7577310" lon="-3.0276901">
        <name>Headroomgate Road</name>
      </trkpt>
      <trkpt lat="53.7576740" lon="-3.0278059">
        <name>Headroomgate Road</name>
      </trkpt>
      <trkpt lat="53.7576170" lon="-3.0279216">
        <name>Headroomgate Road</name>
      </trkpt>
      <trkpt lat="53.7575600" lon="-3.0280373">
        <name>Headroomgate Road</name>
      </trkpt>
      <trkpt lat="53.7575030" lon="-3.0281530">
        <name>Headroomgate Road</name>
      </trkpt>
      <trkpt lat="53.7574461" lon="-3.0282684">
        <name>Headroomgate Road</name>
      </trkpt>
      <trkpt lat="53.7573893" lon="-3.0283839">
        <name>Headroomgate Road</name>
      </trkpt>
      <trkpt lat="53.7573324" lon="-3.0284993">
        <name>Headroomgate Road</name>
      </trkpt>
      <trkpt lat="53.7572756" lon="-3.0286147">
        <name>Headroomgate Road</name>
      </trkpt>
      <trkpt lat="53.7572187" lon="-3.0287301">
        <name>Headroomgate Road</name>
      </trkpt>
      <trkpt lat="53.7571619" lon="-3.0288456">
        <name>Headroomgate Road</name>
      </trkpt>
      <trkpt lat="53.7571050" lon="-3.0289610">
        <name>Headroomgate Road</name>
      </trkpt>
      <trkpt lat="53.7570461" lon="-3.0290759">
        <name>Headroomgate Road</name>
      </trkpt>
      <trkpt lat="53.7569872" lon="-3.0291908">
        <name>Headroomgate Road</name>
      </trkpt>
      <trkpt lat="53.7569284" lon="-3.0293056">
        <name>Headroomgate Road</name>
      </trkpt>
      <trkpt lat="53.7568695" lon="-3.0294205">
        <name>Headroomgate Road</name>
      </trkpt>
      <trkpt lat="53.7568106" lon="-3.0295354">
        <name>Headroomgate Road</name>
      </trkpt>
      <trkpt lat="53.7567517" lon="-3.0296503">
        <name>Headroomgate Road</name>
      </trkpt>
      <trkpt lat="53.7566928" lon="-3.0297652">
        <name>Headroomgate Road</name>
      </trkpt>
      <trkpt lat="53.7566339" lon="-3.0298801">
        <name>Headroomgate Road</name>
      </trkpt>
      <trkpt lat="53.7565751" lon="-3.0299949">
        <name>Headroomgate Road</name>
      </trkpt>
      <trkpt lat="53.7565162" lon="-3.0301098">
        <name>Headroomgate Road</name>
      </trkpt>
      <trkpt lat="53.7564573" lon="-3.0302247">
        <name>Headroomgate Road</name>
      </trkpt>
      <trkpt lat="53.7563984" lon="-3.0303396">
        <name>Headroomgate Road</name>
      </trkpt>
      <trkpt lat="53.7563395" lon="-3.0304545">
        <name>Headroomgate Road</name>
      </trkpt>
      <trkpt lat="53.7562806" lon="-3.0305694">
        <name>Headroomgate Road</name>
      </trkpt>
      <trkpt lat="53.7562218" lon="-3.0306842">
        <name>Headroomgate Road</name>
      </trkpt>
      <trkpt lat="53.7561629" lon="-3.0307991">
        <name>Headroomgate Road</name>
      </trkpt>
      <trkpt lat="53.7561040" lon="-3.0309140">
        <name>Headroomgate Road</name>
      </trkpt>
      <trkpt lat="53.7561627" lon="-3.0309985">
        <name>Headroomgate Road</name>
      </trkpt>
      <trkpt lat="53.7562213" lon="-3.0310830">
        <name>Headroomgate Road</name>
      </trkpt>
      <trkpt lat="53.7562800" lon="-3.0311675">
        <name>Headroomgate Road</name>
      </trkpt>
      <trkpt lat="53.7563387" lon="-3.0312520">
        <name>Headroomgate Road</name>
      </trkpt>
      <trkpt lat="53.7563973" lon="-3.0313365">
        <name>Headroomgate Road</name>
      </trkpt>
      <trkpt lat="53.7564560" lon="-3.0314210">
        <name>Headroomgate Road</name>
      </trkpt>
      <trkpt lat="53.7565185" lon="-3.0315112">
        <name>Headroomgate Road</name>
      </trkpt>
      <trkpt lat="53.7565810" lon="-3.0316015">
        <name>Headroomgate Road</name>
      </trkpt>
      <trkpt lat="53.7566435" lon="-3.0316918">
        <name>Headroomgate Road</name>
      </trkpt>
      <trkpt lat="53.7567060" lon="-3.0317820">
        <name>Headroomgate Road</name>
      </trkpt>
      <trkpt lat="53.7567635" lon="-3.0316664">
        <name>Headroomgate Road</name>
      </trkpt>
      <trkpt lat="53.7568211" lon="-3.0315507">
        <name>Headroomgate Road</name>
      </trkpt>
      <trkpt lat="53.7568786" lon="-3.0314351">
        <name>Headroomgate Road</name>
      </trkpt>
      <trkpt lat="53.7569361" lon="-3.0313194">
        <name>Headroomgate Road</name>
      </trkpt>
      <trkpt lat="53.7569936" lon="-3.0312038">
        <name>Headroomgate Road</name>
      </trkpt>
      <trkpt lat="53.7570512" lon="-3.0310881">
        <name>Headroomgate Road</name>
      </trkpt>
      <trkpt lat="53.7571087" lon="-3.0309725">
        <name>Headroomgate Road</name>
      </trkpt>
      <trkpt lat="53.7571662" lon="-3.0308568">
        <name>Headroomgate Road</name>
      </trkpt>
      <trkpt lat="53.7572238" lon="-3.0307412">
        <name>Headroomgate Road</name>
      </trkpt>
      <trkpt lat="53.7572813" lon="-3.0306255">
        <name>Headroomgate Road</name>
      </trkpt>
      <trkpt lat="53.7573388" lon="-3.0305099">
        <name>Headroomgate Road</name>
      </trkpt>
      <trkpt lat="53.7573964" lon="-3.0303942">
        <name>Headroomgate Road</name>
      </trkpt>
      <trkpt lat="53.7574539" lon="-3.0302786">
        <name>Headroomgate Road</name>
      </trkpt>
      <trkpt lat="53.7575114" lon="-3.0301629">
        <name>Headroomgate Road</name>
      </trkpt>
      <trkpt lat="53.7575689" lon="-3.0300473">
        <name>Headroomgate Road</name>
      </trkpt>
      <trkpt lat="53.7576265" lon="-3.0299316">
        <name>Headroomgate Road</name>
      </trkpt>
      <trkpt lat="53.7576840" lon="-3.0298160">
        <name>Headroomgate Road</name>
      </trkpt>
      <trkpt lat="53.7577472" lon="-3.0299050">
        <name>St Anne's Road East</name>
      </trkpt>
      <trkpt lat="53.7578104" lon="-3.0299940">
        <name>St Anne's Road East</name>
      </trkpt>
      <trkpt lat="53.7578736" lon="-3.0300830">
        <name>St Anne's Road East</name>
      </trkpt>
      <trkpt lat="53.7579368" lon="-3.0301720">
        <name>St Anne's Road East</name>
      </trkpt>
      <trkpt lat="53.7580000" lon="-3.0302610">
        <name>St Anne's Road East</name>
      </trkpt>
      <trkpt lat="53.7580630" lon="-3.0303498">
        <name>St Anne's Road East</name>
      </trkpt>
      <trkpt lat="53.7581260" lon="-3.0304385">
        <name>St Anne's Road East</name>
      </trkpt>
      <trkpt lat="53.7581890" lon="-3.0305273">
        <name>St Anne's Road East</name>
      </trkpt>
      <trkpt lat="53.7582520" lon="-3.0306160">
        <name>St Anne's Road East</name>
      </trkpt>
      <trkpt lat="53.7581972" lon="-3.0307258">
        <name>St Anne's Road East</name>
      </trkpt>
      <trkpt lat="53.7581424" lon="-3.0308357">
        <name>St Anne's Road East</name>
      </trkpt>
      <trkpt lat="53.7580877" lon="-3.0309455">
        <name>St Anne's Road East</name>
      </trkpt>
      <trkpt lat="53.7580329" lon="-3.0310553">
        <name>St Anne's Road East</name>
      </trkpt>
      <trkpt lat="53.7579781" lon="-3.0311652">
        <name>St Anne's Road East</name>
      </trkpt>
      <trkpt lat="53.7579233" lon="-3.0312750">
        <name>St Anne's Road East</name>
      </trkpt>
      <trkpt lat="53.7578686" lon="-3.0313848">
        <name>St Anne's Road East</name>
      </trkpt>
      <trkpt lat="53.7578138" lon="-3.0314947">
        <name>St Anne's Road East</name>
      </trkpt>
      <trkpt lat="53.7577590" lon="-3.0316045">
        <name>St Anne's Road East</name>
      </trkpt>
      <trkpt lat="53.7577042" lon="-3.0317143">
        <name>St Anne's Road East</name>
      </trkpt>
      <trkpt lat="53.7576494" lon="-3.0318242">
        <name>St Anne's Road East</name>
      </trkpt>
      <trkpt lat="53.7575947" lon="-3.0319340">
        <name>St Anne's Road East</name>
      </trkpt>
      <trkpt lat="53.7575399" lon="-3.0320438">
        <name>St Anne's Road East</name>
      </trkpt>
      <trkpt lat="53.7574851" lon="-3.0321537">
        <name>St Anne's Road East</name>
      </trkpt>
      <trkpt lat="53.7574303" lon="-3.0322635">
        <name>St Anne's Road East</name>
      </trkpt>
      <trkpt lat="53.7573756" lon="-3.0323733">
        <name>St Anne's Road East</name>
      </trkpt>
      <trkpt lat="53.7573208" lon="-3.0324832">
        <name>St Anne's Road East</name>
      </trkpt>
      <trkpt lat="53.7572660" lon="-3.0325930">
        <name>St Anne's Road East</name>
      </trkpt>
      <trkpt lat="53.7573346" lon="-3.0326908">
        <name>St Anne's Road East</name>
      </trkpt>
      <trkpt lat="53.7574032" lon="-3.0327886">
        <name>St Anne's Road East</name>
      </trkpt>
      <trkpt lat="53.7574718" lon="-3.0328864">
        <name>St Anne's Road East</name>
      </trkpt>
      <trkpt lat="53.7575404" lon="-3.0329842">
        <name>St Anne's Road East</name>
      </trkpt>
      <trkpt lat="53.7576090" lon="-3.0330820">
        <name>St Anne's Road East</name>
      </trkpt>
      <trkpt lat="53.7576643" lon="-3.0331605">
        <name>St Anne's Road East</name>
      </trkpt>
      <trkpt lat="53.7577195" lon="-3.0332390">
        <name>St Anne's Road East</name>
      </trkpt>
      <trkpt lat="53.7577747" lon="-3.0333175">
        <name>St Anne's Road East</name>
      </trkpt>
      <trkpt lat="53.7578300" lon="-3.0333960">
        <name>St Anne's Road East</name>
      </trkpt>
      <trkpt lat="53.7578680" lon="-3.0333200">
        <name>St Anne's Road East</name>
      </trkpt>
      <trkpt lat="53.7579236" lon="-3.0332088">
        <name>St Patrick's Road North</name>
      </trkpt>
      <trkpt lat="53.7579793" lon="-3.0330976">
        <name>St Patrick's Road North</name>
      </trkpt>
      <trkpt lat="53.7580349" lon="-3.0329865">
        <name>St Patrick's Road North</name>
      </trkpt>
      <trkpt lat="53.7580906" lon="-3.0328753">
        <name>St Patrick's Road North</name>
      </trkpt>
      <trkpt lat="53.7581462" lon="-3.0327641">
        <name>St Patrick's Road North</name>
      </trkpt>
      <trkpt lat="53.7582019" lon="-3.0326529">
        <name>St Patrick's Road North</name>
      </trkpt>
      <trkpt lat="53.7582575" lon="-3.0325418">
        <name>St Patrick's Road North</name>
      </trkpt>
      <trkpt lat="53.7583132" lon="-3.0324306">
        <name>St Patrick's Road North</name>
      </trkpt>
      <trkpt lat="53.7583688" lon="-3.0323194">
        <name>St Patrick's Road North</name>
      </trkpt>
      <trkpt lat="53.7584245" lon="-3.0322082">
        <name>St Patrick's Road North</name>
      </trkpt>
      <trkpt lat="53.7584801" lon="-3.0320971">
        <name>St Patrick's Road North</name>
      </trkpt>
      <trkpt lat="53.7585358" lon="-3.0319859">
        <name>St Patrick's Road North</name>
      </trkpt>
      <trkpt lat="53.7585914" lon="-3.0318747">
        <name>St Patrick's Road North</name>
      </trkpt>
      <trkpt lat="53.7586471" lon="-3.0317635">
        <name>St Patrick's Road North</name>
      </trkpt>
      <trkpt lat="53.7587027" lon="-3.0316524">
        <name>St Patrick's Road North</name>
      </trkpt>
      <trkpt lat="53.7587584" lon="-3.0315412">
        <name>St Patrick's Road North</name>
      </trkpt>
      <trkpt lat="53.7588140" lon="-3.0314300">
        <name>St Patrick's Road North</name>
      </trkpt>
      <trkpt lat="53.7588832" lon="-3.0315267">
        <name>St Patrick's Road North</name>
      </trkpt>
      <trkpt lat="53.7589525" lon="-3.0316235">
        <name>St Patrick's Road North</name>
      </trkpt>
      <trkpt lat="53.7590218" lon="-3.0317203">
        <name>St Patrick's Road North</name>
      </trkpt>
      <trkpt lat="53.7590910" lon="-3.0318170">
        <name>St Patrick's Road North</name>
      </trkpt>
      <trkpt lat="53.7591572" lon="-3.0319092">
        <name>St Patrick's Road North</name>
      </trkpt>
      <trkpt lat="53.7592234" lon="-3.0320014">
        <name>St Patrick's Road North</name>
      </trkpt>
      <trkpt lat="53.7592896" lon="-3.0320936">
        <name>St Patrick's Road North</name>
      </trkpt>
      <trkpt lat="53.7593558" lon="-3.0321858">
        <name>St Patrick's Road North</name>
      </trkpt>
      <trkpt lat="53.7594220" lon="-3.0322780">
        <name>St Patrick's Road North</name>
      </trkpt>
      <trkpt lat="53.7594643" lon="-3.0321557">
        <name>St Patrick's Road North</name>
      </trkpt>
      <trkpt lat="53.7595065" lon="-3.0320335">
        <name>St Patrick's Road North</name>
      </trkpt>
      <trkpt lat="53.7595488" lon="-3.0319112">
        <name>St Patrick's Road North</name>
      </trkpt>
      <trkpt lat="53.7595910" lon="-3.0317890">
        <name>St Patrick's Road North</name>
      </trkpt>
      <trkpt lat="53.7596265" lon="-3.0316940">
        <name>St Patrick's Road North</name>
      </trkpt>
      <trkpt lat="53.7596620" lon="-3.0315990">
        <name>St Patrick's Road North</name>
      </trkpt>
      <trkpt lat="53.7597055" lon="-3.0314825">
        <name>St Patrick's Road North</name>
      </trkpt>
      <trkpt lat="53.7597490" lon="-3.0313660">
        <name>St Patrick's Road North</name>
      </trkpt>
    </trkseg>
  </trk>
</gpx>