<?xml version="1.0" encoding="UTF-8"?>
<gpx version="1.1" creator="TurboSanta Route Planner">
  <trk>
    <name>TurboSanta Route (10m density)</name>
    <trkseg>
      <trkpt lat="53.7446960" lon="-2.9590970">
        <name>Norfolk Road</name>
      </trkpt>
      <trkpt lat="53.7447217" lon="-2.9589857">
        <name>Norfolk Road</name>
      </trkpt>
      <trkpt lat="53.7447473" lon="-2.9588743">
        <name>Norfolk Road</name>
      </trkpt>
      <trkpt lat="53.7447730" lon="-2.9587630">
        <name>Norfolk Road</name>
      </trkpt>
      <trkpt lat="53.7447906" lon="-2.9586277">
        <name>Norfolk Road</name>
      </trkpt>
      <trkpt lat="53.7448083" lon="-2.9584925">
        <name>Norfolk Road</name>
      </trkpt>
      <trkpt lat="53.7448259" lon="-2.9583572">
        <name>Norfolk Road</name>
      </trkpt>
      <trkpt lat="53.7448435" lon="-2.9582220">
        <name>Norfolk Road</name>
      </trkpt>
      <trkpt lat="53.7448611" lon="-2.9580868">
        <name>Norfolk Road</name>
      </trkpt>
      <trkpt lat="53.7448787" lon="-2.9579515">
        <name>Norfolk Road</name>
      </trkpt>
      <trkpt lat="53.7448964" lon="-2.9578163">
        <name>Norfolk Road</name>
      </trkpt>
      <trkpt lat="53.7449140" lon="-2.9576810">
        <name>Norfolk Road</name>
      </trkpt>
      <trkpt lat="53.7449291" lon="-2.9575377">
        <name>Norfolk Road</name>
      </trkpt>
      <trkpt lat="53.7449442" lon="-2.9573944">
        <name>Norfolk Road</name>
      </trkpt>
      <trkpt lat="53.7449593" lon="-2.9572511">
        <name>Norfolk Road</name>
      </trkpt>
      <trkpt lat="53.7449744" lon="-2.9571078">
        <name>Norfolk Road</name>
      </trkpt>
      <trkpt lat="53.7449895" lon="-2.9569645">
        <name>Norfolk Road</name>
      </trkpt>
      <trkpt lat="53.7450046" lon="-2.9568212">
        <name>Norfolk Road</name>
      </trkpt>
      <trkpt lat="53.7450197" lon="-2.9566779">
        <name>Norfolk Road</name>
      </trkpt>
      <trkpt lat="53.7450348" lon="-2.9565346">
        <name>Norfolk Road</name>
      </trkpt>
      <trkpt lat="53.7450499" lon="-2.9563913">
        <name>Norfolk Road</name>
      </trkpt>
      <trkpt lat="53.7450650" lon="-2.9562480">
        <name>Norfolk Road</name>
      </trkpt>
      <trkpt lat="53.7449990" lon="-2.9561806">
        <name>Talbot Road</name>
      </trkpt>
      <trkpt lat="53.7449330" lon="-2.9561131">
        <name>Talbot Road</name>
      </trkpt>
      <trkpt lat="53.7448670" lon="-2.9560457">
        <name>Talbot Road</name>
      </trkpt>
      <trkpt lat="53.7448010" lon="-2.9559783">
        <name>Talbot Road</name>
      </trkpt>
      <trkpt lat="53.7447350" lon="-2.9559109">
        <name>Talbot Road</name>
      </trkpt>
      <trkpt lat="53.7446690" lon="-2.9558434">
        <name>Talbot Road</name>
      </trkpt>
      <trkpt lat="53.7446030" lon="-2.9557760">
        <name>Talbot Road</name>
      </trkpt>
      <trkpt lat="53.7445347" lon="-2.9557230">
        <name>Talbot Road</name>
      </trkpt>
      <trkpt lat="53.7444663" lon="-2.9556700">
        <name>Talbot Road</name>
      </trkpt>
      <trkpt lat="53.7443980" lon="-2.9556170">
        <name>Talbot Road</name>
      </trkpt>
      <trkpt lat="53.7443860" lon="-2.9556080">
        <name>Talbot Road</name>
      </trkpt>
      <trkpt lat="53.7443125" lon="-2.9555630">
        <name>Talbot Road</name>
      </trkpt>
      <trkpt lat="53.7442390" lon="-2.9555180">
        <name>Talbot Road</name>
      </trkpt>
      <trkpt lat="53.7441820" lon="-2.9555020">
        <name>Talbot Road</name>
      </trkpt>
      <trkpt lat="53.7440948" lon="-2.9554792">
        <name>Talbot Road</name>
      </trkpt>
      <trkpt lat="53.7440075" lon="-2.9554565">
        <name>Talbot Road</name>
      </trkpt>
      <trkpt lat="53.7439203" lon="-2.9554338">
        <name>Talbot Road</name>
      </trkpt>
      <trkpt lat="53.7438330" lon="-2.9554110">
        <name>Talbot Road</name>
      </trkpt>
      <trkpt lat="53.7437660" lon="-2.9554110">
        <name>Talbot Road</name>
      </trkpt>
      <trkpt lat="53.7436990" lon="-2.9554110">
        <name>Talbot Road</name>
      </trkpt>
      <trkpt lat="53.7436320" lon="-2.9554110">
        <name>Talbot Road</name>
      </trkpt>
      <trkpt lat="53.7435550" lon="-2.9554490">
        <name>Talbot Road</name>
      </trkpt>
      <trkpt lat="53.7434800" lon="-2.9554860">
        <name>Talbot Road</name>
      </trkpt>
      <trkpt lat="53.7434510" lon="-2.9555680">
        <name>Talbot Road</name>
      </trkpt>
      <trkpt lat="53.7434153" lon="-2.9556707">
        <name>Talbot Road</name>
      </trkpt>
      <trkpt lat="53.7433797" lon="-2.9557733">
        <name>Talbot Road</name>
      </trkpt>
      <trkpt lat="53.7433440" lon="-2.9558760">
        <name>Talbot Road</name>
      </trkpt>
      <trkpt lat="53.7433370" lon="-2.9559340">
        <name>Talbot Road</name>
      </trkpt>
      <trkpt lat="53.7433252" lon="-2.9560840">
        <name>Talbot Road</name>
      </trkpt>
      <trkpt lat="53.7433134" lon="-2.9562340">
        <name>Talbot Road</name>
      </trkpt>
      <trkpt lat="53.7433016" lon="-2.9563840">
        <name>Talbot Road</name>
      </trkpt>
      <trkpt lat="53.7432898" lon="-2.9565340">
        <name>Talbot Road</name>
      </trkpt>
      <trkpt lat="53.7432780" lon="-2.9566840">
        <name>Talbot Road</name>
      </trkpt>
      <trkpt lat="53.7432680" lon="-2.9568110">
        <name>Talbot Road</name>
      </trkpt>
      <trkpt lat="53.7432580" lon="-2.9569380">
        <name>Talbot Road</name>
      </trkpt>
      <trkpt lat="53.7432475" lon="-2.9570710">
        <name>Talbot Road</name>
      </trkpt>
      <trkpt lat="53.7432370" lon="-2.9572040">
        <name>Talbot Road</name>
      </trkpt>
      <trkpt lat="53.7432265" lon="-2.9573370">
        <name>Talbot Road</name>
      </trkpt>
      <trkpt lat="53.7432160" lon="-2.9574700">
        <name>Talbot Road</name>
      </trkpt>
      <trkpt lat="53.7432063" lon="-2.9575995">
        <name>Talbot Road</name>
      </trkpt>
      <trkpt lat="53.7431967" lon="-2.9577290">
        <name>Talbot Road</name>
      </trkpt>
      <trkpt lat="53.7431870" lon="-2.9578585">
        <name>Talbot Road</name>
      </trkpt>
      <trkpt lat="53.7431773" lon="-2.9579880">
        <name>Talbot Road</name>
      </trkpt>
      <trkpt lat="53.7431677" lon="-2.9581175">
        <name>Talbot Road</name>
      </trkpt>
      <trkpt lat="53.7431580" lon="-2.9582470">
        <name>Talbot Road</name>
      </trkpt>
      <trkpt lat="53.7430711" lon="-2.9582258">
        <name>Talbot Road</name>
      </trkpt>
      <trkpt lat="53.7429842" lon="-2.9582046">
        <name>Talbot Road</name>
      </trkpt>
      <trkpt lat="53.7428974" lon="-2.9581834">
        <name>Talbot Road</name>
      </trkpt>
      <trkpt lat="53.7428105" lon="-2.9581622">
        <name>Talbot Road</name>
      </trkpt>
      <trkpt lat="53.7427236" lon="-2.9581410">
        <name>Talbot Road</name>
      </trkpt>
      <trkpt lat="53.7426367" lon="-2.9581198">
        <name>Talbot Road</name>
      </trkpt>
      <trkpt lat="53.7425498" lon="-2.9580986">
        <name>Talbot Road</name>
      </trkpt>
      <trkpt lat="53.7424630" lon="-2.9580774">
        <name>Talbot Road</name>
      </trkpt>
      <trkpt lat="53.7423761" lon="-2.9580562">
        <name>Talbot Road</name>
      </trkpt>
      <trkpt lat="53.7422892" lon="-2.9580350">
        <name>Talbot Road</name>
      </trkpt>
      <trkpt lat="53.7422023" lon="-2.9580138">
        <name>Talbot Road</name>
      </trkpt>
      <trkpt lat="53.7421154" lon="-2.9579926">
        <name>Talbot Road</name>
      </trkpt>
      <trkpt lat="53.7420286" lon="-2.9579714">
        <name>Talbot Road</name>
      </trkpt>
      <trkpt lat="53.7419417" lon="-2.9579502">
        <name>Talbot Road</name>
      </trkpt>
      <trkpt lat="53.7418548" lon="-2.9579290">
        <name>Talbot Road</name>
      </trkpt>
      <trkpt lat="53.7417679" lon="-2.9579078">
        <name>Talbot Road</name>
      </trkpt>
      <trkpt lat="53.7416810" lon="-2.9578866">
        <name>Talbot Road</name>
      </trkpt>
      <trkpt lat="53.7415942" lon="-2.9578654">
        <name>Talbot Road</name>
      </trkpt>
      <trkpt lat="53.7415073" lon="-2.9578442">
        <name>Talbot Road</name>
      </trkpt>
      <trkpt lat="53.7414204" lon="-2.9578230">
        <name>Talbot Road</name>
      </trkpt>
      <trkpt lat="53.7413335" lon="-2.9578018">
        <name>Talbot Road</name>
      </trkpt>
      <trkpt lat="53.7412466" lon="-2.9577806">
        <name>Talbot Road</name>
      </trkpt>
      <trkpt lat="53.7411598" lon="-2.9577594">
        <name>Talbot Road</name>
      </trkpt>
      <trkpt lat="53.7410729" lon="-2.9577382">
        <name>Talbot Road</name>
      </trkpt>
      <trkpt lat="53.7409860" lon="-2.9577170">
        <name>Talbot Road</name>
      </trkpt>
      <trkpt lat="53.7409075" lon="-2.9576978">
        <name>Talbot Road</name>
      </trkpt>
      <trkpt lat="53.7408290" lon="-2.9576785">
        <name>Talbot Road</name>
      </trkpt>
      <trkpt lat="53.7407505" lon="-2.9576592">
        <name>Talbot Road</name>
      </trkpt>
      <trkpt lat="53.7406720" lon="-2.9576400">
        <name>Talbot Road</name>
      </trkpt>
      <trkpt lat="53.7406245" lon="-2.9576285">
        <name>Wykeham Road</name>
      </trkpt>
      <trkpt lat="53.7405770" lon="-2.9576170">
        <name>Wykeham Road</name>
      </trkpt>
      <trkpt lat="53.7405130" lon="-2.9576025">
        <name>Wykeham Road</name>
      </trkpt>
      <trkpt lat="53.7404490" lon="-2.9575880">
        <name>Wykeham Road</name>
      </trkpt>
      <trkpt lat="53.7403685" lon="-2.9575692">
        <name>Wykeham Road</name>
      </trkpt>
      <trkpt lat="53.7402880" lon="-2.9575505">
        <name>Wykeham Road</name>
      </trkpt>
      <trkpt lat="53.7402075" lon="-2.9575318">
        <name>Wykeham Road</name>
      </trkpt>
      <trkpt lat="53.7401270" lon="-2.9575130">
        <name>Wykeham Road</name>
      </trkpt>
      <trkpt lat="53.7400770" lon="-2.9575030">
        <name>Wykeham Road</name>
      </trkpt>
      <trkpt lat="53.7400910" lon="-2.9573693">
        <name>Wykeham Road</name>
      </trkpt>
      <trkpt lat="53.7401050" lon="-2.9572357">
        <name>Wykeham Road</name>
      </trkpt>
      <trkpt lat="53.7401190" lon="-2.9571020">
        <name>Wykeham Road</name>
      </trkpt>
      <trkpt lat="53.7400410" lon="-2.9570790">
        <name>Park View Road</name>
      </trkpt>
      <trkpt lat="53.7400410" lon="-2.9570250">
        <name>Park View Road</name>
      </trkpt>
      <trkpt lat="53.7400367" lon="-2.9569050">
        <name>Park View Road</name>
      </trkpt>
      <trkpt lat="53.7400323" lon="-2.9567850">
        <name>Park View Road</name>
      </trkpt>
      <trkpt lat="53.7400280" lon="-2.9566650">
        <name>Park View Road</name>
      </trkpt>
      <trkpt lat="53.7400233" lon="-2.9565413">
        <name>Park View Road</name>
      </trkpt>
      <trkpt lat="53.7400187" lon="-2.9564177">
        <name>Park View Road</name>
      </trkpt>
      <trkpt lat="53.7400140" lon="-2.9562940">
        <name>Park View Road</name>
      </trkpt>
      <trkpt lat="53.7400238" lon="-2.9561483">
        <name>Park View Road</name>
      </trkpt>
      <trkpt lat="53.7400337" lon="-2.9560026">
        <name>Park View Road</name>
      </trkpt>
      <trkpt lat="53.7400435" lon="-2.9558569">
        <name>Park View Road</name>
      </trkpt>
      <trkpt lat="53.7400534" lon="-2.9557112">
        <name>Park View Road</name>
      </trkpt>
      <trkpt lat="53.7400632" lon="-2.9555655">
        <name>Park View Road</name>
      </trkpt>
      <trkpt lat="53.7400731" lon="-2.9554198">
        <name>Park View Road</name>
      </trkpt>
      <trkpt lat="53.7400829" lon="-2.9552742">
        <name>Park View Road</name>
      </trkpt>
      <trkpt lat="53.7400928" lon="-2.9551285">
        <name>Park View Road</name>
      </trkpt>
      <trkpt lat="53.7401026" lon="-2.9549828">
        <name>Park View Road</name>
      </trkpt>
      <trkpt lat="53.7401125" lon="-2.9548371">
        <name>Park View Road</name>
      </trkpt>
      <trkpt lat="53.7401223" lon="-2.9546914">
        <name>Park View Road</name>
      </trkpt>
      <trkpt lat="53.7401322" lon="-2.9545457">
        <name>Park View Road</name>
      </trkpt>
      <trkpt lat="53.7401420" lon="-2.9544000">
        <name>Park View Road</name>
      </trkpt>
      <trkpt lat="53.7402157" lon="-2.9544185">
        <name>Park View Road</name>
      </trkpt>
      <trkpt lat="53.7402895" lon="-2.9544370">
        <name>Park View Road</name>
      </trkpt>
      <trkpt lat="53.7403633" lon="-2.9544555">
        <name>Park View Road</name>
      </trkpt>
      <trkpt lat="53.7404370" lon="-2.9544740">
        <name>Park View Road</name>
      </trkpt>
      <trkpt lat="53.7404830" lon="-2.9544855">
        <name>Park View Road</name>
      </trkpt>
      <trkpt lat="53.7405290" lon="-2.9544970">
        <name>Park View Road</name>
      </trkpt>
      <trkpt lat="53.7406141" lon="-2.9545196">
        <name>Park View Road</name>
      </trkpt>
      <trkpt lat="53.7406993" lon="-2.9545422">
        <name>Park View Road</name>
      </trkpt>
      <trkpt lat="53.7407844" lon="-2.9545648">
        <name>Park View Road</name>
      </trkpt>
      <trkpt lat="53.7408695" lon="-2.9545874">
        <name>Park View Road</name>
      </trkpt>
      <trkpt lat="53.7409547" lon="-2.9546100">
        <name>Park View Road</name>
      </trkpt>
      <trkpt lat="53.7410398" lon="-2.9546326">
        <name>Park View Road</name>
      </trkpt>
      <trkpt lat="53.7411249" lon="-2.9546552">
        <name>Park View Road</name>
      </trkpt>
      <trkpt lat="53.7412101" lon="-2.9546778">
        <name>Park View Road</name>
      </trkpt>
      <trkpt lat="53.7412952" lon="-2.9547004">
        <name>Park View Road</name>
      </trkpt>
      <trkpt lat="53.7413803" lon="-2.9547230">
        <name>Park View Road</name>
      </trkpt>
      <trkpt lat="53.7414655" lon="-2.9547456">
        <name>Park View Road</name>
      </trkpt>
      <trkpt lat="53.7415506" lon="-2.9547682">
        <name>Park View Road</name>
      </trkpt>
      <trkpt lat="53.7416357" lon="-2.9547908">
        <name>Park View Road</name>
      </trkpt>
      <trkpt lat="53.7417209" lon="-2.9548134">
        <name>Park View Road</name>
      </trkpt>
      <trkpt lat="53.7418060" lon="-2.9548360">
        <name>Park View Road</name>
      </trkpt>
      <trkpt lat="53.7418230" lon="-2.9547067">
        <name>Park View Road</name>
      </trkpt>
      <trkpt lat="53.7418400" lon="-2.9545773">
        <name>Park View Road</name>
      </trkpt>
      <trkpt lat="53.7418570" lon="-2.9544480">
        <name>Park View Road</name>
      </trkpt>
      <trkpt lat="53.7418778" lon="-2.9543220">
        <name>Park View Road</name>
      </trkpt>
      <trkpt lat="53.7418986" lon="-2.9541960">
        <name>Park View Road</name>
      </trkpt>
      <trkpt lat="53.7419194" lon="-2.9540700">
        <name>Park View Road</name>
      </trkpt>
      <trkpt lat="53.7419402" lon="-2.9539440">
        <name>Park View Road</name>
      </trkpt>
      <trkpt lat="53.7419610" lon="-2.9538180">
        <name>Park View Road</name>
      </trkpt>
      <trkpt lat="53.7419947" lon="-2.9536993">
        <name>Park View Road</name>
      </trkpt>
      <trkpt lat="53.7420283" lon="-2.9535807">
        <name>Park View Road</name>
      </trkpt>
      <trkpt lat="53.7420620" lon="-2.9534620">
        <name>Park View Road</name>
      </trkpt>
      <trkpt lat="53.7421003" lon="-2.9533337">
      </trkpt>
      <trkpt lat="53.7421387" lon="-2.9532053">
      </trkpt>
      <trkpt lat="53.7421770" lon="-2.9530770">
      </trkpt>
      <trkpt lat="53.7421950" lon="-2.9530190">
        <name>Brookfield Terrace</name>
      </trkpt>
      <trkpt lat="53.7422318" lon="-2.9528960">
        <name>Brookfield Terrace</name>
      </trkpt>
      <trkpt lat="53.7422686" lon="-2.9527730">
        <name>Brookfield Terrace</name>
      </trkpt>
      <trkpt lat="53.7423053" lon="-2.9526500">
        <name>Brookfield Terrace</name>
      </trkpt>
      <trkpt lat="53.7423421" lon="-2.9525270">
        <name>Brookfield Terrace</name>
      </trkpt>
      <trkpt lat="53.7423789" lon="-2.9524040">
        <name>Brookfield Terrace</name>
      </trkpt>
      <trkpt lat="53.7424157" lon="-2.9522810">
        <name>Brookfield Terrace</name>
      </trkpt>
      <trkpt lat="53.7424524" lon="-2.9521580">
        <name>Brookfield Terrace</name>
      </trkpt>
      <trkpt lat="53.7424892" lon="-2.9520350">
        <name>Brookfield Terrace</name>
      </trkpt>
      <trkpt lat="53.7425260" lon="-2.9519120">
        <name>Brookfield Terrace</name>
      </trkpt>
      <trkpt lat="53.7425626" lon="-2.9517942">
        <name>Brook Road</name>
      </trkpt>
      <trkpt lat="53.7425992" lon="-2.9516764">
        <name>Brook Road</name>
      </trkpt>
      <trkpt lat="53.7426358" lon="-2.9515586">
        <name>Brook Road</name>
      </trkpt>
      <trkpt lat="53.7426724" lon="-2.9514408">
        <name>Brook Road</name>
      </trkpt>
      <trkpt lat="53.7427090" lon="-2.9513230">
        <name>Brook Road</name>
      </trkpt>
      <trkpt lat="53.7427475" lon="-2.9512000">
        <name>Brook Road</name>
      </trkpt>
      <trkpt lat="53.7427860" lon="-2.9510770">
        <name>Brook Road</name>
      </trkpt>
      <trkpt lat="53.7428220" lon="-2.9509613">
        <name>Brook Road</name>
      </trkpt>
      <trkpt lat="53.7428580" lon="-2.9508457">
        <name>Brook Road</name>
      </trkpt>
      <trkpt lat="53.7428940" lon="-2.9507300">
        <name>Brook Road</name>
      </trkpt>
      <trkpt lat="53.7429200" lon="-2.9506460">
        <name>Brook Road</name>
      </trkpt>
      <trkpt lat="53.7429440" lon="-2.9505690">
        <name>Brook Road</name>
      </trkpt>
      <trkpt lat="53.7429783" lon="-2.9504408">
        <name>Brook Road</name>
      </trkpt>
      <trkpt lat="53.7430125" lon="-2.9503125">
        <name>Brook Road</name>
      </trkpt>
      <trkpt lat="53.7430467" lon="-2.9501842">
        <name>Brook Road</name>
      </trkpt>
      <trkpt lat="53.7430810" lon="-2.9500560">
        <name>Brook Road</name>
      </trkpt>
      <trkpt lat="53.7431149" lon="-2.9499240">
        <name>Brook Road</name>
      </trkpt>
      <trkpt lat="53.7431487" lon="-2.9497920">
        <name>Brook Road</name>
      </trkpt>
      <trkpt lat="53.7431826" lon="-2.9496600">
        <name>Brook Road</name>
      </trkpt>
      <trkpt lat="53.7432164" lon="-2.9495280">
        <name>Brook Road</name>
      </trkpt>
      <trkpt lat="53.7432503" lon="-2.9493960">
        <name>Brook Road</name>
      </trkpt>
      <trkpt lat="53.7432841" lon="-2.9492640">
        <name>Brook Road</name>
      </trkpt>
      <trkpt lat="53.7433180" lon="-2.9491320">
        <name>Brook Road</name>
      </trkpt>
      <trkpt lat="53.7433420" lon="-2.9490395">
        <name>Brook Road</name>
      </trkpt>
      <trkpt lat="53.7433660" lon="-2.9489470">
        <name>Brook Road</name>
      </trkpt>
      <trkpt lat="53.7434010" lon="-2.9488150">
        <name>Mythop Avenue</name>
      </trkpt>
      <trkpt lat="53.7434360" lon="-2.9486830">
        <name>Mythop Avenue</name>
      </trkpt>
      <trkpt lat="53.7434743" lon="-2.9485480">
        <name>Mythop Avenue</name>
      </trkpt>
      <trkpt lat="53.7435127" lon="-2.9484130">
        <name>Mythop Avenue</name>
      </trkpt>
      <trkpt lat="53.7435510" lon="-2.9482780">
        <name>Mythop Avenue</name>
      </trkpt>
      <trkpt lat="53.7435840" lon="-2.9481507">
        <name>Mythop Avenue</name>
      </trkpt>
      <trkpt lat="53.7436170" lon="-2.9480233">
        <name>Mythop Avenue</name>
      </trkpt>
      <trkpt lat="53.7436500" lon="-2.9478960">
        <name>Mythop Avenue</name>
      </trkpt>
      <trkpt lat="53.7436865" lon="-2.9477694">
        <name>Mythop Avenue</name>
      </trkpt>
      <trkpt lat="53.7437230" lon="-2.9476427">
        <name>Mythop Avenue</name>
      </trkpt>
      <trkpt lat="53.7437595" lon="-2.9475161">
        <name>Mythop Avenue</name>
      </trkpt>
      <trkpt lat="53.7437960" lon="-2.9473895">
        <name>Mythop Avenue</name>
      </trkpt>
      <trkpt lat="53.7438325" lon="-2.9472629">
        <name>Mythop Avenue</name>
      </trkpt>
      <trkpt lat="53.7438690" lon="-2.9471363">
        <name>Mythop Avenue</name>
      </trkpt>
      <trkpt lat="53.7439055" lon="-2.9470096">
        <name>Mythop Avenue</name>
      </trkpt>
      <trkpt lat="53.7439420" lon="-2.9468830">
        <name>Mythop Avenue</name>
      </trkpt>
      <trkpt lat="53.7439865" lon="-2.9467938">
        <name>Mythop Avenue</name>
      </trkpt>
      <trkpt lat="53.7440310" lon="-2.9467045">
        <name>Mythop Avenue</name>
      </trkpt>
      <trkpt lat="53.7440755" lon="-2.9466152">
        <name>Mythop Avenue</name>
      </trkpt>
      <trkpt lat="53.7441200" lon="-2.9465260">
        <name>Mythop Avenue</name>
      </trkpt>
      <trkpt lat="53.7441870" lon="-2.9464273">
        <name>Mythop Avenue</name>
      </trkpt>
      <trkpt lat="53.7442540" lon="-2.9463287">
        <name>Mythop Avenue</name>
      </trkpt>
      <trkpt lat="53.7443210" lon="-2.9462300">
        <name>Mythop Avenue</name>
      </trkpt>
      <trkpt lat="53.7443628" lon="-2.9461360">
        <name>Mythop Avenue</name>
      </trkpt>
      <trkpt lat="53.7444045" lon="-2.9460420">
        <name>Mythop Avenue</name>
      </trkpt>
      <trkpt lat="53.7444462" lon="-2.9459480">
        <name>Mythop Avenue</name>
      </trkpt>
      <trkpt lat="53.7444880" lon="-2.9458540">
        <name>Mythop Avenue</name>
      </trkpt>
      <trkpt lat="53.7445503" lon="-2.9458410">
        <name>Mythop Road</name>
      </trkpt>
      <trkpt lat="53.7446127" lon="-2.9458280">
        <name>Mythop Road</name>
      </trkpt>
      <trkpt lat="53.7446750" lon="-2.9458150">
        <name>Mythop Road</name>
      </trkpt>
      <trkpt lat="53.7447477" lon="-2.9458000">
        <name>Mythop Road</name>
      </trkpt>
      <trkpt lat="53.7448203" lon="-2.9457850">
        <name>Mythop Road</name>
      </trkpt>
      <trkpt lat="53.7448930" lon="-2.9457700">
        <name>Mythop Road</name>
      </trkpt>
      <trkpt lat="53.7449722" lon="-2.9457542">
        <name>Mythop Road</name>
      </trkpt>
      <trkpt lat="53.7450513" lon="-2.9457383">
        <name>Mythop Road</name>
      </trkpt>
      <trkpt lat="53.7451305" lon="-2.9457225">
        <name>Mythop Road</name>
      </trkpt>
      <trkpt lat="53.7452097" lon="-2.9457067">
        <name>Mythop Road</name>
      </trkpt>
      <trkpt lat="53.7452888" lon="-2.9456908">
        <name>Mythop Road</name>
      </trkpt>
      <trkpt lat="53.7453680" lon="-2.9456750">
        <name>Mythop Road</name>
      </trkpt>
      <trkpt lat="53.7454527" lon="-2.9456580">
        <name>Mythop Road</name>
      </trkpt>
      <trkpt lat="53.7455375" lon="-2.9456410">
        <name>Mythop Road</name>
      </trkpt>
      <trkpt lat="53.7456223" lon="-2.9456240">
        <name>Mythop Road</name>
      </trkpt>
      <trkpt lat="53.7457070" lon="-2.9456070">
        <name>Mythop Road</name>
      </trkpt>
      <trkpt lat="53.7457710" lon="-2.9455940">
        <name>Mythop Road</name>
      </trkpt>
      <trkpt lat="53.7457616" lon="-2.9454516">
        <name>Mythop Road</name>
      </trkpt>
      <trkpt lat="53.7457521" lon="-2.9453091">
        <name>Mythop Road</name>
      </trkpt>
      <trkpt lat="53.7457427" lon="-2.9451667">
        <name>Mythop Road</name>
      </trkpt>
      <trkpt lat="53.7457333" lon="-2.9450243">
        <name>Mythop Road</name>
      </trkpt>
      <trkpt lat="53.7457239" lon="-2.9448819">
        <name>Mythop Road</name>
      </trkpt>
      <trkpt lat="53.7457144" lon="-2.9447394">
        <name>Mythop Road</name>
      </trkpt>
      <trkpt lat="53.7457050" lon="-2.9445970">
        <name>Mythop Road</name>
      </trkpt>
      <trkpt lat="53.7456967" lon="-2.9444705">
        <name>Mythop Road</name>
      </trkpt>
      <trkpt lat="53.7456883" lon="-2.9443440">
        <name>Mythop Road</name>
      </trkpt>
      <trkpt lat="53.7456800" lon="-2.9442175">
        <name>Mythop Road</name>
      </trkpt>
      <trkpt lat="53.7456717" lon="-2.9440910">
        <name>Mythop Road</name>
      </trkpt>
      <trkpt lat="53.7456633" lon="-2.9439645">
        <name>Mythop Road</name>
      </trkpt>
      <trkpt lat="53.7456550" lon="-2.9438380">
        <name>Mythop Road</name>
      </trkpt>
      <trkpt lat="53.7457388" lon="-2.9438204">
        <name>Mythop Road</name>
      </trkpt>
      <trkpt lat="53.7458226" lon="-2.9438028">
        <name>Mythop Road</name>
      </trkpt>
      <trkpt lat="53.7459064" lon="-2.9437852">
        <name>Mythop Road</name>
      </trkpt>
      <trkpt lat="53.7459902" lon="-2.9437676">
        <name>Mythop Road</name>
      </trkpt>
      <trkpt lat="53.7460740" lon="-2.9437500">
        <name>Mythop Road</name>
      </trkpt>
      <trkpt lat="53.7461215" lon="-2.9437215">
        <name>Mythop Road</name>
      </trkpt>
      <trkpt lat="53.7461690" lon="-2.9436930">
        <name>Mythop Road</name>
      </trkpt>
      <trkpt lat="53.7462090" lon="-2.9436250">
        <name>Mythop Road</name>
      </trkpt>
      <trkpt lat="53.7462490" lon="-2.9435570">
        <name>Mythop Road</name>
      </trkpt>
      <trkpt lat="53.7462860" lon="-2.9434570">
        <name>Mythop Road</name>
      </trkpt>
      <trkpt lat="53.7463170" lon="-2.9433550">
        <name>Mythop Road</name>
      </trkpt>
      <trkpt lat="53.7463185" lon="-2.9432550">
        <name>Mythop Road</name>
      </trkpt>
      <trkpt lat="53.7463200" lon="-2.9431550">
        <name>Mythop Road</name>
      </trkpt>
      <trkpt lat="53.7463160" lon="-2.9430050">
        <name>Mythop Road</name>
      </trkpt>
      <trkpt lat="53.7463030" lon="-2.9428750">
        <name>Mythop Road</name>
      </trkpt>
      <trkpt lat="53.7462790" lon="-2.9428000">
        <name>Mythop Road</name>
      </trkpt>
      <trkpt lat="53.7462500" lon="-2.9427150">
        <name>Mythop Road</name>
      </trkpt>
      <trkpt lat="53.7461950" lon="-2.9426190">
        <name>Mythop Road</name>
      </trkpt>
      <trkpt lat="53.7461345" lon="-2.9425135">
        <name>Mythop Road</name>
      </trkpt>
      <trkpt lat="53.7460740" lon="-2.9424080">
        <name>Mythop Road</name>
      </trkpt>
      <trkpt lat="53.7460510" lon="-2.9423020">
        <name>Mythop Road</name>
      </trkpt>
      <trkpt lat="53.7460210" lon="-2.9421640">
        <name>Mythop Road</name>
      </trkpt>
      <trkpt lat="53.7460145" lon="-2.9420700">
        <name>Mythop Road</name>
      </trkpt>
      <trkpt lat="53.7460080" lon="-2.9419760">
        <name>Mythop Road</name>
      </trkpt>
      <trkpt lat="53.7460200" lon="-2.9418940">
        <name>Mythop Road</name>
      </trkpt>
      <trkpt lat="53.7460555" lon="-2.9417985">
        <name>Mythop Road</name>
      </trkpt>
      <trkpt lat="53.7460910" lon="-2.9417030">
        <name>Mythop Road</name>
      </trkpt>
      <trkpt lat="53.7461487" lon="-2.9416063">
        <name>Mythop Road</name>
      </trkpt>
      <trkpt lat="53.7462063" lon="-2.9415097">
        <name>Mythop Road</name>
      </trkpt>
      <trkpt lat="53.7462640" lon="-2.9414130">
        <name>Mythop Road</name>
      </trkpt>
      <trkpt lat="53.7463140" lon="-2.9413220">
        <name>Saltcotes Road</name>
      </trkpt>
      <trkpt lat="53.7463640" lon="-2.9412310">
        <name>Saltcotes Road</name>
      </trkpt>
      <trkpt lat="53.7463990" lon="-2.9411960">
        <name>Saltcotes Road</name>
      </trkpt>
      <trkpt lat="53.7464720" lon="-2.9411530">
        <name>Saltcotes Road</name>
      </trkpt>
      <trkpt lat="53.7464890" lon="-2.9410475">
        <name>Saltcotes Road</name>
      </trkpt>
      <trkpt lat="53.7465060" lon="-2.9409420">
        <name>Saltcotes Road</name>
      </trkpt>
      <trkpt lat="53.7465200" lon="-2.9408670">
        <name>Saltcotes Road</name>
      </trkpt>
      <trkpt lat="53.7465330" lon="-2.9408000">
        <name>Saltcotes Road</name>
      </trkpt>
      <trkpt lat="53.7465590" lon="-2.9406800">
        <name>Saltcotes Road</name>
      </trkpt>
      <trkpt lat="53.7465960" lon="-2.9406265">
        <name>Saltcotes Road</name>
      </trkpt>
      <trkpt lat="53.7466330" lon="-2.9405730">
        <name>Saltcotes Road</name>
      </trkpt>
      <trkpt lat="53.7466660" lon="-2.9405250">
        <name>Saltcotes Road</name>
      </trkpt>
      <trkpt lat="53.7467210" lon="-2.9404460">
        <name>Tewkesbury Drive</name>
      </trkpt>
      <trkpt lat="53.7467730" lon="-2.9403930">
        <name>Tewkesbury Drive</name>
      </trkpt>
      <trkpt lat="53.7468100" lon="-2.9403560">
        <name>Tewkesbury Drive</name>
      </trkpt>
      <trkpt lat="53.7468140" lon="-2.9403520">
        <name>Cotswold Road</name>
      </trkpt>
      <trkpt lat="53.7468450" lon="-2.9403290">
        <name>Cotswold Road</name>
      </trkpt>
      <trkpt lat="53.7468950" lon="-2.9403065">
        <name>Cotswold Road</name>
      </trkpt>
      <trkpt lat="53.7469450" lon="-2.9402840">
        <name>Cotswold Road</name>
      </trkpt>
      <trkpt lat="53.7469650" lon="-2.9402700">
        <name>Cotswold Road</name>
      </trkpt>
      <trkpt lat="53.7470360" lon="-2.9402215">
        <name>Cotswold Road</name>
      </trkpt>
      <trkpt lat="53.7471070" lon="-2.9401730">
        <name>Cotswold Road</name>
      </trkpt>
      <trkpt lat="53.7471673" lon="-2.9401163">
        <name>Cotswold Road</name>
      </trkpt>
      <trkpt lat="53.7472277" lon="-2.9400597">
        <name>Cotswold Road</name>
      </trkpt>
      <trkpt lat="53.7472880" lon="-2.9400030">
        <name>Cotswold Road</name>
      </trkpt>
      <trkpt lat="53.7473260" lon="-2.9399560">
        <name>Cotswold Road</name>
      </trkpt>
      <trkpt lat="53.7472880" lon="-2.9400030">
        <name>Cotswold Road</name>
      </trkpt>
      <trkpt lat="53.7472277" lon="-2.9400597">
        <name>Cotswold Road</name>
      </trkpt>
      <trkpt lat="53.7471673" lon="-2.9401163">
        <name>Cotswold Road</name>
      </trkpt>
      <trkpt lat="53.7471070" lon="-2.9401730">
        <name>Cotswold Road</name>
      </trkpt>
      <trkpt lat="53.7470360" lon="-2.9402215">
        <name>Cotswold Road</name>
      </trkpt>
      <trkpt lat="53.7469650" lon="-2.9402700">
        <name>Cotswold Road</name>
      </trkpt>
      <trkpt lat="53.7469450" lon="-2.9402840">
        <name>Cotswold Road</name>
      </trkpt>
      <trkpt lat="53.7468950" lon="-2.9403065">
        <name>Cotswold Road</name>
      </trkpt>
      <trkpt lat="53.7468450" lon="-2.9403290">
        <name>Cotswold Road</name>
      </trkpt>
      <trkpt lat="53.7468140" lon="-2.9403520">
        <name>Cotswold Road</name>
      </trkpt>
      <trkpt lat="53.7468100" lon="-2.9403560">
        <name>Cotswold Road</name>
      </trkpt>
      <trkpt lat="53.7467730" lon="-2.9403930">
        <name>Cotswold Road</name>
      </trkpt>
      <trkpt lat="53.7467210" lon="-2.9404460">
        <name>Cotswold Road</name>
      </trkpt>
      <trkpt lat="53.7466660" lon="-2.9405250">
        <name>Cotswold Road</name>
      </trkpt>
      <trkpt lat="53.7466330" lon="-2.9405730">
        <name>Cotswold Road</name>
      </trkpt>
      <trkpt lat="53.7465960" lon="-2.9406265">
        <name>Cotswold Road</name>
      </trkpt>
      <trkpt lat="53.7465590" lon="-2.9406800">
        <name>Cotswold Road</name>
      </trkpt>
      <trkpt lat="53.7465330" lon="-2.9408000">
        <name>Cotswold Road</name>
      </trkpt>
      <trkpt lat="53.7465200" lon="-2.9408670">
        <name>Cotswold Road</name>
      </trkpt>
      <trkpt lat="53.7465060" lon="-2.9409420">
        <name>Cotswold Road</name>
      </trkpt>
      <trkpt lat="53.7464890" lon="-2.9410475">
        <name>Cotswold Road</name>
      </trkpt>
      <trkpt lat="53.7464720" lon="-2.9411530">
        <name>Cotswold Road</name>
      </trkpt>
      <trkpt lat="53.7463990" lon="-2.9411960">
        <name>Cotswold Road</name>
      </trkpt>
      <trkpt lat="53.7463640" lon="-2.9412310">
        <name>Cotswold Road</name>
      </trkpt>
      <trkpt lat="53.7463140" lon="-2.9413220">
        <name>Cotswold Road</name>
      </trkpt>
      <trkpt lat="53.7462640" lon="-2.9414130">
        <name>Cotswold Road</name>
      </trkpt>
      <trkpt lat="53.7462063" lon="-2.9415097">
        <name>Cheviot Avenue</name>
      </trkpt>
      <trkpt lat="53.7461487" lon="-2.9416063">
        <name>Cheviot Avenue</name>
      </trkpt>
      <trkpt lat="53.7460910" lon="-2.9417030">
        <name>Cheviot Avenue</name>
      </trkpt>
      <trkpt lat="53.7460555" lon="-2.9417985">
        <name>Cheviot Avenue</name>
      </trkpt>
      <trkpt lat="53.7460200" lon="-2.9418940">
        <name>Cheviot Avenue</name>
      </trkpt>
      <trkpt lat="53.7460080" lon="-2.9419760">
        <name>Cheviot Avenue</name>
      </trkpt>
      <trkpt lat="53.7460145" lon="-2.9420700">
        <name>Cheviot Avenue</name>
      </trkpt>
      <trkpt lat="53.7460210" lon="-2.9421640">
        <name>Cheviot Avenue</name>
      </trkpt>
      <trkpt lat="53.7460475" lon="-2.9422860">
        <name>Cheviot Avenue</name>
      </trkpt>
      <trkpt lat="53.7460740" lon="-2.9424080">
        <name>Cheviot Avenue</name>
      </trkpt>
      <trkpt lat="53.7461345" lon="-2.9425135">
        <name>Cheviot Avenue</name>
      </trkpt>
      <trkpt lat="53.7461950" lon="-2.9426190">
        <name>Cheviot Avenue</name>
      </trkpt>
      <trkpt lat="53.7462500" lon="-2.9427150">
        <name>Cheviot Avenue</name>
      </trkpt>
      <trkpt lat="53.7462790" lon="-2.9428000">
        <name>Cheviot Avenue</name>
      </trkpt>
      <trkpt lat="53.7463030" lon="-2.9428750">
        <name>Cheviot Avenue</name>
      </trkpt>
      <trkpt lat="53.7463160" lon="-2.9430050">
        <name>Cheviot Avenue</name>
      </trkpt>
      <trkpt lat="53.7463200" lon="-2.9431550">
        <name>Cheviot Avenue</name>
      </trkpt>
      <trkpt lat="53.7463185" lon="-2.9432550">
        <name>Cheviot Avenue</name>
      </trkpt>
      <trkpt lat="53.7463170" lon="-2.9433550">
        <name>Cheviot Avenue</name>
      </trkpt>
      <trkpt lat="53.7462860" lon="-2.9434570">
        <name>Cheviot Avenue</name>
      </trkpt>
      <trkpt lat="53.7462490" lon="-2.9435570">
        <name>Cheviot Avenue</name>
      </trkpt>
      <trkpt lat="53.7462090" lon="-2.9436250">
        <name>Cheviot Avenue</name>
      </trkpt>
      <trkpt lat="53.7461690" lon="-2.9436930">
        <name>Cheviot Avenue</name>
      </trkpt>
      <trkpt lat="53.7461215" lon="-2.9437215">
        <name>Cheviot Avenue</name>
      </trkpt>
      <trkpt lat="53.7460740" lon="-2.9437500">
        <name>Cheviot Avenue</name>
      </trkpt>
      <trkpt lat="53.7459902" lon="-2.9437676">
        <name>Cheviot Avenue</name>
      </trkpt>
      <trkpt lat="53.7459064" lon="-2.9437852">
        <name>Cheviot Avenue</name>
      </trkpt>
      <trkpt lat="53.7458226" lon="-2.9438028">
        <name>Cheviot Avenue</name>
      </trkpt>
      <trkpt lat="53.7457388" lon="-2.9438204">
        <name>Cheviot Avenue</name>
      </trkpt>
      <trkpt lat="53.7456550" lon="-2.9438380">
        <name>Cheviot Avenue</name>
      </trkpt>
      <trkpt lat="53.7456633" lon="-2.9439645">
        <name>Cheviot Avenue</name>
      </trkpt>
      <trkpt lat="53.7456717" lon="-2.9440910">
        <name>Cheviot Avenue</name>
      </trkpt>
      <trkpt lat="53.7456800" lon="-2.9442175">
        <name>Cheviot Avenue</name>
      </trkpt>
      <trkpt lat="53.7456883" lon="-2.9443440">
        <name>Cheviot Avenue</name>
      </trkpt>
      <trkpt lat="53.7456967" lon="-2.9444705">
        <name>Cheviot Avenue</name>
      </trkpt>
      <trkpt lat="53.7457050" lon="-2.9445970">
        <name>Cheviot Avenue</name>
      </trkpt>
      <trkpt lat="53.7457144" lon="-2.9447394">
        <name>Cheviot Avenue</name>
      </trkpt>
      <trkpt lat="53.7457239" lon="-2.9448819">
        <name>Cheviot Avenue</name>
      </trkpt>
      <trkpt lat="53.7457333" lon="-2.9450243">
        <name>Cheviot Avenue</name>
      </trkpt>
      <trkpt lat="53.7457427" lon="-2.9451667">
        <name>Cheviot Avenue</name>
      </trkpt>
      <trkpt lat="53.7457521" lon="-2.9453091">
        <name>Cheviot Avenue</name>
      </trkpt>
      <trkpt lat="53.7457616" lon="-2.9454516">
        <name>Cheviot Avenue</name>
      </trkpt>
      <trkpt lat="53.7457710" lon="-2.9455940">
        <name>Cheviot Avenue</name>
      </trkpt>
      <trkpt lat="53.7457070" lon="-2.9456070">
        <name>Cheviot Avenue</name>
      </trkpt>
      <trkpt lat="53.7456256" lon="-2.9456233">
        <name>Cheviot Avenue</name>
      </trkpt>
      <trkpt lat="53.7455442" lon="-2.9456396">
        <name>Cheviot Avenue</name>
      </trkpt>
      <trkpt lat="53.7454628" lon="-2.9456559">
        <name>Cheviot Avenue</name>
      </trkpt>
      <trkpt lat="53.7453814" lon="-2.9456722">
        <name>Cheviot Avenue</name>
      </trkpt>
      <trkpt lat="53.7453000" lon="-2.9456885">
        <name>Cheviot Avenue</name>
      </trkpt>
      <trkpt lat="53.7452186" lon="-2.9457048">
        <name>Cheviot Avenue</name>
      </trkpt>
      <trkpt lat="53.7451372" lon="-2.9457211">
        <name>Cheviot Avenue</name>
      </trkpt>
      <trkpt lat="53.7450558" lon="-2.9457374">
        <name>Cheviot Avenue</name>
      </trkpt>
      <trkpt lat="53.7449744" lon="-2.9457537">
        <name>Cheviot Avenue</name>
      </trkpt>
      <trkpt lat="53.7448930" lon="-2.9457700">
        <name>Cheviot Avenue</name>
      </trkpt>
      <trkpt lat="53.7448203" lon="-2.9457850">
        <name>Cheviot Avenue</name>
      </trkpt>
      <trkpt lat="53.7447477" lon="-2.9458000">
        <name>Cheviot Avenue</name>
      </trkpt>
      <trkpt lat="53.7446750" lon="-2.9458150">
        <name>Cheviot Avenue</name>
      </trkpt>
      <trkpt lat="53.7446127" lon="-2.9458280">
        <name>Cheviot Avenue</name>
      </trkpt>
      <trkpt lat="53.7445503" lon="-2.9458410">
        <name>Cheviot Avenue</name>
      </trkpt>
      <trkpt lat="53.7444880" lon="-2.9458540">
        <name>Cheviot Avenue</name>
      </trkpt>
      <trkpt lat="53.7444228" lon="-2.9457494">
        <name>Cheviot Avenue</name>
      </trkpt>
      <trkpt lat="53.7443576" lon="-2.9456448">
        <name>Cheviot Avenue</name>
      </trkpt>
      <trkpt lat="53.7442924" lon="-2.9455402">
        <name>Cheviot Avenue</name>
      </trkpt>
      <trkpt lat="53.7442272" lon="-2.9454356">
        <name>Cheviot Avenue</name>
      </trkpt>
      <trkpt lat="53.7441620" lon="-2.9453310">
        <name>Cheviot Avenue</name>
      </trkpt>
      <trkpt lat="53.7440989" lon="-2.9452421">
        <name>Cheviot Avenue</name>
      </trkpt>
      <trkpt lat="53.7440357" lon="-2.9451533">
        <name>Cheviot Avenue</name>
      </trkpt>
      <trkpt lat="53.7439726" lon="-2.9450644">
        <name>Cheviot Avenue</name>
      </trkpt>
      <trkpt lat="53.7439094" lon="-2.9449756">
        <name>Cheviot Avenue</name>
      </trkpt>
      <trkpt lat="53.7438463" lon="-2.9448867">
        <name>Cheviot Avenue</name>
      </trkpt>
      <trkpt lat="53.7437831" lon="-2.9447979">
        <name>Cheviot Avenue</name>
      </trkpt>
      <trkpt lat="53.7437200" lon="-2.9447090">
        <name>Cheviot Avenue</name>
      </trkpt>
      <trkpt lat="53.7436910" lon="-2.9446690">
        <name>Cheviot Avenue</name>
      </trkpt>
      <trkpt lat="53.7436383" lon="-2.9445940">
        <name>Cheviot Avenue</name>
      </trkpt>
      <trkpt lat="53.7435857" lon="-2.9445190">
        <name>Cheviot Avenue</name>
      </trkpt>
      <trkpt lat="53.7435330" lon="-2.9444440">
        <name>Cheviot Avenue</name>
      </trkpt>
      <trkpt lat="53.7435874" lon="-2.9443309">
        <name>Cheviot Avenue</name>
      </trkpt>
      <trkpt lat="53.7436419" lon="-2.9442177">
        <name>Cheviot Avenue</name>
      </trkpt>
      <trkpt lat="53.7436963" lon="-2.9441046">
        <name>Cheviot Avenue</name>
      </trkpt>
      <trkpt lat="53.7437507" lon="-2.9439914">
        <name>Cheviot Avenue</name>
      </trkpt>
      <trkpt lat="53.7438051" lon="-2.9438783">
        <name>Cheviot Avenue</name>
      </trkpt>
      <trkpt lat="53.7438596" lon="-2.9437651">
        <name>Cheviot Avenue</name>
      </trkpt>
      <trkpt lat="53.7439140" lon="-2.9436520">
        <name>Cheviot Avenue</name>
      </trkpt>
      <trkpt lat="53.7438596" lon="-2.9437651">
        <name>Cheviot Avenue</name>
      </trkpt>
      <trkpt lat="53.7438051" lon="-2.9438783">
        <name>Cheviot Avenue</name>
      </trkpt>
      <trkpt lat="53.7437507" lon="-2.9439914">
        <name>Cheviot Avenue</name>
      </trkpt>
      <trkpt lat="53.7436963" lon="-2.9441046">
        <name>Cheviot Avenue</name>
      </trkpt>
      <trkpt lat="53.7436419" lon="-2.9442177">
        <name>Cheviot Avenue</name>
      </trkpt>
      <trkpt lat="53.7435874" lon="-2.9443309">
        <name>Cheviot Avenue</name>
      </trkpt>
      <trkpt lat="53.7435330" lon="-2.9444440">
        <name>Cheviot Avenue</name>
      </trkpt>
      <trkpt lat="53.7434753" lon="-2.9443627">
        <name>Cheviot Avenue</name>
      </trkpt>
      <trkpt lat="53.7434177" lon="-2.9442813">
        <name>Cheviot Avenue</name>
      </trkpt>
      <trkpt lat="53.7433600" lon="-2.9442000">
        <name>Cheviot Avenue</name>
      </trkpt>
      <trkpt lat="53.7433235" lon="-2.9441465">
        <name>Cheviot Avenue</name>
      </trkpt>
      <trkpt lat="53.7432870" lon="-2.9440930">
        <name>Cheviot Avenue</name>
      </trkpt>
      <trkpt lat="53.7432240" lon="-2.9439990">
        <name>Cheviot Avenue</name>
      </trkpt>
      <trkpt lat="53.7431650" lon="-2.9439187">
        <name>Cheviot Avenue</name>
      </trkpt>
      <trkpt lat="53.7431060" lon="-2.9438383">
        <name>Cheviot Avenue</name>
      </trkpt>
      <trkpt lat="53.7430470" lon="-2.9437580">
        <name>Cheviot Avenue</name>
      </trkpt>
      <trkpt lat="53.7429990" lon="-2.9436920">
        <name>Cheviot Avenue</name>
      </trkpt>
      <trkpt lat="53.7429415" lon="-2.9436160">
        <name>Cheviot Avenue</name>
      </trkpt>
      <trkpt lat="53.7428840" lon="-2.9435400">
        <name>Cheviot Avenue</name>
      </trkpt>
      <trkpt lat="53.7429137" lon="-2.9434370">
        <name>Cheviot Avenue</name>
      </trkpt>
      <trkpt lat="53.7429433" lon="-2.9433340">
        <name>Cheviot Avenue</name>
      </trkpt>
      <trkpt lat="53.7429730" lon="-2.9432310">
        <name>Cheviot Avenue</name>
      </trkpt>
      <trkpt lat="53.7430110" lon="-2.9431133">
        <name>Cotswold Road</name>
      </trkpt>
      <trkpt lat="53.7430490" lon="-2.9429956">
        <name>Cotswold Road</name>
      </trkpt>
      <trkpt lat="53.7430870" lon="-2.9428779">
        <name>Cotswold Road</name>
      </trkpt>
      <trkpt lat="53.7431250" lon="-2.9427601">
        <name>Cotswold Road</name>
      </trkpt>
      <trkpt lat="53.7431630" lon="-2.9426424">
        <name>Cotswold Road</name>
      </trkpt>
      <trkpt lat="53.7432010" lon="-2.9425247">
        <name>Cotswold Road</name>
      </trkpt>
      <trkpt lat="53.7432390" lon="-2.9424070">
        <name>Cotswold Road</name>
      </trkpt>
      <trkpt lat="53.7432753" lon="-2.9422893">
        <name>Cotswold Road</name>
      </trkpt>
      <trkpt lat="53.7433117" lon="-2.9421717">
        <name>Cotswold Road</name>
      </trkpt>
      <trkpt lat="53.7433480" lon="-2.9420540">
        <name>Cotswold Road</name>
      </trkpt>
      <trkpt lat="53.7433843" lon="-2.9419363">
        <name>Cotswold Road</name>
      </trkpt>
      <trkpt lat="53.7434207" lon="-2.9418187">
        <name>Cotswold Road</name>
      </trkpt>
      <trkpt lat="53.7434570" lon="-2.9417010">
        <name>Cotswold Road</name>
      </trkpt>
      <trkpt lat="53.7434700" lon="-2.9416580">
        <name>Cotswold Road</name>
      </trkpt>
      <trkpt lat="53.7435048" lon="-2.9415456">
        <name>Cotswold Road</name>
      </trkpt>
      <trkpt lat="53.7435396" lon="-2.9414332">
        <name>Cotswold Road</name>
      </trkpt>
      <trkpt lat="53.7435744" lon="-2.9413208">
        <name>Cotswold Road</name>
      </trkpt>
      <trkpt lat="53.7436092" lon="-2.9412084">
        <name>Cotswold Road</name>
      </trkpt>
      <trkpt lat="53.7436440" lon="-2.9410960">
        <name>Cotswold Road</name>
      </trkpt>
      <trkpt lat="53.7436920" lon="-2.9411380">
        <name>Cotswold Road</name>
      </trkpt>
      <trkpt lat="53.7437620" lon="-2.9411984">
        <name>Cotswold Road</name>
      </trkpt>
      <trkpt lat="53.7438320" lon="-2.9412589">
        <name>Cotswold Road</name>
      </trkpt>
      <trkpt lat="53.7439020" lon="-2.9413193">
        <name>Cotswold Road</name>
      </trkpt>
      <trkpt lat="53.7439720" lon="-2.9413797">
        <name>Cotswold Road</name>
      </trkpt>
      <trkpt lat="53.7440420" lon="-2.9414401">
        <name>Cotswold Road</name>
      </trkpt>
      <trkpt lat="53.7441120" lon="-2.9415006">
        <name>Cotswold Road</name>
      </trkpt>
      <trkpt lat="53.7441820" lon="-2.9415610">
        <name>Cotswold Road</name>
      </trkpt>
      <trkpt lat="53.7442226" lon="-2.9414265">
        <name>Cotswold Road</name>
      </trkpt>
      <trkpt lat="53.7442632" lon="-2.9412920">
        <name>Cotswold Road</name>
      </trkpt>
      <trkpt lat="53.7443038" lon="-2.9411575">
        <name>Cotswold Road</name>
      </trkpt>
      <trkpt lat="53.7443443" lon="-2.9410230">
        <name>Cotswold Road</name>
      </trkpt>
      <trkpt lat="53.7443849" lon="-2.9408885">
        <name>Cotswold Road</name>
      </trkpt>
      <trkpt lat="53.7444255" lon="-2.9407540">
        <name>Cotswold Road</name>
      </trkpt>
      <trkpt lat="53.7444661" lon="-2.9406195">
        <name>Cotswold Road</name>
      </trkpt>
      <trkpt lat="53.7445067" lon="-2.9404850">
        <name>Cotswold Road</name>
      </trkpt>
      <trkpt lat="53.7445473" lon="-2.9403505">
        <name>Cotswold Road</name>
      </trkpt>
      <trkpt lat="53.7445878" lon="-2.9402160">
        <name>Cotswold Road</name>
      </trkpt>
      <trkpt lat="53.7446284" lon="-2.9400815">
        <name>Cotswold Road</name>
      </trkpt>
      <trkpt lat="53.7446690" lon="-2.9399470">
        <name>Cotswold Road</name>
      </trkpt>
      <trkpt lat="53.7446780" lon="-2.9399540">
        <name>Cotswold Road</name>
      </trkpt>
      <trkpt lat="53.7446690" lon="-2.9399470">
        <name>Cotswold Road</name>
      </trkpt>
      <trkpt lat="53.7446284" lon="-2.9400815">
        <name>Cotswold Road</name>
      </trkpt>
      <trkpt lat="53.7445878" lon="-2.9402160">
        <name>Cotswold Road</name>
      </trkpt>
      <trkpt lat="53.7445473" lon="-2.9403505">
        <name>Cotswold Road</name>
      </trkpt>
      <trkpt lat="53.7445067" lon="-2.9404850">
        <name>Cotswold Road</name>
      </trkpt>
      <trkpt lat="53.7444661" lon="-2.9406195">
        <name>Cotswold Road</name>
      </trkpt>
      <trkpt lat="53.7444255" lon="-2.9407540">
        <name>Cotswold Road</name>
      </trkpt>
      <trkpt lat="53.7443849" lon="-2.9408885">
        <name>Cotswold Road</name>
      </trkpt>
      <trkpt lat="53.7443443" lon="-2.9410230">
        <name>Cotswold Road</name>
      </trkpt>
      <trkpt lat="53.7443038" lon="-2.9411575">
        <name>Cotswold Road</name>
      </trkpt>
      <trkpt lat="53.7442632" lon="-2.9412920">
        <name>Cotswold Road</name>
      </trkpt>
      <trkpt lat="53.7442226" lon="-2.9414265">
        <name>Cotswold Road</name>
      </trkpt>
      <trkpt lat="53.7441820" lon="-2.9415610">
        <name>Cotswold Road</name>
      </trkpt>
      <trkpt lat="53.7441120" lon="-2.9415006">
        <name>Cotswold Road</name>
      </trkpt>
      <trkpt lat="53.7440420" lon="-2.9414401">
        <name>Cotswold Road</name>
      </trkpt>
      <trkpt lat="53.7439720" lon="-2.9413797">
        <name>Cotswold Road</name>
      </trkpt>
      <trkpt lat="53.7439020" lon="-2.9413193">
        <name>Cotswold Road</name>
      </trkpt>
      <trkpt lat="53.7438320" lon="-2.9412589">
        <name>Cotswold Road</name>
      </trkpt>
      <trkpt lat="53.7437620" lon="-2.9411984">
        <name>Cotswold Road</name>
      </trkpt>
      <trkpt lat="53.7436920" lon="-2.9411380">
        <name>Cotswold Road</name>
      </trkpt>
      <trkpt lat="53.7436440" lon="-2.9410960">
        <name>Cotswold Road</name>
      </trkpt>
      <trkpt lat="53.7436092" lon="-2.9412084">
        <name>Cotswold Road</name>
      </trkpt>
      <trkpt lat="53.7435744" lon="-2.9413208">
        <name>Cotswold Road</name>
      </trkpt>
      <trkpt lat="53.7435396" lon="-2.9414332">
        <name>Cotswold Road</name>
      </trkpt>
      <trkpt lat="53.7435048" lon="-2.9415456">
        <name>Cotswold Road</name>
      </trkpt>
      <trkpt lat="53.7434700" lon="-2.9416580">
        <name>Cotswold Road</name>
      </trkpt>
      <trkpt lat="53.7434570" lon="-2.9417010">
        <name>Cotswold Road</name>
      </trkpt>
      <trkpt lat="53.7434207" lon="-2.9418187">
        <name>Cotswold Road</name>
      </trkpt>
      <trkpt lat="53.7433843" lon="-2.9419363">
        <name>Cotswold Road</name>
      </trkpt>
      <trkpt lat="53.7433480" lon="-2.9420540">
        <name>Cotswold Road</name>
      </trkpt>
      <trkpt lat="53.7433117" lon="-2.9421717">
        <name>Cotswold Road</name>
      </trkpt>
      <trkpt lat="53.7432753" lon="-2.9422893">
        <name>Cotswold Road</name>
      </trkpt>
      <trkpt lat="53.7432390" lon="-2.9424070">
        <name>Cotswold Road</name>
      </trkpt>
      <trkpt lat="53.7432010" lon="-2.9425247">
        <name>Cotswold Road</name>
      </trkpt>
      <trkpt lat="53.7431630" lon="-2.9426424">
        <name>Cotswold Road</name>
      </trkpt>
      <trkpt lat="53.7431250" lon="-2.9427601">
        <name>Cotswold Road</name>
      </trkpt>
      <trkpt lat="53.7430870" lon="-2.9428779">
        <name>Cotswold Road</name>
      </trkpt>
      <trkpt lat="53.7430490" lon="-2.9429956">
        <name>Cotswold Road</name>
      </trkpt>
      <trkpt lat="53.7430110" lon="-2.9431133">
        <name>Cotswold Road</name>
      </trkpt>
      <trkpt lat="53.7429730" lon="-2.9432310">
        <name>Cotswold Road</name>
      </trkpt>
      <trkpt lat="53.7429240" lon="-2.9431890">
        <name>Cotswold Road</name>
      </trkpt>
      <trkpt lat="53.7428563" lon="-2.9431320">
        <name>Cotswold Road</name>
      </trkpt>
      <trkpt lat="53.7427887" lon="-2.9430750">
        <name>Cotswold Road</name>
      </trkpt>
      <trkpt lat="53.7427210" lon="-2.9430180">
        <name>Cotswold Road</name>
      </trkpt>
      <trkpt lat="53.7426533" lon="-2.9429610">
        <name>Cotswold Road</name>
      </trkpt>
      <trkpt lat="53.7425857" lon="-2.9429040">
        <name>Cotswold Road</name>
      </trkpt>
      <trkpt lat="53.7425180" lon="-2.9428470">
        <name>Cotswold Road</name>
      </trkpt>
      <trkpt lat="53.7424430" lon="-2.9427837">
        <name>Cotswold Road</name>
      </trkpt>
      <trkpt lat="53.7423680" lon="-2.9427203">
        <name>Cotswold Road</name>
      </trkpt>
      <trkpt lat="53.7422930" lon="-2.9426570">
        <name>Cotswold Road</name>
      </trkpt>
      <trkpt lat="53.7422610" lon="-2.9426540">
        <name>Cotswold Road</name>
      </trkpt>
      <trkpt lat="53.7422340" lon="-2.9426870">
        <name>Cotswold Road</name>
      </trkpt>
      <trkpt lat="53.7421637" lon="-2.9427783">
        <name>Cotswold Road</name>
      </trkpt>
      <trkpt lat="53.7420933" lon="-2.9428697">
        <name>Cotswold Road</name>
      </trkpt>
      <trkpt lat="53.7420230" lon="-2.9429610">
        <name>Cotswold Road</name>
      </trkpt>
      <trkpt lat="53.7419940" lon="-2.9430973">
        <name>Tewkesbury Drive</name>
      </trkpt>
      <trkpt lat="53.7419650" lon="-2.9432337">
        <name>Tewkesbury Drive</name>
      </trkpt>
      <trkpt lat="53.7419360" lon="-2.9433700">
        <name>Tewkesbury Drive</name>
      </trkpt>
      <trkpt lat="53.7419080" lon="-2.9435015">
        <name>Tewkesbury Drive</name>
      </trkpt>
      <trkpt lat="53.7418800" lon="-2.9436330">
        <name>Tewkesbury Drive</name>
      </trkpt>
      <trkpt lat="53.7418520" lon="-2.9437645">
        <name>Tewkesbury Drive</name>
      </trkpt>
      <trkpt lat="53.7418240" lon="-2.9438960">
        <name>Tewkesbury Drive</name>
      </trkpt>
      <trkpt lat="53.7417960" lon="-2.9440275">
        <name>Tewkesbury Drive</name>
      </trkpt>
      <trkpt lat="53.7417680" lon="-2.9441590">
        <name>Tewkesbury Drive</name>
      </trkpt>
      <trkpt lat="53.7417400" lon="-2.9442905">
        <name>Tewkesbury Drive</name>
      </trkpt>
      <trkpt lat="53.7417120" lon="-2.9444220">
        <name>Tewkesbury Drive</name>
      </trkpt>
      <trkpt lat="53.7416840" lon="-2.9445535">
        <name>Tewkesbury Drive</name>
      </trkpt>
      <trkpt lat="53.7416560" lon="-2.9446850">
        <name>Tewkesbury Drive</name>
      </trkpt>
      <trkpt lat="53.7416280" lon="-2.9448165">
        <name>Tewkesbury Drive</name>
      </trkpt>
      <trkpt lat="53.7416000" lon="-2.9449480">
        <name>Tewkesbury Drive</name>
      </trkpt>
      <trkpt lat="53.7415310" lon="-2.9449670">
        <name>Tewkesbury Drive</name>
      </trkpt>
      <trkpt lat="53.7414670" lon="-2.9449850">
        <name>Saltcotes Road</name>
      </trkpt>
      <trkpt lat="53.7413820" lon="-2.9450030">
        <name>Saltcotes Road</name>
      </trkpt>
      <trkpt lat="53.7412970" lon="-2.9450210">
        <name>Saltcotes Road</name>
      </trkpt>
      <trkpt lat="53.7412330" lon="-2.9450380">
        <name>Saltcotes Road</name>
      </trkpt>
      <trkpt lat="53.7411940" lon="-2.9450480">
        <name>Saltcotes Road</name>
      </trkpt>
      <trkpt lat="53.7411315" lon="-2.9450645">
        <name>Saltcotes Road</name>
      </trkpt>
      <trkpt lat="53.7410690" lon="-2.9450810">
        <name>Saltcotes Road</name>
      </trkpt>
      <trkpt lat="53.7410220" lon="-2.9450900">
        <name>Saltcotes Road</name>
      </trkpt>
      <trkpt lat="53.7410145" lon="-2.9449580">
        <name>Saltcotes Road</name>
      </trkpt>
      <trkpt lat="53.7410070" lon="-2.9448260">
        <name>Saltcotes Road</name>
      </trkpt>
      <trkpt lat="53.7409985" lon="-2.9446817">
        <name>Saltcotes Road</name>
      </trkpt>
      <trkpt lat="53.7409900" lon="-2.9445375">
        <name>Saltcotes Road</name>
      </trkpt>
      <trkpt lat="53.7409815" lon="-2.9443933">
        <name>Saltcotes Road</name>
      </trkpt>
      <trkpt lat="53.7409730" lon="-2.9442490">
        <name>Saltcotes Road</name>
      </trkpt>
      <trkpt lat="53.7409720" lon="-2.9442170">
        <name>Saltcotes Road</name>
      </trkpt>
      <trkpt lat="53.7409680" lon="-2.9440940">
        <name>Saltcotes Road</name>
      </trkpt>
      <trkpt lat="53.7409640" lon="-2.9439710">
        <name>Saltcotes Road</name>
      </trkpt>
      <trkpt lat="53.7409600" lon="-2.9438480">
        <name>Saltcotes Road</name>
      </trkpt>
      <trkpt lat="53.7409560" lon="-2.9437250">
        <name>Saltcotes Road</name>
      </trkpt>
      <trkpt lat="53.7409513" lon="-2.9435907">
        <name>Saltcotes Place</name>
      </trkpt>
      <trkpt lat="53.7409467" lon="-2.9434563">
        <name>Saltcotes Place</name>
      </trkpt>
      <trkpt lat="53.7409420" lon="-2.9433220">
        <name>Saltcotes Place</name>
      </trkpt>
      <trkpt lat="53.7409420" lon="-2.9432005">
        <name>Saltcotes Place</name>
      </trkpt>
      <trkpt lat="53.7409420" lon="-2.9430790">
        <name>Saltcotes Place</name>
      </trkpt>
      <trkpt lat="53.7409433" lon="-2.9429760">
        <name>Saltcotes Place</name>
      </trkpt>
      <trkpt lat="53.7409447" lon="-2.9428730">
        <name>Saltcotes Place</name>
      </trkpt>
      <trkpt lat="53.7409460" lon="-2.9427700">
        <name>Saltcotes Place</name>
      </trkpt>
      <trkpt lat="53.7409490" lon="-2.9426535">
        <name>Saltcotes Place</name>
      </trkpt>
      <trkpt lat="53.7409520" lon="-2.9425370">
        <name>Saltcotes Place</name>
      </trkpt>
      <trkpt lat="53.7409570" lon="-2.9423890">
        <name>Saltcotes Place</name>
      </trkpt>
      <trkpt lat="53.7409595" lon="-2.9423115">
        <name>Saltcotes Place</name>
      </trkpt>
      <trkpt lat="53.7409620" lon="-2.9422340">
        <name>Saltcotes Place</name>
      </trkpt>
      <trkpt lat="53.7409722" lon="-2.9420873">
        <name>Saltcotes Road</name>
      </trkpt>
      <trkpt lat="53.7409825" lon="-2.9419405">
        <name>Saltcotes Road</name>
      </trkpt>
      <trkpt lat="53.7409928" lon="-2.9417937">
        <name>Saltcotes Road</name>
      </trkpt>
      <trkpt lat="53.7410030" lon="-2.9416470">
        <name>Saltcotes Road</name>
      </trkpt>
      <trkpt lat="53.7410113" lon="-2.9415437">
        <name>Saltcotes Road</name>
      </trkpt>
      <trkpt lat="53.7410197" lon="-2.9414403">
        <name>Saltcotes Road</name>
      </trkpt>
      <trkpt lat="53.7410280" lon="-2.9413370">
        <name>Saltcotes Road</name>
      </trkpt>
      <trkpt lat="53.7410420" lon="-2.9412090">
        <name>Saltcotes Road</name>
      </trkpt>
      <trkpt lat="53.7410560" lon="-2.9410810">
        <name>Saltcotes Road</name>
      </trkpt>
      <trkpt lat="53.7410280" lon="-2.9410740">
        <name>Saltcotes Road</name>
      </trkpt>
      <trkpt lat="53.7409705" lon="-2.9410590">
        <name>Saltcotes Road</name>
      </trkpt>
      <trkpt lat="53.7409130" lon="-2.9410440">
        <name>Saltcotes Road</name>
      </trkpt>
      <trkpt lat="53.7408340" lon="-2.9410030">
        <name>Saltcotes Road</name>
      </trkpt>
      <trkpt lat="53.7407900" lon="-2.9409640">
        <name>Saltcotes Road</name>
      </trkpt>
      <trkpt lat="53.7407820" lon="-2.9409430">
        <name>Preston Road</name>
      </trkpt>
      <trkpt lat="53.7407600" lon="-2.9408660">
        <name>Preston Road</name>
      </trkpt>
      <trkpt lat="53.7407557" lon="-2.9407487">
        <name>Preston Road</name>
      </trkpt>
      <trkpt lat="53.7407513" lon="-2.9406313">
        <name>Preston Road</name>
      </trkpt>
      <trkpt lat="53.7407470" lon="-2.9405140">
        <name>Preston Road</name>
      </trkpt>
      <trkpt lat="53.7407415" lon="-2.9403940">
        <name>Preston Road</name>
      </trkpt>
      <trkpt lat="53.7407360" lon="-2.9402740">
        <name>Preston Road</name>
      </trkpt>
      <trkpt lat="53.7406960" lon="-2.9401660">
        <name>Preston Road</name>
      </trkpt>
      <trkpt lat="53.7406290" lon="-2.9400930">
        <name>Preston Road</name>
      </trkpt>
      <trkpt lat="53.7405510" lon="-2.9400670">
        <name>Meadow Lane</name>
      </trkpt>
      <trkpt lat="53.7405330" lon="-2.9400720">
        <name>Meadow Lane</name>
      </trkpt>
      <trkpt lat="53.7404820" lon="-2.9400860">
        <name>Meadow Lane</name>
      </trkpt>
      <trkpt lat="53.7404263" lon="-2.9401373">
        <name>Mornington Road</name>
      </trkpt>
      <trkpt lat="53.7403707" lon="-2.9401887">
        <name>Mornington Road</name>
      </trkpt>
      <trkpt lat="53.7403150" lon="-2.9402400">
        <name>Mornington Road</name>
      </trkpt>
      <trkpt lat="53.7402650" lon="-2.9402470">
        <name>Mornington Road</name>
      </trkpt>
      <trkpt lat="53.7401870" lon="-2.9402340">
        <name>Mornington Road</name>
      </trkpt>
      <trkpt lat="53.7401313" lon="-2.9401630">
      </trkpt>
      <trkpt lat="53.7400757" lon="-2.9400920">
      </trkpt>
      <trkpt lat="53.7400200" lon="-2.9400210">
      </trkpt>
      <trkpt lat="53.7399580" lon="-2.9400030">
      </trkpt>
      <trkpt lat="53.7399047" lon="-2.9400600">
      </trkpt>
      <trkpt lat="53.7398513" lon="-2.9401170">
      </trkpt>
      <trkpt lat="53.7397980" lon="-2.9401740">
      </trkpt>
      <trkpt lat="53.7397615" lon="-2.9402310">
      </trkpt>
      <trkpt lat="53.7397250" lon="-2.9402880">
      </trkpt>
      <trkpt lat="53.7396777" lon="-2.9403913">
      </trkpt>
      <trkpt lat="53.7396303" lon="-2.9404947">
      </trkpt>
      <trkpt lat="53.7395830" lon="-2.9405980">
      </trkpt>
      <trkpt lat="53.7395630" lon="-2.9406510">
        <name>Mornington Road</name>
      </trkpt>
      <trkpt lat="53.7395147" lon="-2.9407423">
        <name>Mornington Road</name>
      </trkpt>
      <trkpt lat="53.7394663" lon="-2.9408337">
        <name>Mornington Road</name>
      </trkpt>
      <trkpt lat="53.7394180" lon="-2.9409250">
        <name>Mornington Road</name>
      </trkpt>
      <trkpt lat="53.7393643" lon="-2.9410213">
        <name>Mornington Road</name>
      </trkpt>
      <trkpt lat="53.7393107" lon="-2.9411177">
        <name>Mornington Road</name>
      </trkpt>
      <trkpt lat="53.7392570" lon="-2.9412140">
        <name>Mornington Road</name>
      </trkpt>
      <trkpt lat="53.7392103" lon="-2.9413023">
        <name>Mornington Road</name>
      </trkpt>
      <trkpt lat="53.7391637" lon="-2.9413907">
        <name>Mornington Road</name>
      </trkpt>
      <trkpt lat="53.7391170" lon="-2.9414790">
        <name>Mornington Road</name>
      </trkpt>
      <trkpt lat="53.7390740" lon="-2.9415670">
        <name>Preston Road</name>
      </trkpt>
      <trkpt lat="53.7390160" lon="-2.9416680">
        <name>Preston Road</name>
      </trkpt>
      <trkpt lat="53.7389580" lon="-2.9417690">
        <name>Preston Road</name>
      </trkpt>
      <trkpt lat="53.7389100" lon="-2.9418617">
        <name>Preston Road</name>
      </trkpt>
      <trkpt lat="53.7388620" lon="-2.9419543">
        <name>Preston Road</name>
      </trkpt>
      <trkpt lat="53.7388140" lon="-2.9420470">
        <name>Preston Road</name>
      </trkpt>
      <trkpt lat="53.7387670" lon="-2.9421440">
        <name>Preston Road</name>
      </trkpt>
      <trkpt lat="53.7387200" lon="-2.9422410">
        <name>Preston Road</name>
      </trkpt>
      <trkpt lat="53.7386730" lon="-2.9423380">
        <name>Preston Road</name>
      </trkpt>
      <trkpt lat="53.7386280" lon="-2.9424293">
        <name>Preston Road</name>
      </trkpt>
      <trkpt lat="53.7385830" lon="-2.9425207">
        <name>Preston Road</name>
      </trkpt>
      <trkpt lat="53.7385380" lon="-2.9426120">
        <name>Preston Road</name>
      </trkpt>
      <trkpt lat="53.7385070" lon="-2.9426785">
        <name>Arnold Road</name>
      </trkpt>
      <trkpt lat="53.7384760" lon="-2.9427450">
        <name>Arnold Road</name>
      </trkpt>
      <trkpt lat="53.7384375" lon="-2.9428215">
        <name>Arnold Road</name>
      </trkpt>
      <trkpt lat="53.7383990" lon="-2.9428980">
        <name>Arnold Road</name>
      </trkpt>
      <trkpt lat="53.7383513" lon="-2.9429913">
        <name>Arnold Road</name>
      </trkpt>
      <trkpt lat="53.7383037" lon="-2.9430847">
        <name>Arnold Road</name>
      </trkpt>
      <trkpt lat="53.7382560" lon="-2.9431780">
        <name>Arnold Road</name>
      </trkpt>
      <trkpt lat="53.7382143" lon="-2.9432753">
        <name>Arnold Road</name>
      </trkpt>
      <trkpt lat="53.7381727" lon="-2.9433727">
        <name>Arnold Road</name>
      </trkpt>
      <trkpt lat="53.7381310" lon="-2.9434700">
        <name>Arnold Road</name>
      </trkpt>
      <trkpt lat="53.7380933" lon="-2.9435657">
        <name>Arnold Road</name>
      </trkpt>
      <trkpt lat="53.7380557" lon="-2.9436613">
        <name>Arnold Road</name>
      </trkpt>
      <trkpt lat="53.7380180" lon="-2.9437570">
        <name>Arnold Road</name>
      </trkpt>
      <trkpt lat="53.7379720" lon="-2.9438820">
        <name>Arnold Road</name>
      </trkpt>
      <trkpt lat="53.7379260" lon="-2.9440070">
        <name>Arnold Road</name>
      </trkpt>
      <trkpt lat="53.7379010" lon="-2.9440830">
        <name>Arnold Road</name>
      </trkpt>
      <trkpt lat="53.7378703" lon="-2.9441853">
        <name>Graving Dock Road</name>
      </trkpt>
      <trkpt lat="53.7378397" lon="-2.9442877">
        <name>Graving Dock Road</name>
      </trkpt>
      <trkpt lat="53.7378090" lon="-2.9443900">
        <name>Graving Dock Road</name>
      </trkpt>
      <trkpt lat="53.7377790" lon="-2.9445097">
        <name>Graving Dock Road</name>
      </trkpt>
      <trkpt lat="53.7377490" lon="-2.9446293">
        <name>Graving Dock Road</name>
      </trkpt>
      <trkpt lat="53.7377190" lon="-2.9447490">
        <name>Graving Dock Road</name>
      </trkpt>
      <trkpt lat="53.7376973" lon="-2.9448590">
        <name>Graving Dock Road</name>
      </trkpt>
      <trkpt lat="53.7376757" lon="-2.9449690">
        <name>Graving Dock Road</name>
      </trkpt>
      <trkpt lat="53.7376540" lon="-2.9450790">
        <name>Graving Dock Road</name>
      </trkpt>
      <trkpt lat="53.7376347" lon="-2.9451803">
        <name>Preston Road</name>
      </trkpt>
      <trkpt lat="53.7376153" lon="-2.9452817">
        <name>Preston Road</name>
      </trkpt>
      <trkpt lat="53.7375960" lon="-2.9453830">
        <name>Preston Road</name>
      </trkpt>
      <trkpt lat="53.7376680" lon="-2.9454243">
        <name>Preston Road</name>
      </trkpt>
      <trkpt lat="53.7377400" lon="-2.9454655">
        <name>Preston Road</name>
      </trkpt>
      <trkpt lat="53.7378120" lon="-2.9455067">
        <name>Preston Road</name>
      </trkpt>
      <trkpt lat="53.7378840" lon="-2.9455480">
        <name>Preston Road</name>
      </trkpt>
      <trkpt lat="53.7379660" lon="-2.9455945">
        <name>Preston Road</name>
      </trkpt>
      <trkpt lat="53.7380480" lon="-2.9456410">
        <name>Preston Road</name>
      </trkpt>
      <trkpt lat="53.7380820" lon="-2.9456600">
        <name>Preston Road</name>
      </trkpt>
      <trkpt lat="53.7381345" lon="-2.9457055">
        <name>Preston Road</name>
      </trkpt>
      <trkpt lat="53.7381870" lon="-2.9457510">
        <name>Preston Road</name>
      </trkpt>
      <trkpt lat="53.7382190" lon="-2.9458080">
        <name>Preston Road</name>
      </trkpt>
      <trkpt lat="53.7382410" lon="-2.9458450">
        <name>Preston Road</name>
      </trkpt>
      <trkpt lat="53.7382450" lon="-2.9458540">
        <name>Preston Road</name>
      </trkpt>
      <trkpt lat="53.7382500" lon="-2.9459560">
        <name>Dock Road</name>
      </trkpt>
      <trkpt lat="53.7382550" lon="-2.9460580">
        <name>Dock Road</name>
      </trkpt>
      <trkpt lat="53.7382600" lon="-2.9461600">
        <name>Dock Road</name>
      </trkpt>
      <trkpt lat="53.7382490" lon="-2.9462440">
        <name>Dock Road</name>
      </trkpt>
      <trkpt lat="53.7382360" lon="-2.9463443">
        <name>Dock Road</name>
      </trkpt>
      <trkpt lat="53.7382230" lon="-2.9464447">
        <name>Dock Road</name>
      </trkpt>
      <trkpt lat="53.7382100" lon="-2.9465450">
        <name>Dock Road</name>
      </trkpt>
      <trkpt lat="53.7381900" lon="-2.9465710">
        <name>Dock Road</name>
      </trkpt>
      <trkpt lat="53.7381440" lon="-2.9466330">
        <name>Dock Road</name>
      </trkpt>
      <trkpt lat="53.7381075" lon="-2.9466835">
        <name>Dock Road</name>
      </trkpt>
      <trkpt lat="53.7380710" lon="-2.9467340">
        <name>Dock Road</name>
      </trkpt>
      <trkpt lat="53.7380520" lon="-2.9468170">
        <name>Dock Road</name>
      </trkpt>
      <trkpt lat="53.7380330" lon="-2.9469000">
        <name>Dock Road</name>
      </trkpt>
      <trkpt lat="53.7380285" lon="-2.9469810">
        <name>Dock Road</name>
      </trkpt>
      <trkpt lat="53.7380240" lon="-2.9470620">
        <name>Dock Road</name>
      </trkpt>
      <trkpt lat="53.7380240" lon="-2.9471520">
        <name>Dock Road</name>
      </trkpt>
      <trkpt lat="53.7380240" lon="-2.9472270">
        <name>Dock Road</name>
      </trkpt>
      <trkpt lat="53.7380125" lon="-2.9473055">
        <name>Dock Road</name>
      </trkpt>
      <trkpt lat="53.7380010" lon="-2.9473840">
        <name>Dock Road</name>
      </trkpt>
      <trkpt lat="53.7379917" lon="-2.9475332">
        <name>Dock Road</name>
      </trkpt>
      <trkpt lat="53.7379823" lon="-2.9476823">
        <name>Dock Road</name>
      </trkpt>
      <trkpt lat="53.7379730" lon="-2.9478315">
        <name>Dock Road</name>
      </trkpt>
      <trkpt lat="53.7379637" lon="-2.9479807">
        <name>Dock Road</name>
      </trkpt>
      <trkpt lat="53.7379543" lon="-2.9481298">
        <name>Dock Road</name>
      </trkpt>
      <trkpt lat="53.7379450" lon="-2.9482790">
        <name>Dock Road</name>
      </trkpt>
      <trkpt lat="53.7379980" lon="-2.9482880">
        <name>Dock Road</name>
      </trkpt>
      <trkpt lat="53.7380864" lon="-2.9483030">
        <name>Dock Road</name>
      </trkpt>
      <trkpt lat="53.7381748" lon="-2.9483180">
        <name>Dock Road</name>
      </trkpt>
      <trkpt lat="53.7382632" lon="-2.9483330">
        <name>Dock Road</name>
      </trkpt>
      <trkpt lat="53.7383516" lon="-2.9483480">
        <name>Dock Road</name>
      </trkpt>
      <trkpt lat="53.7384400" lon="-2.9483630">
        <name>Dock Road</name>
      </trkpt>
      <trkpt lat="53.7385182" lon="-2.9483760">
        <name>Victory Boulevard</name>
      </trkpt>
      <trkpt lat="53.7385965" lon="-2.9483890">
        <name>Victory Boulevard</name>
      </trkpt>
      <trkpt lat="53.7386748" lon="-2.9484020">
        <name>Victory Boulevard</name>
      </trkpt>
      <trkpt lat="53.7387530" lon="-2.9484150">
        <name>Victory Boulevard</name>
      </trkpt>
      <trkpt lat="53.7388282" lon="-2.9484276">
        <name>Victory Boulevard</name>
      </trkpt>
      <trkpt lat="53.7389034" lon="-2.9484402">
        <name>Victory Boulevard</name>
      </trkpt>
      <trkpt lat="53.7389786" lon="-2.9484528">
        <name>Victory Boulevard</name>
      </trkpt>
      <trkpt lat="53.7390538" lon="-2.9484654">
        <name>Victory Boulevard</name>
      </trkpt>
      <trkpt lat="53.7391290" lon="-2.9484780">
        <name>Victory Boulevard</name>
      </trkpt>
      <trkpt lat="53.7392130" lon="-2.9484923">
        <name>Victory Boulevard</name>
      </trkpt>
      <trkpt lat="53.7392970" lon="-2.9485065">
        <name>Victory Boulevard</name>
      </trkpt>
      <trkpt lat="53.7393810" lon="-2.9485208">
        <name>Victory Boulevard</name>
      </trkpt>
      <trkpt lat="53.7394650" lon="-2.9485350">
        <name>Victory Boulevard</name>
      </trkpt>
      <trkpt lat="53.7394735" lon="-2.9483975">
        <name>Victory Boulevard</name>
      </trkpt>
      <trkpt lat="53.7394820" lon="-2.9482600">
        <name>Victory Boulevard</name>
      </trkpt>
      <trkpt lat="53.7394905" lon="-2.9481225">
        <name>Victory Boulevard</name>
      </trkpt>
      <trkpt lat="53.7394990" lon="-2.9479850">
        <name>Victory Boulevard</name>
      </trkpt>
      <trkpt lat="53.7394977" lon="-2.9478585">
        <name>Victory Boulevard</name>
      </trkpt>
      <trkpt lat="53.7394965" lon="-2.9477320">
        <name>Victory Boulevard</name>
      </trkpt>
      <trkpt lat="53.7394953" lon="-2.9476055">
        <name>Victory Boulevard</name>
      </trkpt>
      <trkpt lat="53.7394940" lon="-2.9474790">
        <name>Victory Boulevard</name>
      </trkpt>
      <trkpt lat="53.7395735" lon="-2.9474712">
        <name>Victory Boulevard</name>
      </trkpt>
      <trkpt lat="53.7396530" lon="-2.9474635">
        <name>Victory Boulevard</name>
      </trkpt>
      <trkpt lat="53.7397325" lon="-2.9474558">
        <name>Victory Boulevard</name>
      </trkpt>
      <trkpt lat="53.7398120" lon="-2.9474480">
        <name>Victory Boulevard</name>
      </trkpt>
      <trkpt lat="53.7399003" lon="-2.9474480">
        <name>Victory Boulevard</name>
      </trkpt>
      <trkpt lat="53.7399887" lon="-2.9474480">
        <name>Victory Boulevard</name>
      </trkpt>
      <trkpt lat="53.7400770" lon="-2.9474480">
        <name>Victory Boulevard</name>
      </trkpt>
      <trkpt lat="53.7401530" lon="-2.9474632">
        <name>Victory Boulevard</name>
      </trkpt>
      <trkpt lat="53.7402290" lon="-2.9474784">
        <name>Victory Boulevard</name>
      </trkpt>
      <trkpt lat="53.7403050" lon="-2.9474936">
        <name>Victory Boulevard</name>
      </trkpt>
      <trkpt lat="53.7403810" lon="-2.9475088">
        <name>Victory Boulevard</name>
      </trkpt>
      <trkpt lat="53.7404570" lon="-2.9475240">
        <name>Victory Boulevard</name>
      </trkpt>
      <trkpt lat="53.7405360" lon="-2.9475395">
        <name>Victory Boulevard</name>
      </trkpt>
      <trkpt lat="53.7406150" lon="-2.9475550">
        <name>Victory Boulevard</name>
      </trkpt>
      <trkpt lat="53.7405936" lon="-2.9476720">
        <name>Victory Boulevard</name>
      </trkpt>
      <trkpt lat="53.7405722" lon="-2.9477890">
        <name>Victory Boulevard</name>
      </trkpt>
      <trkpt lat="53.7405508" lon="-2.9479060">
        <name>Victory Boulevard</name>
      </trkpt>
      <trkpt lat="53.7405294" lon="-2.9480230">
        <name>Victory Boulevard</name>
      </trkpt>
      <trkpt lat="53.7405080" lon="-2.9481400">
        <name>Victory Boulevard</name>
      </trkpt>
      <trkpt lat="53.7404895" lon="-2.9482790">
        <name>Victory Boulevard</name>
      </trkpt>
      <trkpt lat="53.7404710" lon="-2.9484180">
        <name>Victory Boulevard</name>
      </trkpt>
      <trkpt lat="53.7404525" lon="-2.9485570">
        <name>Victory Boulevard</name>
      </trkpt>
      <trkpt lat="53.7404340" lon="-2.9486960">
        <name>Victory Boulevard</name>
      </trkpt>
      <trkpt lat="53.7403478" lon="-2.9486818">
        <name>Victory Boulevard</name>
      </trkpt>
      <trkpt lat="53.7402617" lon="-2.9486677">
        <name>Victory Boulevard</name>
      </trkpt>
      <trkpt lat="53.7401755" lon="-2.9486535">
        <name>Victory Boulevard</name>
      </trkpt>
      <trkpt lat="53.7400893" lon="-2.9486393">
        <name>Victory Boulevard</name>
      </trkpt>
      <trkpt lat="53.7400032" lon="-2.9486252">
        <name>Victory Boulevard</name>
      </trkpt>
      <trkpt lat="53.7399170" lon="-2.9486110">
        <name>Victory Boulevard</name>
      </trkpt>
      <trkpt lat="53.7398510" lon="-2.9486000">
        <name>Victory Boulevard</name>
      </trkpt>
      <trkpt lat="53.7397850" lon="-2.9485890">
        <name>Victory Boulevard</name>
      </trkpt>
      <trkpt lat="53.7397050" lon="-2.9485755">
        <name>Victory Boulevard</name>
      </trkpt>
      <trkpt lat="53.7396250" lon="-2.9485620">
        <name>Victory Boulevard</name>
      </trkpt>
      <trkpt lat="53.7395450" lon="-2.9485485">
        <name>Victory Boulevard</name>
      </trkpt>
      <trkpt lat="53.7394650" lon="-2.9485350">
        <name>Victory Boulevard</name>
      </trkpt>
      <trkpt lat="53.7394588" lon="-2.9486695">
        <name>Victory Boulevard</name>
      </trkpt>
      <trkpt lat="53.7394527" lon="-2.9488040">
        <name>Victory Boulevard</name>
      </trkpt>
      <trkpt lat="53.7394465" lon="-2.9489385">
        <name>Victory Boulevard</name>
      </trkpt>
      <trkpt lat="53.7394403" lon="-2.9490730">
        <name>Victory Boulevard</name>
      </trkpt>
      <trkpt lat="53.7394342" lon="-2.9492075">
        <name>Victory Boulevard</name>
      </trkpt>
      <trkpt lat="53.7394280" lon="-2.9493420">
        <name>Victory Boulevard</name>
      </trkpt>
      <trkpt lat="53.7394223" lon="-2.9494630">
        <name>Victory Boulevard</name>
      </trkpt>
      <trkpt lat="53.7394167" lon="-2.9495840">
        <name>Victory Boulevard</name>
      </trkpt>
      <trkpt lat="53.7394110" lon="-2.9497050">
        <name>Victory Boulevard</name>
      </trkpt>
      <trkpt lat="53.7393235" lon="-2.9496898">
        <name>Victory Boulevard</name>
      </trkpt>
      <trkpt lat="53.7392360" lon="-2.9496745">
        <name>Victory Boulevard</name>
      </trkpt>
      <trkpt lat="53.7391485" lon="-2.9496592">
        <name>Victory Boulevard</name>
      </trkpt>
      <trkpt lat="53.7390610" lon="-2.9496440">
        <name>Victory Boulevard</name>
      </trkpt>
      <trkpt lat="53.7389749" lon="-2.9496288">
        <name>Victory Boulevard</name>
      </trkpt>
      <trkpt lat="53.7388888" lon="-2.9496135">
        <name>Victory Boulevard</name>
      </trkpt>
      <trkpt lat="53.7388026" lon="-2.9495983">
        <name>Victory Boulevard</name>
      </trkpt>
      <trkpt lat="53.7387165" lon="-2.9495830">
        <name>Victory Boulevard</name>
      </trkpt>
      <trkpt lat="53.7386304" lon="-2.9495677">
        <name>Victory Boulevard</name>
      </trkpt>
      <trkpt lat="53.7385442" lon="-2.9495525">
        <name>Victory Boulevard</name>
      </trkpt>
      <trkpt lat="53.7384581" lon="-2.9495373">
        <name>Victory Boulevard</name>
      </trkpt>
      <trkpt lat="53.7383720" lon="-2.9495220">
        <name>Victory Boulevard</name>
      </trkpt>
      <trkpt lat="53.7382838" lon="-2.9495090">
        <name>Victory Boulevard</name>
      </trkpt>
      <trkpt lat="53.7381956" lon="-2.9494960">
        <name>Victory Boulevard</name>
      </trkpt>
      <trkpt lat="53.7381074" lon="-2.9494830">
        <name>Victory Boulevard</name>
      </trkpt>
      <trkpt lat="53.7380192" lon="-2.9494700">
        <name>Victory Boulevard</name>
      </trkpt>
      <trkpt lat="53.7379310" lon="-2.9494570">
        <name>Victory Boulevard</name>
      </trkpt>
      <trkpt lat="53.7378790" lon="-2.9494500">
        <name>Victory Boulevard</name>
      </trkpt>
      <trkpt lat="53.7378712" lon="-2.9495837">
        <name>Victory Boulevard</name>
      </trkpt>
      <trkpt lat="53.7378635" lon="-2.9497175">
        <name>Victory Boulevard</name>
      </trkpt>
      <trkpt lat="53.7378558" lon="-2.9498513">
        <name>Victory Boulevard</name>
      </trkpt>
      <trkpt lat="53.7378480" lon="-2.9499850">
        <name>Victory Boulevard</name>
      </trkpt>
      <trkpt lat="53.7378430" lon="-2.9500680">
        <name>Victory Boulevard</name>
      </trkpt>
      <trkpt lat="53.7378350" lon="-2.9502150">
        <name>Victory Boulevard</name>
      </trkpt>
      <trkpt lat="53.7378270" lon="-2.9503620">
        <name>Victory Boulevard</name>
      </trkpt>
      <trkpt lat="53.7378190" lon="-2.9505090">
        <name>Victory Boulevard</name>
      </trkpt>
      <trkpt lat="53.7378110" lon="-2.9506560">
        <name>Victory Boulevard</name>
      </trkpt>
      <trkpt lat="53.7378940" lon="-2.9506703">
        <name>Victory Boulevard</name>
      </trkpt>
      <trkpt lat="53.7379770" lon="-2.9506847">
        <name>Victory Boulevard</name>
      </trkpt>
      <trkpt lat="53.7380600" lon="-2.9506990">
        <name>Victory Boulevard</name>
      </trkpt>
      <trkpt lat="53.7381430" lon="-2.9507133">
        <name>Victory Boulevard</name>
      </trkpt>
      <trkpt lat="53.7382260" lon="-2.9507277">
        <name>Victory Boulevard</name>
      </trkpt>
      <trkpt lat="53.7383090" lon="-2.9507420">
        <name>Victory Boulevard</name>
      </trkpt>
      <trkpt lat="53.7383942" lon="-2.9507552">
        <name>Victory Boulevard</name>
      </trkpt>
      <trkpt lat="53.7384795" lon="-2.9507685">
        <name>Victory Boulevard</name>
      </trkpt>
      <trkpt lat="53.7385648" lon="-2.9507817">
        <name>Victory Boulevard</name>
      </trkpt>
      <trkpt lat="53.7386500" lon="-2.9507950">
        <name>Victory Boulevard</name>
      </trkpt>
      <trkpt lat="53.7387352" lon="-2.9508083">
        <name>Victory Boulevard</name>
      </trkpt>
      <trkpt lat="53.7388205" lon="-2.9508215">
        <name>Victory Boulevard</name>
      </trkpt>
      <trkpt lat="53.7389058" lon="-2.9508348">
        <name>Victory Boulevard</name>
      </trkpt>
      <trkpt lat="53.7389910" lon="-2.9508480">
        <name>Victory Boulevard</name>
      </trkpt>
      <trkpt lat="53.7390743" lon="-2.9508615">
        <name>Victory Boulevard</name>
      </trkpt>
      <trkpt lat="53.7391575" lon="-2.9508750">
        <name>Victory Boulevard</name>
      </trkpt>
      <trkpt lat="53.7392408" lon="-2.9508885">
        <name>Victory Boulevard</name>
      </trkpt>
      <trkpt lat="53.7393240" lon="-2.9509020">
        <name>Victory Boulevard</name>
      </trkpt>
      <trkpt lat="53.7393143" lon="-2.9510363">
        <name>Victory Boulevard</name>
      </trkpt>
      <trkpt lat="53.7393045" lon="-2.9511705">
        <name>Victory Boulevard</name>
      </trkpt>
      <trkpt lat="53.7392947" lon="-2.9513048">
        <name>Victory Boulevard</name>
      </trkpt>
      <trkpt lat="53.7392850" lon="-2.9514390">
        <name>Victory Boulevard</name>
      </trkpt>
      <trkpt lat="53.7392800" lon="-2.9515110">
        <name>Victory Boulevard</name>
      </trkpt>
      <trkpt lat="53.7392710" lon="-2.9516550">
        <name>Victory Boulevard</name>
      </trkpt>
      <trkpt lat="53.7392620" lon="-2.9517990">
        <name>Victory Boulevard</name>
      </trkpt>
      <trkpt lat="53.7392530" lon="-2.9519430">
        <name>Victory Boulevard</name>
      </trkpt>
      <trkpt lat="53.7392440" lon="-2.9520870">
        <name>Victory Boulevard</name>
      </trkpt>
      <trkpt lat="53.7391550" lon="-2.9520728">
        <name>Victory Boulevard</name>
      </trkpt>
      <trkpt lat="53.7390660" lon="-2.9520586">
        <name>Victory Boulevard</name>
      </trkpt>
      <trkpt lat="53.7389770" lon="-2.9520445">
        <name>Victory Boulevard</name>
      </trkpt>
      <trkpt lat="53.7388880" lon="-2.9520303">
        <name>Victory Boulevard</name>
      </trkpt>
      <trkpt lat="53.7387990" lon="-2.9520161">
        <name>Victory Boulevard</name>
      </trkpt>
      <trkpt lat="53.7387100" lon="-2.9520019">
        <name>Victory Boulevard</name>
      </trkpt>
      <trkpt lat="53.7386210" lon="-2.9519877">
        <name>Victory Boulevard</name>
      </trkpt>
      <trkpt lat="53.7385320" lon="-2.9519735">
        <name>Victory Boulevard</name>
      </trkpt>
      <trkpt lat="53.7384430" lon="-2.9519594">
        <name>Victory Boulevard</name>
      </trkpt>
      <trkpt lat="53.7383540" lon="-2.9519452">
        <name>Victory Boulevard</name>
      </trkpt>
      <trkpt lat="53.7382650" lon="-2.9519310">
        <name>Victory Boulevard</name>
      </trkpt>
      <trkpt lat="53.7381780" lon="-2.9519152">
        <name>Victory Boulevard</name>
      </trkpt>
      <trkpt lat="53.7380910" lon="-2.9518993">
        <name>Victory Boulevard</name>
      </trkpt>
      <trkpt lat="53.7380040" lon="-2.9518835">
        <name>Victory Boulevard</name>
      </trkpt>
      <trkpt lat="53.7379170" lon="-2.9518677">
        <name>Victory Boulevard</name>
      </trkpt>
      <trkpt lat="53.7378300" lon="-2.9518518">
        <name>Victory Boulevard</name>
      </trkpt>
      <trkpt lat="53.7377430" lon="-2.9518360">
        <name>Victory Boulevard</name>
      </trkpt>
      <trkpt lat="53.7377328" lon="-2.9519790">
        <name>Victory Boulevard</name>
      </trkpt>
      <trkpt lat="53.7377226" lon="-2.9521220">
        <name>Victory Boulevard</name>
      </trkpt>
      <trkpt lat="53.7377124" lon="-2.9522650">
        <name>Victory Boulevard</name>
      </trkpt>
      <trkpt lat="53.7377022" lon="-2.9524080">
        <name>Victory Boulevard</name>
      </trkpt>
      <trkpt lat="53.7376920" lon="-2.9525510">
        <name>Victory Boulevard</name>
      </trkpt>
      <trkpt lat="53.7376840" lon="-2.9526655">
        <name>Victory Boulevard</name>
      </trkpt>
      <trkpt lat="53.7376760" lon="-2.9527800">
        <name>Victory Boulevard</name>
      </trkpt>
      <trkpt lat="53.7376680" lon="-2.9528945">
        <name>Victory Boulevard</name>
      </trkpt>
      <trkpt lat="53.7376600" lon="-2.9530090">
        <name>Victory Boulevard</name>
      </trkpt>
      <trkpt lat="53.7376515" lon="-2.9531552">
        <name>Victory Boulevard</name>
      </trkpt>
      <trkpt lat="53.7376430" lon="-2.9533013">
        <name>Victory Boulevard</name>
      </trkpt>
      <trkpt lat="53.7376345" lon="-2.9534475">
        <name>Victory Boulevard</name>
      </trkpt>
      <trkpt lat="53.7376260" lon="-2.9535937">
        <name>Victory Boulevard</name>
      </trkpt>
      <trkpt lat="53.7376175" lon="-2.9537398">
        <name>Victory Boulevard</name>
      </trkpt>
      <trkpt lat="53.7376090" lon="-2.9538860">
        <name>Victory Boulevard</name>
      </trkpt>
      <trkpt lat="53.7376025" lon="-2.9539945">
        <name>Victory Boulevard</name>
      </trkpt>
      <trkpt lat="53.7375960" lon="-2.9541030">
        <name>Victory Boulevard</name>
      </trkpt>
      <trkpt lat="53.7375884" lon="-2.9542344">
        <name>Victory Boulevard</name>
      </trkpt>
      <trkpt lat="53.7375808" lon="-2.9543658">
        <name>Victory Boulevard</name>
      </trkpt>
      <trkpt lat="53.7375732" lon="-2.9544972">
        <name>Victory Boulevard</name>
      </trkpt>
      <trkpt lat="53.7375656" lon="-2.9546286">
        <name>Victory Boulevard</name>
      </trkpt>
      <trkpt lat="53.7375580" lon="-2.9547600">
        <name>Victory Boulevard</name>
      </trkpt>
      <trkpt lat="53.7375550" lon="-2.9548926">
        <name>Victory Boulevard</name>
      </trkpt>
      <trkpt lat="53.7375520" lon="-2.9550252">
        <name>Victory Boulevard</name>
      </trkpt>
      <trkpt lat="53.7375490" lon="-2.9551578">
        <name>Victory Boulevard</name>
      </trkpt>
      <trkpt lat="53.7375460" lon="-2.9552904">
        <name>Victory Boulevard</name>
      </trkpt>
      <trkpt lat="53.7375430" lon="-2.9554230">
        <name>Victory Boulevard</name>
      </trkpt>
      <trkpt lat="53.7375362" lon="-2.9555472">
        <name>Victory Boulevard</name>
      </trkpt>
      <trkpt lat="53.7375294" lon="-2.9556714">
        <name>Victory Boulevard</name>
      </trkpt>
      <trkpt lat="53.7375226" lon="-2.9557956">
        <name>Victory Boulevard</name>
      </trkpt>
      <trkpt lat="53.7375158" lon="-2.9559198">
        <name>Victory Boulevard</name>
      </trkpt>
      <trkpt lat="53.7375090" lon="-2.9560440">
        <name>Victory Boulevard</name>
      </trkpt>
      <trkpt lat="53.7375032" lon="-2.9561658">
        <name>Victory Boulevard</name>
      </trkpt>
      <trkpt lat="53.7374974" lon="-2.9562876">
        <name>Victory Boulevard</name>
      </trkpt>
      <trkpt lat="53.7374916" lon="-2.9564094">
        <name>Victory Boulevard</name>
      </trkpt>
      <trkpt lat="53.7374858" lon="-2.9565312">
        <name>Victory Boulevard</name>
      </trkpt>
      <trkpt lat="53.7374800" lon="-2.9566530">
        <name>Victory Boulevard</name>
      </trkpt>
      <trkpt lat="53.7374760" lon="-2.9567345">
        <name>Victory Boulevard</name>
      </trkpt>
      <trkpt lat="53.7374720" lon="-2.9568160">
        <name>Victory Boulevard</name>
      </trkpt>
      <trkpt lat="53.7374690" lon="-2.9568860">
        <name>Victory Boulevard</name>
      </trkpt>
      <trkpt lat="53.7375462" lon="-2.9569073">
        <name>Victory Boulevard</name>
      </trkpt>
      <trkpt lat="53.7376233" lon="-2.9569287">
        <name>Victory Boulevard</name>
      </trkpt>
      <trkpt lat="53.7377005" lon="-2.9569500">
        <name>Victory Boulevard</name>
      </trkpt>
      <trkpt lat="53.7377777" lon="-2.9569713">
        <name>Victory Boulevard</name>
      </trkpt>
      <trkpt lat="53.7378548" lon="-2.9569927">
        <name>Victory Boulevard</name>
      </trkpt>
      <trkpt lat="53.7379320" lon="-2.9570140">
        <name>Victory Boulevard</name>
      </trkpt>
      <trkpt lat="53.7380110" lon="-2.9570313">
        <name>Victory Boulevard</name>
      </trkpt>
      <trkpt lat="53.7380900" lon="-2.9570487">
        <name>Victory Boulevard</name>
      </trkpt>
      <trkpt lat="53.7381690" lon="-2.9570660">
        <name>Victory Boulevard</name>
      </trkpt>
      <trkpt lat="53.7381810" lon="-2.9570710">
        <name>Victory Boulevard</name>
      </trkpt>
      <trkpt lat="53.7382170" lon="-2.9570790">
        <name>Victory Boulevard</name>
      </trkpt>
      <trkpt lat="53.7382690" lon="-2.9570910">
        <name>Victory Boulevard</name>
      </trkpt>
      <trkpt lat="53.7383210" lon="-2.9571030">
        <name>Victory Boulevard</name>
      </trkpt>
      <trkpt lat="53.7383940" lon="-2.9571200">
        <name>Victory Boulevard</name>
      </trkpt>
      <trkpt lat="53.7383920" lon="-2.9572040">
        <name>Victory Boulevard</name>
      </trkpt>
      <trkpt lat="53.7383900" lon="-2.9572880">
        <name>Victory Boulevard</name>
      </trkpt>
      <trkpt lat="53.7383891" lon="-2.9574336">
        <name>Victory Boulevard</name>
      </trkpt>
      <trkpt lat="53.7383882" lon="-2.9575792">
        <name>Victory Boulevard</name>
      </trkpt>
      <trkpt lat="53.7383872" lon="-2.9577248">
        <name>Victory Boulevard</name>
      </trkpt>
      <trkpt lat="53.7383863" lon="-2.9578705">
        <name>Victory Boulevard</name>
      </trkpt>
      <trkpt lat="53.7383854" lon="-2.9580161">
        <name>Victory Boulevard</name>
      </trkpt>
      <trkpt lat="53.7383845" lon="-2.9581617">
        <name>Victory Boulevard</name>
      </trkpt>
      <trkpt lat="53.7383835" lon="-2.9583073">
        <name>Victory Boulevard</name>
      </trkpt>
      <trkpt lat="53.7383826" lon="-2.9584529">
        <name>Victory Boulevard</name>
      </trkpt>
      <trkpt lat="53.7383817" lon="-2.9585985">
        <name>Victory Boulevard</name>
      </trkpt>
      <trkpt lat="53.7383808" lon="-2.9587442">
        <name>Victory Boulevard</name>
      </trkpt>
      <trkpt lat="53.7383798" lon="-2.9588898">
        <name>Victory Boulevard</name>
      </trkpt>
      <trkpt lat="53.7383789" lon="-2.9590354">
        <name>Victory Boulevard</name>
      </trkpt>
      <trkpt lat="53.7383780" lon="-2.9591810">
        <name>Victory Boulevard</name>
      </trkpt>
      <trkpt lat="53.7383769" lon="-2.9593255">
        <name>Victory Boulevard</name>
      </trkpt>
      <trkpt lat="53.7383758" lon="-2.9594700">
        <name>Victory Boulevard</name>
      </trkpt>
      <trkpt lat="53.7383747" lon="-2.9596145">
        <name>Victory Boulevard</name>
      </trkpt>
      <trkpt lat="53.7383736" lon="-2.9597590">
        <name>Victory Boulevard</name>
      </trkpt>
      <trkpt lat="53.7383725" lon="-2.9599035">
        <name>Victory Boulevard</name>
      </trkpt>
      <trkpt lat="53.7383714" lon="-2.9600480">
        <name>Victory Boulevard</name>
      </trkpt>
      <trkpt lat="53.7383703" lon="-2.9601925">
        <name>Victory Boulevard</name>
      </trkpt>
      <trkpt lat="53.7383692" lon="-2.9603370">
        <name>Victory Boulevard</name>
      </trkpt>
      <trkpt lat="53.7383681" lon="-2.9604815">
        <name>Victory Boulevard</name>
      </trkpt>
      <trkpt lat="53.7383670" lon="-2.9606260">
        <name>Victory Boulevard</name>
      </trkpt>
      <trkpt lat="53.7383659" lon="-2.9607705">
        <name>Victory Boulevard</name>
      </trkpt>
      <trkpt lat="53.7383648" lon="-2.9609150">
        <name>Victory Boulevard</name>
      </trkpt>
      <trkpt lat="53.7383637" lon="-2.9610595">
        <name>Victory Boulevard</name>
      </trkpt>
      <trkpt lat="53.7383626" lon="-2.9612040">
        <name>Victory Boulevard</name>
      </trkpt>
      <trkpt lat="53.7383615" lon="-2.9613485">
        <name>Victory Boulevard</name>
      </trkpt>
      <trkpt lat="53.7383604" lon="-2.9614930">
        <name>Victory Boulevard</name>
      </trkpt>
      <trkpt lat="53.7383593" lon="-2.9616375">
        <name>Victory Boulevard</name>
      </trkpt>
      <trkpt lat="53.7383582" lon="-2.9617820">
        <name>Victory Boulevard</name>
      </trkpt>
      <trkpt lat="53.7383571" lon="-2.9619265">
        <name>Victory Boulevard</name>
      </trkpt>
      <trkpt lat="53.7383560" lon="-2.9620710">
        <name>Victory Boulevard</name>
      </trkpt>
      <trkpt lat="53.7383545" lon="-2.9621897">
        <name>Victory Boulevard</name>
      </trkpt>
      <trkpt lat="53.7383530" lon="-2.9623085">
        <name>Victory Boulevard</name>
      </trkpt>
      <trkpt lat="53.7383515" lon="-2.9624273">
        <name>Victory Boulevard</name>
      </trkpt>
      <trkpt lat="53.7383500" lon="-2.9625460">
        <name>Victory Boulevard</name>
      </trkpt>
      <trkpt lat="53.7383490" lon="-2.9626370">
        <name>Victory Boulevard</name>
      </trkpt>
    </trkseg>
  </trk>
</gpx>