<?xml version="1.0" encoding="UTF-8"?>
<gpx version="1.1" creator="TurboSanta Route Planner">
  <trk>
    <name>TurboSanta Route (10m density)</name>
    <trkseg>
      <trkpt lat="53.7486290" lon="-2.9965760">
        <name>Hilton Avenue</name>
      </trkpt>
      <trkpt lat="53.7486786" lon="-2.9967023">
        <name>Hilton Avenue</name>
      </trkpt>
      <trkpt lat="53.7487281" lon="-2.9968287">
        <name>Hilton Avenue</name>
      </trkpt>
      <trkpt lat="53.7487777" lon="-2.9969550">
        <name>Hilton Avenue</name>
      </trkpt>
      <trkpt lat="53.7488272" lon="-2.9970813">
        <name>Hilton Avenue</name>
      </trkpt>
      <trkpt lat="53.7488768" lon="-2.9972077">
        <name>Hilton Avenue</name>
      </trkpt>
      <trkpt lat="53.7489263" lon="-2.9973340">
        <name>Hilton Avenue</name>
      </trkpt>
      <trkpt lat="53.7489759" lon="-2.9974603">
        <name>Hilton Avenue</name>
      </trkpt>
      <trkpt lat="53.7490254" lon="-2.9975867">
        <name>Hilton Avenue</name>
      </trkpt>
      <trkpt lat="53.7490750" lon="-2.9977130">
        <name>Hilton Avenue</name>
      </trkpt>
      <trkpt lat="53.7490785" lon="-2.9978365">
        <name>Hilton Avenue</name>
      </trkpt>
      <trkpt lat="53.7490820" lon="-2.9979600">
        <name>Hilton Avenue</name>
      </trkpt>
      <trkpt lat="53.7491167" lon="-2.9980487">
        <name>Hilton Avenue</name>
      </trkpt>
      <trkpt lat="53.7491513" lon="-2.9981373">
        <name>Hilton Avenue</name>
      </trkpt>
      <trkpt lat="53.7491860" lon="-2.9982260">
        <name>Hilton Avenue</name>
      </trkpt>
      <trkpt lat="53.7492570" lon="-2.9982980">
        <name>Hilton Avenue</name>
      </trkpt>
      <trkpt lat="53.7493280" lon="-2.9983700">
        <name>Hilton Avenue</name>
      </trkpt>
      <trkpt lat="53.7493758" lon="-2.9984914">
        <name>Hilton Avenue</name>
      </trkpt>
      <trkpt lat="53.7494237" lon="-2.9986128">
        <name>Hilton Avenue</name>
      </trkpt>
      <trkpt lat="53.7494715" lon="-2.9987343">
        <name>Hilton Avenue</name>
      </trkpt>
      <trkpt lat="53.7495193" lon="-2.9988557">
        <name>Hilton Avenue</name>
      </trkpt>
      <trkpt lat="53.7495672" lon="-2.9989771">
        <name>Hilton Avenue</name>
      </trkpt>
      <trkpt lat="53.7496150" lon="-2.9990985">
        <name>Hilton Avenue</name>
      </trkpt>
      <trkpt lat="53.7496628" lon="-2.9992199">
        <name>Hilton Avenue</name>
      </trkpt>
      <trkpt lat="53.7497107" lon="-2.9993413">
        <name>Hilton Avenue</name>
      </trkpt>
      <trkpt lat="53.7497585" lon="-2.9994627">
        <name>Hilton Avenue</name>
      </trkpt>
      <trkpt lat="53.7498063" lon="-2.9995842">
        <name>Hilton Avenue</name>
      </trkpt>
      <trkpt lat="53.7498542" lon="-2.9997056">
        <name>Hilton Avenue</name>
      </trkpt>
      <trkpt lat="53.7499020" lon="-2.9998270">
        <name>Hilton Avenue</name>
      </trkpt>
      <trkpt lat="53.7499732" lon="-2.9997422">
        <name>Smithy Lane</name>
      </trkpt>
      <trkpt lat="53.7500445" lon="-2.9996575">
        <name>Smithy Lane</name>
      </trkpt>
      <trkpt lat="53.7501157" lon="-2.9995728">
        <name>Smithy Lane</name>
      </trkpt>
      <trkpt lat="53.7501870" lon="-2.9994880">
        <name>Smithy Lane</name>
      </trkpt>
      <trkpt lat="53.7502570" lon="-2.9994060">
        <name>Smithy Lane</name>
      </trkpt>
      <trkpt lat="53.7503200" lon="-2.9993310">
        <name>Smithy Lane</name>
      </trkpt>
      <trkpt lat="53.7503830" lon="-2.9992560">
        <name>Smithy Lane</name>
      </trkpt>
      <trkpt lat="53.7504530" lon="-2.9991727">
        <name>Smithy Lane</name>
      </trkpt>
      <trkpt lat="53.7505230" lon="-2.9990893">
        <name>Smithy Lane</name>
      </trkpt>
      <trkpt lat="53.7505930" lon="-2.9990060">
        <name>Smithy Lane</name>
      </trkpt>
      <trkpt lat="53.7506580" lon="-2.9989260">
        <name>Smithy Lane</name>
      </trkpt>
      <trkpt lat="53.7507283" lon="-2.9988422">
        <name>Smithy Lane</name>
      </trkpt>
      <trkpt lat="53.7507987" lon="-2.9987583">
        <name>Smithy Lane</name>
      </trkpt>
      <trkpt lat="53.7508690" lon="-2.9986745">
        <name>Smithy Lane</name>
      </trkpt>
      <trkpt lat="53.7509393" lon="-2.9985907">
        <name>Smithy Lane</name>
      </trkpt>
      <trkpt lat="53.7510097" lon="-2.9985068">
        <name>Smithy Lane</name>
      </trkpt>
      <trkpt lat="53.7510800" lon="-2.9984230">
        <name>Smithy Lane</name>
      </trkpt>
      <trkpt lat="53.7511503" lon="-2.9983392">
        <name>Smithy Lane</name>
      </trkpt>
      <trkpt lat="53.7512207" lon="-2.9982553">
        <name>Smithy Lane</name>
      </trkpt>
      <trkpt lat="53.7512910" lon="-2.9981715">
        <name>Smithy Lane</name>
      </trkpt>
      <trkpt lat="53.7513613" lon="-2.9980877">
        <name>Smithy Lane</name>
      </trkpt>
      <trkpt lat="53.7514317" lon="-2.9980038">
        <name>Smithy Lane</name>
      </trkpt>
      <trkpt lat="53.7515020" lon="-2.9979200">
        <name>Smithy Lane</name>
      </trkpt>
      <trkpt lat="53.7515739" lon="-2.9978343">
        <name>Smithy Lane</name>
      </trkpt>
      <trkpt lat="53.7516457" lon="-2.9977486">
        <name>Smithy Lane</name>
      </trkpt>
      <trkpt lat="53.7517176" lon="-2.9976629">
        <name>Smithy Lane</name>
      </trkpt>
      <trkpt lat="53.7517894" lon="-2.9975771">
        <name>Smithy Lane</name>
      </trkpt>
      <trkpt lat="53.7518613" lon="-2.9974914">
        <name>Smithy Lane</name>
      </trkpt>
      <trkpt lat="53.7519331" lon="-2.9974057">
        <name>Smithy Lane</name>
      </trkpt>
      <trkpt lat="53.7520050" lon="-2.9973200">
        <name>Smithy Lane</name>
      </trkpt>
      <trkpt lat="53.7520587" lon="-2.9972254">
        <name>Smithy Lane</name>
      </trkpt>
      <trkpt lat="53.7521124" lon="-2.9971309">
        <name>Smithy Lane</name>
      </trkpt>
      <trkpt lat="53.7521661" lon="-2.9970363">
        <name>Smithy Lane</name>
      </trkpt>
      <trkpt lat="53.7522199" lon="-2.9969417">
        <name>Smithy Lane</name>
      </trkpt>
      <trkpt lat="53.7522736" lon="-2.9968471">
        <name>Smithy Lane</name>
      </trkpt>
      <trkpt lat="53.7523273" lon="-2.9967526">
        <name>Smithy Lane</name>
      </trkpt>
      <trkpt lat="53.7523810" lon="-2.9966580">
        <name>Smithy Lane</name>
      </trkpt>
      <trkpt lat="53.7524389" lon="-2.9965570">
        <name>Smithy Lane</name>
      </trkpt>
      <trkpt lat="53.7524967" lon="-2.9964560">
        <name>Smithy Lane</name>
      </trkpt>
      <trkpt lat="53.7525546" lon="-2.9963550">
        <name>Smithy Lane</name>
      </trkpt>
      <trkpt lat="53.7526125" lon="-2.9962540">
        <name>Smithy Lane</name>
      </trkpt>
      <trkpt lat="53.7526704" lon="-2.9961530">
        <name>Smithy Lane</name>
      </trkpt>
      <trkpt lat="53.7527283" lon="-2.9960520">
        <name>Smithy Lane</name>
      </trkpt>
      <trkpt lat="53.7527861" lon="-2.9959510">
        <name>Smithy Lane</name>
      </trkpt>
      <trkpt lat="53.7528440" lon="-2.9958500">
        <name>Smithy Lane</name>
      </trkpt>
      <trkpt lat="53.7527800" lon="-2.9957440">
        <name>Smithy Lane</name>
      </trkpt>
      <trkpt lat="53.7527160" lon="-2.9956380">
        <name>Smithy Lane</name>
      </trkpt>
      <trkpt lat="53.7526520" lon="-2.9955320">
        <name>Smithy Lane</name>
      </trkpt>
      <trkpt lat="53.7525880" lon="-2.9954260">
        <name>Smithy Lane</name>
      </trkpt>
      <trkpt lat="53.7525240" lon="-2.9953200">
        <name>Smithy Lane</name>
      </trkpt>
      <trkpt lat="53.7524600" lon="-2.9952140">
        <name>Smithy Lane</name>
      </trkpt>
      <trkpt lat="53.7523960" lon="-2.9951080">
        <name>Smithy Lane</name>
      </trkpt>
      <trkpt lat="53.7523320" lon="-2.9950020">
        <name>Smithy Lane</name>
      </trkpt>
      <trkpt lat="53.7522732" lon="-2.9949050">
        <name>Smithy Lane</name>
      </trkpt>
      <trkpt lat="53.7522144" lon="-2.9948080">
        <name>Smithy Lane</name>
      </trkpt>
      <trkpt lat="53.7521556" lon="-2.9947110">
        <name>Smithy Lane</name>
      </trkpt>
      <trkpt lat="53.7520968" lon="-2.9946140">
        <name>Smithy Lane</name>
      </trkpt>
      <trkpt lat="53.7520380" lon="-2.9945170">
        <name>Smithy Lane</name>
      </trkpt>
      <trkpt lat="53.7519787" lon="-2.9944193">
        <name>Smithy Lane</name>
      </trkpt>
      <trkpt lat="53.7519193" lon="-2.9943217">
        <name>Smithy Lane</name>
      </trkpt>
      <trkpt lat="53.7518600" lon="-2.9942240">
        <name>Smithy Lane</name>
      </trkpt>
      <trkpt lat="53.7518007" lon="-2.9941263">
        <name>Smithy Lane</name>
      </trkpt>
      <trkpt lat="53.7517413" lon="-2.9940287">
        <name>Smithy Lane</name>
      </trkpt>
      <trkpt lat="53.7516820" lon="-2.9939310">
        <name>Smithy Lane</name>
      </trkpt>
      <trkpt lat="53.7516270" lon="-2.9938630">
        <name>Smithy Lane</name>
      </trkpt>
      <trkpt lat="53.7515717" lon="-2.9938027">
        <name>Edwinstowe Road</name>
      </trkpt>
      <trkpt lat="53.7515163" lon="-2.9937423">
        <name>Edwinstowe Road</name>
      </trkpt>
      <trkpt lat="53.7514610" lon="-2.9936820">
        <name>Edwinstowe Road</name>
      </trkpt>
      <trkpt lat="53.7513763" lon="-2.9936527">
        <name>Edwinstowe Road</name>
      </trkpt>
      <trkpt lat="53.7512917" lon="-2.9936233">
        <name>Edwinstowe Road</name>
      </trkpt>
      <trkpt lat="53.7512070" lon="-2.9935940">
        <name>Edwinstowe Road</name>
      </trkpt>
      <trkpt lat="53.7511195" lon="-2.9935655">
        <name>Edwinstowe Road</name>
      </trkpt>
      <trkpt lat="53.7510319" lon="-2.9935369">
        <name>Edwinstowe Road</name>
      </trkpt>
      <trkpt lat="53.7509444" lon="-2.9935084">
        <name>Edwinstowe Road</name>
      </trkpt>
      <trkpt lat="53.7508568" lon="-2.9934798">
        <name>Edwinstowe Road</name>
      </trkpt>
      <trkpt lat="53.7507693" lon="-2.9934513">
        <name>Edwinstowe Road</name>
      </trkpt>
      <trkpt lat="53.7506817" lon="-2.9934227">
        <name>Edwinstowe Road</name>
      </trkpt>
      <trkpt lat="53.7505942" lon="-2.9933942">
        <name>Edwinstowe Road</name>
      </trkpt>
      <trkpt lat="53.7505066" lon="-2.9933656">
        <name>Edwinstowe Road</name>
      </trkpt>
      <trkpt lat="53.7504191" lon="-2.9933371">
        <name>Edwinstowe Road</name>
      </trkpt>
      <trkpt lat="53.7503315" lon="-2.9933085">
        <name>Edwinstowe Road</name>
      </trkpt>
      <trkpt lat="53.7502440" lon="-2.9932800">
        <name>Edwinstowe Road</name>
      </trkpt>
      <trkpt lat="53.7501628" lon="-2.9932535">
        <name>Edwinstowe Road</name>
      </trkpt>
      <trkpt lat="53.7500815" lon="-2.9932270">
        <name>Edwinstowe Road</name>
      </trkpt>
      <trkpt lat="53.7500002" lon="-2.9932005">
        <name>Edwinstowe Road</name>
      </trkpt>
      <trkpt lat="53.7499190" lon="-2.9931740">
        <name>Edwinstowe Road</name>
      </trkpt>
      <trkpt lat="53.7498378" lon="-2.9931475">
        <name>Edwinstowe Road</name>
      </trkpt>
      <trkpt lat="53.7497565" lon="-2.9931210">
        <name>Edwinstowe Road</name>
      </trkpt>
      <trkpt lat="53.7496753" lon="-2.9930945">
        <name>Edwinstowe Road</name>
      </trkpt>
      <trkpt lat="53.7495940" lon="-2.9930680">
        <name>Edwinstowe Road</name>
      </trkpt>
      <trkpt lat="53.7495210" lon="-2.9930840">
        <name>Edwinstowe Road</name>
      </trkpt>
      <trkpt lat="53.7494480" lon="-2.9931000">
        <name>Edwinstowe Road</name>
      </trkpt>
      <trkpt lat="53.7493750" lon="-2.9931160">
        <name>Edwinstowe Road</name>
      </trkpt>
      <trkpt lat="53.7493210" lon="-2.9931713">
        <name>Edwinstowe Road</name>
      </trkpt>
      <trkpt lat="53.7492670" lon="-2.9932267">
        <name>Edwinstowe Road</name>
      </trkpt>
      <trkpt lat="53.7492130" lon="-2.9932820">
        <name>Edwinstowe Road</name>
      </trkpt>
      <trkpt lat="53.7491665" lon="-2.9933745">
        <name>Edwinstowe Road</name>
      </trkpt>
      <trkpt lat="53.7491200" lon="-2.9934670">
        <name>Edwinstowe Road</name>
      </trkpt>
      <trkpt lat="53.7491595" lon="-2.9935480">
        <name>Edwinstowe Road</name>
      </trkpt>
      <trkpt lat="53.7491990" lon="-2.9936290">
        <name>Edwinstowe Road</name>
      </trkpt>
      <trkpt lat="53.7492437" lon="-2.9937327">
        <name>Edwinstowe Road</name>
      </trkpt>
      <trkpt lat="53.7492883" lon="-2.9938363">
        <name>Edwinstowe Road</name>
      </trkpt>
      <trkpt lat="53.7493330" lon="-2.9939400">
        <name>Edwinstowe Road</name>
      </trkpt>
      <trkpt lat="53.7493777" lon="-2.9940437">
        <name>Edwinstowe Road</name>
      </trkpt>
      <trkpt lat="53.7494223" lon="-2.9941473">
        <name>Edwinstowe Road</name>
      </trkpt>
      <trkpt lat="53.7494670" lon="-2.9942510">
        <name>Edwinstowe Road</name>
      </trkpt>
      <trkpt lat="53.7495162" lon="-2.9943582">
        <name>Edwinstowe Road</name>
      </trkpt>
      <trkpt lat="53.7495653" lon="-2.9944653">
        <name>Edwinstowe Road</name>
      </trkpt>
      <trkpt lat="53.7496145" lon="-2.9945725">
        <name>Edwinstowe Road</name>
      </trkpt>
      <trkpt lat="53.7496637" lon="-2.9946797">
        <name>Edwinstowe Road</name>
      </trkpt>
      <trkpt lat="53.7497128" lon="-2.9947868">
        <name>Edwinstowe Road</name>
      </trkpt>
      <trkpt lat="53.7497620" lon="-2.9948940">
        <name>Edwinstowe Road</name>
      </trkpt>
      <trkpt lat="53.7498000" lon="-2.9949763">
        <name>Edwinstowe Road</name>
      </trkpt>
      <trkpt lat="53.7498380" lon="-2.9950587">
        <name>Edwinstowe Road</name>
      </trkpt>
      <trkpt lat="53.7498760" lon="-2.9951410">
        <name>Edwinstowe Road</name>
      </trkpt>
      <trkpt lat="53.7499200" lon="-2.9952367">
        <name>Edwinstowe Road</name>
      </trkpt>
      <trkpt lat="53.7499640" lon="-2.9953323">
        <name>Edwinstowe Road</name>
      </trkpt>
      <trkpt lat="53.7500080" lon="-2.9954280">
        <name>Edwinstowe Road</name>
      </trkpt>
      <trkpt lat="53.7500481" lon="-2.9955407">
        <name>Edwinstowe Road</name>
      </trkpt>
      <trkpt lat="53.7500883" lon="-2.9956534">
        <name>Edwinstowe Road</name>
      </trkpt>
      <trkpt lat="53.7501284" lon="-2.9957661">
        <name>Edwinstowe Road</name>
      </trkpt>
      <trkpt lat="53.7501686" lon="-2.9958789">
        <name>Edwinstowe Road</name>
      </trkpt>
      <trkpt lat="53.7502087" lon="-2.9959916">
        <name>Edwinstowe Road</name>
      </trkpt>
      <trkpt lat="53.7502489" lon="-2.9961043">
        <name>Edwinstowe Road</name>
      </trkpt>
      <trkpt lat="53.7502890" lon="-2.9962170">
        <name>Edwinstowe Road</name>
      </trkpt>
      <trkpt lat="53.7503158" lon="-2.9963388">
        <name>Edwinstowe Road</name>
      </trkpt>
      <trkpt lat="53.7503426" lon="-2.9964606">
        <name>Edwinstowe Road</name>
      </trkpt>
      <trkpt lat="53.7503694" lon="-2.9965824">
        <name>Edwinstowe Road</name>
      </trkpt>
      <trkpt lat="53.7503962" lon="-2.9967042">
        <name>Edwinstowe Road</name>
      </trkpt>
      <trkpt lat="53.7504230" lon="-2.9968260">
        <name>Edwinstowe Road</name>
      </trkpt>
      <trkpt lat="53.7504290" lon="-2.9969315">
        <name>Edwinstowe Road</name>
      </trkpt>
      <trkpt lat="53.7504350" lon="-2.9970370">
        <name>Edwinstowe Road</name>
      </trkpt>
      <trkpt lat="53.7503513" lon="-2.9970527">
        <name>South Hey</name>
      </trkpt>
      <trkpt lat="53.7502677" lon="-2.9970683">
        <name>South Hey</name>
      </trkpt>
      <trkpt lat="53.7501840" lon="-2.9970840">
        <name>South Hey</name>
      </trkpt>
      <trkpt lat="53.7501123" lon="-2.9970972">
        <name>South Hey</name>
      </trkpt>
      <trkpt lat="53.7500405" lon="-2.9971105">
        <name>South Hey</name>
      </trkpt>
      <trkpt lat="53.7499687" lon="-2.9971238">
        <name>South Hey</name>
      </trkpt>
      <trkpt lat="53.7498970" lon="-2.9971370">
        <name>South Hey</name>
      </trkpt>
      <trkpt lat="53.7498220" lon="-2.9971882">
        <name>South Hey</name>
      </trkpt>
      <trkpt lat="53.7497470" lon="-2.9972395">
        <name>South Hey</name>
      </trkpt>
      <trkpt lat="53.7496720" lon="-2.9972908">
        <name>South Hey</name>
      </trkpt>
      <trkpt lat="53.7495970" lon="-2.9973420">
        <name>South Hey</name>
      </trkpt>
      <trkpt lat="53.7495496" lon="-2.9972264">
        <name>South Hey</name>
      </trkpt>
      <trkpt lat="53.7495022" lon="-2.9971108">
        <name>South Hey</name>
      </trkpt>
      <trkpt lat="53.7494548" lon="-2.9969952">
        <name>South Hey</name>
      </trkpt>
      <trkpt lat="53.7494074" lon="-2.9968796">
        <name>South Hey</name>
      </trkpt>
      <trkpt lat="53.7493600" lon="-2.9967640">
        <name>South Hey</name>
      </trkpt>
      <trkpt lat="53.7493381" lon="-2.9966299">
        <name>South Hey</name>
      </trkpt>
      <trkpt lat="53.7493162" lon="-2.9964958">
        <name>South Hey</name>
      </trkpt>
      <trkpt lat="53.7492944" lon="-2.9963616">
        <name>South Hey</name>
      </trkpt>
      <trkpt lat="53.7492725" lon="-2.9962275">
        <name>South Hey</name>
      </trkpt>
      <trkpt lat="53.7492506" lon="-2.9960934">
        <name>South Hey</name>
      </trkpt>
      <trkpt lat="53.7492288" lon="-2.9959592">
        <name>South Hey</name>
      </trkpt>
      <trkpt lat="53.7492069" lon="-2.9958251">
        <name>South Hey</name>
      </trkpt>
      <trkpt lat="53.7491850" lon="-2.9956910">
        <name>South Hey</name>
      </trkpt>
      <trkpt lat="53.7491110" lon="-2.9957267">
        <name>South Hey</name>
      </trkpt>
      <trkpt lat="53.7490370" lon="-2.9957623">
        <name>South Hey</name>
      </trkpt>
      <trkpt lat="53.7489630" lon="-2.9957980">
        <name>South Hey</name>
      </trkpt>
      <trkpt lat="53.7488890" lon="-2.9958337">
        <name>South Hey</name>
      </trkpt>
      <trkpt lat="53.7488150" lon="-2.9958693">
        <name>South Hey</name>
      </trkpt>
      <trkpt lat="53.7487410" lon="-2.9959050">
        <name>South Hey</name>
      </trkpt>
      <trkpt lat="53.7486630" lon="-2.9959423">
        <name>South Hey</name>
      </trkpt>
      <trkpt lat="53.7485850" lon="-2.9959797">
        <name>South Hey</name>
      </trkpt>
      <trkpt lat="53.7485070" lon="-2.9960170">
        <name>South Hey</name>
      </trkpt>
      <trkpt lat="53.7484800" lon="-2.9958795">
        <name>South Hey</name>
      </trkpt>
      <trkpt lat="53.7484530" lon="-2.9957420">
        <name>South Hey</name>
      </trkpt>
      <trkpt lat="53.7484260" lon="-2.9956045">
        <name>South Hey</name>
      </trkpt>
      <trkpt lat="53.7483990" lon="-2.9954670">
        <name>South Hey</name>
      </trkpt>
      <trkpt lat="53.7483720" lon="-2.9953295">
        <name>South Hey</name>
      </trkpt>
      <trkpt lat="53.7483450" lon="-2.9951920">
        <name>South Hey</name>
      </trkpt>
      <trkpt lat="53.7483180" lon="-2.9950545">
        <name>South Hey</name>
      </trkpt>
      <trkpt lat="53.7482910" lon="-2.9949170">
        <name>South Hey</name>
      </trkpt>
      <trkpt lat="53.7482662" lon="-2.9947898">
        <name>South Hey</name>
      </trkpt>
      <trkpt lat="53.7482413" lon="-2.9946627">
        <name>South Hey</name>
      </trkpt>
      <trkpt lat="53.7482165" lon="-2.9945355">
        <name>South Hey</name>
      </trkpt>
      <trkpt lat="53.7481917" lon="-2.9944083">
        <name>South Hey</name>
      </trkpt>
      <trkpt lat="53.7481668" lon="-2.9942812">
        <name>South Hey</name>
      </trkpt>
      <trkpt lat="53.7481420" lon="-2.9941540">
        <name>South Hey</name>
      </trkpt>
      <trkpt lat="53.7481207" lon="-2.9940387">
        <name>South Hey</name>
      </trkpt>
      <trkpt lat="53.7480993" lon="-2.9939233">
        <name>South Hey</name>
      </trkpt>
      <trkpt lat="53.7480780" lon="-2.9938080">
        <name>South Hey</name>
      </trkpt>
      <trkpt lat="53.7480537" lon="-2.9936700">
        <name>South Hey</name>
      </trkpt>
      <trkpt lat="53.7480294" lon="-2.9935320">
        <name>South Hey</name>
      </trkpt>
      <trkpt lat="53.7480051" lon="-2.9933940">
        <name>South Hey</name>
      </trkpt>
      <trkpt lat="53.7479809" lon="-2.9932560">
        <name>South Hey</name>
      </trkpt>
      <trkpt lat="53.7479566" lon="-2.9931180">
        <name>South Hey</name>
      </trkpt>
      <trkpt lat="53.7479323" lon="-2.9929800">
        <name>South Hey</name>
      </trkpt>
      <trkpt lat="53.7479080" lon="-2.9928420">
        <name>South Hey</name>
      </trkpt>
      <trkpt lat="53.7478845" lon="-2.9927092">
        <name>South Hey</name>
      </trkpt>
      <trkpt lat="53.7478610" lon="-2.9925765">
        <name>South Hey</name>
      </trkpt>
      <trkpt lat="53.7478375" lon="-2.9924438">
        <name>South Hey</name>
      </trkpt>
      <trkpt lat="53.7478140" lon="-2.9923110">
        <name>South Hey</name>
      </trkpt>
      <trkpt lat="53.7477273" lon="-2.9922827">
        <name>Fallowfield Road</name>
      </trkpt>
      <trkpt lat="53.7476407" lon="-2.9922543">
        <name>Fallowfield Road</name>
      </trkpt>
      <trkpt lat="53.7475540" lon="-2.9922260">
        <name>Fallowfield Road</name>
      </trkpt>
      <trkpt lat="53.7474800" lon="-2.9922015">
        <name>Fallowfield Road</name>
      </trkpt>
      <trkpt lat="53.7474060" lon="-2.9921770">
        <name>Fallowfield Road</name>
      </trkpt>
      <trkpt lat="53.7473277" lon="-2.9922187">
        <name>Fallowfield Road</name>
      </trkpt>
      <trkpt lat="53.7472494" lon="-2.9922604">
        <name>Fallowfield Road</name>
      </trkpt>
      <trkpt lat="53.7471711" lon="-2.9923021">
        <name>Fallowfield Road</name>
      </trkpt>
      <trkpt lat="53.7470929" lon="-2.9923439">
        <name>Fallowfield Road</name>
      </trkpt>
      <trkpt lat="53.7470146" lon="-2.9923856">
        <name>Fallowfield Road</name>
      </trkpt>
      <trkpt lat="53.7469363" lon="-2.9924273">
        <name>Fallowfield Road</name>
      </trkpt>
      <trkpt lat="53.7468580" lon="-2.9924690">
        <name>Fallowfield Road</name>
      </trkpt>
      <trkpt lat="53.7468833" lon="-2.9926005">
        <name>Fallowfield Road</name>
      </trkpt>
      <trkpt lat="53.7469087" lon="-2.9927320">
        <name>Fallowfield Road</name>
      </trkpt>
      <trkpt lat="53.7469340" lon="-2.9928635">
        <name>Fallowfield Road</name>
      </trkpt>
      <trkpt lat="53.7469593" lon="-2.9929950">
        <name>Fallowfield Road</name>
      </trkpt>
      <trkpt lat="53.7469847" lon="-2.9931265">
        <name>Fallowfield Road</name>
      </trkpt>
      <trkpt lat="53.7470100" lon="-2.9932580">
        <name>Fallowfield Road</name>
      </trkpt>
      <trkpt lat="53.7470355" lon="-2.9933908">
        <name>Fallowfield Road</name>
      </trkpt>
      <trkpt lat="53.7470610" lon="-2.9935235">
        <name>Fallowfield Road</name>
      </trkpt>
      <trkpt lat="53.7470865" lon="-2.9936562">
        <name>Fallowfield Road</name>
      </trkpt>
      <trkpt lat="53.7471120" lon="-2.9937890">
        <name>Fallowfield Road</name>
      </trkpt>
      <trkpt lat="53.7470268" lon="-2.9938354">
        <name>Fallowfield Road</name>
      </trkpt>
      <trkpt lat="53.7469416" lon="-2.9938819">
        <name>Fallowfield Road</name>
      </trkpt>
      <trkpt lat="53.7468564" lon="-2.9939283">
        <name>Fallowfield Road</name>
      </trkpt>
      <trkpt lat="53.7467711" lon="-2.9939747">
        <name>Fallowfield Road</name>
      </trkpt>
      <trkpt lat="53.7466859" lon="-2.9940211">
        <name>Fallowfield Road</name>
      </trkpt>
      <trkpt lat="53.7466007" lon="-2.9940676">
        <name>Fallowfield Road</name>
      </trkpt>
      <trkpt lat="53.7465155" lon="-2.9941140">
        <name>Fallowfield Road</name>
      </trkpt>
      <trkpt lat="53.7464303" lon="-2.9941604">
        <name>Fallowfield Road</name>
      </trkpt>
      <trkpt lat="53.7463451" lon="-2.9942069">
        <name>Fallowfield Road</name>
      </trkpt>
      <trkpt lat="53.7462599" lon="-2.9942533">
        <name>Fallowfield Road</name>
      </trkpt>
      <trkpt lat="53.7461746" lon="-2.9942997">
        <name>Fallowfield Road</name>
      </trkpt>
      <trkpt lat="53.7460894" lon="-2.9943461">
        <name>Fallowfield Road</name>
      </trkpt>
      <trkpt lat="53.7460042" lon="-2.9943926">
        <name>Fallowfield Road</name>
      </trkpt>
      <trkpt lat="53.7459190" lon="-2.9944390">
        <name>Fallowfield Road</name>
      </trkpt>
      <trkpt lat="53.7458740" lon="-2.9944640">
        <name>Fallowfield Road</name>
      </trkpt>
      <trkpt lat="53.7458484" lon="-2.9943266">
        <name>Brooklands Road</name>
      </trkpt>
      <trkpt lat="53.7458228" lon="-2.9941892">
        <name>Brooklands Road</name>
      </trkpt>
      <trkpt lat="53.7457972" lon="-2.9940518">
        <name>Brooklands Road</name>
      </trkpt>
      <trkpt lat="53.7457716" lon="-2.9939144">
        <name>Brooklands Road</name>
      </trkpt>
      <trkpt lat="53.7457460" lon="-2.9937770">
        <name>Brooklands Road</name>
      </trkpt>
      <trkpt lat="53.7457228" lon="-2.9936526">
        <name>Brooklands Road</name>
      </trkpt>
      <trkpt lat="53.7456996" lon="-2.9935282">
        <name>Brooklands Road</name>
      </trkpt>
      <trkpt lat="53.7456764" lon="-2.9934038">
        <name>Brooklands Road</name>
      </trkpt>
      <trkpt lat="53.7456532" lon="-2.9932794">
        <name>Brooklands Road</name>
      </trkpt>
      <trkpt lat="53.7456300" lon="-2.9931550">
        <name>Brooklands Road</name>
      </trkpt>
      <trkpt lat="53.7457119" lon="-2.9931093">
        <name>Brooklands Road</name>
      </trkpt>
      <trkpt lat="53.7457937" lon="-2.9930635">
        <name>Brooklands Road</name>
      </trkpt>
      <trkpt lat="53.7458756" lon="-2.9930178">
        <name>Brooklands Road</name>
      </trkpt>
      <trkpt lat="53.7459575" lon="-2.9929721">
        <name>Brooklands Road</name>
      </trkpt>
      <trkpt lat="53.7460393" lon="-2.9929263">
        <name>Brooklands Road</name>
      </trkpt>
      <trkpt lat="53.7461212" lon="-2.9928806">
        <name>Brooklands Road</name>
      </trkpt>
      <trkpt lat="53.7462031" lon="-2.9928349">
        <name>Brooklands Road</name>
      </trkpt>
      <trkpt lat="53.7462849" lon="-2.9927891">
        <name>Brooklands Road</name>
      </trkpt>
      <trkpt lat="53.7463668" lon="-2.9927434">
        <name>Brooklands Road</name>
      </trkpt>
      <trkpt lat="53.7464487" lon="-2.9926977">
        <name>Brooklands Road</name>
      </trkpt>
      <trkpt lat="53.7465305" lon="-2.9926519">
        <name>Brooklands Road</name>
      </trkpt>
      <trkpt lat="53.7466124" lon="-2.9926062">
        <name>Brooklands Road</name>
      </trkpt>
      <trkpt lat="53.7466943" lon="-2.9925605">
        <name>Brooklands Road</name>
      </trkpt>
      <trkpt lat="53.7467761" lon="-2.9925147">
        <name>Brooklands Road</name>
      </trkpt>
      <trkpt lat="53.7468580" lon="-2.9924690">
        <name>Brooklands Road</name>
      </trkpt>
      <trkpt lat="53.7468340" lon="-2.9923418">
        <name>Worsley Road</name>
      </trkpt>
      <trkpt lat="53.7468100" lon="-2.9922147">
        <name>Worsley Road</name>
      </trkpt>
      <trkpt lat="53.7467860" lon="-2.9920875">
        <name>Worsley Road</name>
      </trkpt>
      <trkpt lat="53.7467620" lon="-2.9919603">
        <name>Worsley Road</name>
      </trkpt>
      <trkpt lat="53.7467380" lon="-2.9918332">
        <name>Worsley Road</name>
      </trkpt>
      <trkpt lat="53.7467140" lon="-2.9917060">
        <name>Worsley Road</name>
      </trkpt>
      <trkpt lat="53.7466914" lon="-2.9915856">
        <name>Worsley Road</name>
      </trkpt>
      <trkpt lat="53.7466688" lon="-2.9914652">
        <name>Worsley Road</name>
      </trkpt>
      <trkpt lat="53.7466462" lon="-2.9913448">
        <name>Worsley Road</name>
      </trkpt>
      <trkpt lat="53.7466236" lon="-2.9912244">
        <name>Worsley Road</name>
      </trkpt>
      <trkpt lat="53.7466010" lon="-2.9911040">
        <name>Worsley Road</name>
      </trkpt>
      <trkpt lat="53.7465193" lon="-2.9911495">
        <name>Worsley Road</name>
      </trkpt>
      <trkpt lat="53.7464375" lon="-2.9911949">
        <name>Worsley Road</name>
      </trkpt>
      <trkpt lat="53.7463558" lon="-2.9912404">
        <name>Worsley Road</name>
      </trkpt>
      <trkpt lat="53.7462741" lon="-2.9912859">
        <name>Worsley Road</name>
      </trkpt>
      <trkpt lat="53.7461923" lon="-2.9913313">
        <name>Worsley Road</name>
      </trkpt>
      <trkpt lat="53.7461106" lon="-2.9913768">
        <name>Worsley Road</name>
      </trkpt>
      <trkpt lat="53.7460289" lon="-2.9914223">
        <name>Worsley Road</name>
      </trkpt>
      <trkpt lat="53.7459471" lon="-2.9914677">
        <name>Worsley Road</name>
      </trkpt>
      <trkpt lat="53.7458654" lon="-2.9915132">
        <name>Worsley Road</name>
      </trkpt>
      <trkpt lat="53.7457837" lon="-2.9915587">
        <name>Worsley Road</name>
      </trkpt>
      <trkpt lat="53.7457019" lon="-2.9916041">
        <name>Worsley Road</name>
      </trkpt>
      <trkpt lat="53.7456202" lon="-2.9916496">
        <name>Worsley Road</name>
      </trkpt>
      <trkpt lat="53.7455385" lon="-2.9916951">
        <name>Worsley Road</name>
      </trkpt>
      <trkpt lat="53.7454567" lon="-2.9917405">
        <name>Worsley Road</name>
      </trkpt>
      <trkpt lat="53.7453750" lon="-2.9917860">
        <name>Worsley Road</name>
      </trkpt>
      <trkpt lat="53.7452924" lon="-2.9918344">
        <name>Worsley Road</name>
      </trkpt>
      <trkpt lat="53.7452099" lon="-2.9918829">
        <name>Worsley Road</name>
      </trkpt>
      <trkpt lat="53.7451273" lon="-2.9919313">
        <name>Worsley Road</name>
      </trkpt>
      <trkpt lat="53.7450447" lon="-2.9919797">
        <name>Worsley Road</name>
      </trkpt>
      <trkpt lat="53.7449621" lon="-2.9920281">
        <name>Worsley Road</name>
      </trkpt>
      <trkpt lat="53.7448796" lon="-2.9920766">
        <name>Worsley Road</name>
      </trkpt>
      <trkpt lat="53.7447970" lon="-2.9921250">
        <name>Worsley Road</name>
      </trkpt>
      <trkpt lat="53.7447440" lon="-2.9921560">
        <name>Worsley Road</name>
      </trkpt>
      <trkpt lat="53.7446863" lon="-2.9921877">
        <name>Worsley Road</name>
      </trkpt>
      <trkpt lat="53.7446287" lon="-2.9922193">
        <name>Worsley Road</name>
      </trkpt>
      <trkpt lat="53.7445710" lon="-2.9922510">
        <name>Worsley Road</name>
      </trkpt>
      <trkpt lat="53.7444992" lon="-2.9922908">
        <name>Rufford Road</name>
      </trkpt>
      <trkpt lat="53.7444274" lon="-2.9923306">
        <name>Rufford Road</name>
      </trkpt>
      <trkpt lat="53.7443556" lon="-2.9923704">
        <name>Rufford Road</name>
      </trkpt>
      <trkpt lat="53.7442838" lon="-2.9924102">
        <name>Rufford Road</name>
      </trkpt>
      <trkpt lat="53.7442120" lon="-2.9924500">
        <name>Rufford Road</name>
      </trkpt>
      <trkpt lat="53.7441860" lon="-2.9923250">
        <name>Rufford Road</name>
      </trkpt>
      <trkpt lat="53.7441600" lon="-2.9922000">
        <name>Rufford Road</name>
      </trkpt>
      <trkpt lat="53.7441340" lon="-2.9920750">
        <name>Rufford Road</name>
      </trkpt>
      <trkpt lat="53.7441080" lon="-2.9919500">
        <name>Rufford Road</name>
      </trkpt>
      <trkpt lat="53.7440820" lon="-2.9918250">
        <name>Rufford Road</name>
      </trkpt>
      <trkpt lat="53.7440560" lon="-2.9917000">
        <name>Rufford Road</name>
      </trkpt>
      <trkpt lat="53.7440278" lon="-2.9915760">
        <name>Rufford Road</name>
      </trkpt>
      <trkpt lat="53.7439997" lon="-2.9914520">
        <name>Rufford Road</name>
      </trkpt>
      <trkpt lat="53.7439715" lon="-2.9913280">
        <name>Rufford Road</name>
      </trkpt>
      <trkpt lat="53.7439433" lon="-2.9912040">
        <name>Rufford Road</name>
      </trkpt>
      <trkpt lat="53.7439152" lon="-2.9910800">
        <name>Rufford Road</name>
      </trkpt>
      <trkpt lat="53.7438870" lon="-2.9909560">
        <name>Rufford Road</name>
      </trkpt>
      <trkpt lat="53.7438112" lon="-2.9910076">
        <name>Rufford Road</name>
      </trkpt>
      <trkpt lat="53.7437354" lon="-2.9910592">
        <name>Rufford Road</name>
      </trkpt>
      <trkpt lat="53.7436596" lon="-2.9911108">
        <name>Rufford Road</name>
      </trkpt>
      <trkpt lat="53.7435838" lon="-2.9911624">
        <name>Rufford Road</name>
      </trkpt>
      <trkpt lat="53.7435080" lon="-2.9912140">
        <name>Rufford Road</name>
      </trkpt>
      <trkpt lat="53.7434790" lon="-2.9910887">
        <name>Rufford Road</name>
      </trkpt>
      <trkpt lat="53.7434500" lon="-2.9909635">
        <name>Rufford Road</name>
      </trkpt>
      <trkpt lat="53.7434210" lon="-2.9908382">
        <name>Rufford Road</name>
      </trkpt>
      <trkpt lat="53.7433920" lon="-2.9907130">
        <name>Rufford Road</name>
      </trkpt>
      <trkpt lat="53.7433630" lon="-2.9905877">
        <name>Rufford Road</name>
      </trkpt>
      <trkpt lat="53.7433340" lon="-2.9904625">
        <name>Rufford Road</name>
      </trkpt>
      <trkpt lat="53.7433050" lon="-2.9903373">
        <name>Rufford Road</name>
      </trkpt>
      <trkpt lat="53.7432760" lon="-2.9902120">
        <name>Rufford Road</name>
      </trkpt>
      <trkpt lat="53.7432451" lon="-2.9900786">
        <name>Rufford Road</name>
      </trkpt>
      <trkpt lat="53.7432143" lon="-2.9899452">
        <name>Rufford Road</name>
      </trkpt>
      <trkpt lat="53.7431834" lon="-2.9898119">
        <name>Rufford Road</name>
      </trkpt>
      <trkpt lat="53.7431525" lon="-2.9896785">
        <name>Rufford Road</name>
      </trkpt>
      <trkpt lat="53.7431216" lon="-2.9895451">
        <name>Rufford Road</name>
      </trkpt>
      <trkpt lat="53.7430908" lon="-2.9894118">
        <name>Rufford Road</name>
      </trkpt>
      <trkpt lat="53.7430599" lon="-2.9892784">
        <name>Rufford Road</name>
      </trkpt>
      <trkpt lat="53.7430290" lon="-2.9891450">
        <name>Rufford Road</name>
      </trkpt>
      <trkpt lat="53.7429987" lon="-2.9890052">
        <name>Fylde Road</name>
      </trkpt>
      <trkpt lat="53.7429685" lon="-2.9888654">
        <name>Fylde Road</name>
      </trkpt>
      <trkpt lat="53.7429382" lon="-2.9887255">
        <name>Fylde Road</name>
      </trkpt>
      <trkpt lat="53.7429079" lon="-2.9885857">
        <name>Fylde Road</name>
      </trkpt>
      <trkpt lat="53.7428776" lon="-2.9884459">
        <name>Fylde Road</name>
      </trkpt>
      <trkpt lat="53.7428474" lon="-2.9883061">
        <name>Fylde Road</name>
      </trkpt>
      <trkpt lat="53.7428171" lon="-2.9881663">
        <name>Fylde Road</name>
      </trkpt>
      <trkpt lat="53.7427868" lon="-2.9880265">
        <name>Fylde Road</name>
      </trkpt>
      <trkpt lat="53.7427565" lon="-2.9878866">
        <name>Fylde Road</name>
      </trkpt>
      <trkpt lat="53.7427263" lon="-2.9877468">
        <name>Fylde Road</name>
      </trkpt>
      <trkpt lat="53.7426960" lon="-2.9876070">
        <name>Fylde Road</name>
      </trkpt>
      <trkpt lat="53.7426840" lon="-2.9875170">
        <name>Fylde Road</name>
      </trkpt>
      <trkpt lat="53.7426870" lon="-2.9874390">
        <name>Fylde Road</name>
      </trkpt>
      <trkpt lat="53.7426980" lon="-2.9873710">
        <name>Fylde Road</name>
      </trkpt>
      <trkpt lat="53.7426570" lon="-2.9873380">
        <name>Fylde Road</name>
      </trkpt>
      <trkpt lat="53.7426100" lon="-2.9872975">
        <name>Fylde Road</name>
      </trkpt>
      <trkpt lat="53.7425630" lon="-2.9872570">
        <name>Fylde Road</name>
      </trkpt>
      <trkpt lat="53.7425180" lon="-2.9873770">
        <name>Fylde Road</name>
      </trkpt>
      <trkpt lat="53.7424990" lon="-2.9874160">
        <name>Albany Road</name>
      </trkpt>
      <trkpt lat="53.7424800" lon="-2.9874430">
        <name>Albany Road</name>
      </trkpt>
      <trkpt lat="53.7424480" lon="-2.9874700">
        <name>Albany Road</name>
      </trkpt>
      <trkpt lat="53.7423719" lon="-2.9875196">
        <name>Albany Road</name>
      </trkpt>
      <trkpt lat="53.7422958" lon="-2.9875692">
        <name>Albany Road</name>
      </trkpt>
      <trkpt lat="53.7422196" lon="-2.9876189">
        <name>Albany Road</name>
      </trkpt>
      <trkpt lat="53.7421435" lon="-2.9876685">
        <name>Albany Road</name>
      </trkpt>
      <trkpt lat="53.7420674" lon="-2.9877181">
        <name>Albany Road</name>
      </trkpt>
      <trkpt lat="53.7419912" lon="-2.9877678">
        <name>Albany Road</name>
      </trkpt>
      <trkpt lat="53.7419151" lon="-2.9878174">
        <name>Albany Road</name>
      </trkpt>
      <trkpt lat="53.7418390" lon="-2.9878670">
        <name>Albany Road</name>
      </trkpt>
      <trkpt lat="53.7418705" lon="-2.9880008">
        <name>Albany Road</name>
      </trkpt>
      <trkpt lat="53.7419020" lon="-2.9881347">
        <name>Albany Road</name>
      </trkpt>
      <trkpt lat="53.7419335" lon="-2.9882685">
        <name>Albany Road</name>
      </trkpt>
      <trkpt lat="53.7419650" lon="-2.9884023">
        <name>Albany Road</name>
      </trkpt>
      <trkpt lat="53.7419965" lon="-2.9885362">
        <name>Albany Road</name>
      </trkpt>
      <trkpt lat="53.7420280" lon="-2.9886700">
        <name>Albany Road</name>
      </trkpt>
      <trkpt lat="53.7420532" lon="-2.9887916">
        <name>Albany Road</name>
      </trkpt>
      <trkpt lat="53.7420784" lon="-2.9889132">
        <name>Albany Road</name>
      </trkpt>
      <trkpt lat="53.7421036" lon="-2.9890348">
        <name>Albany Road</name>
      </trkpt>
      <trkpt lat="53.7421288" lon="-2.9891564">
        <name>Albany Road</name>
      </trkpt>
      <trkpt lat="53.7421540" lon="-2.9892780">
        <name>Albany Road</name>
      </trkpt>
      <trkpt lat="53.7420702" lon="-2.9893328">
        <name>Lansdowne Road</name>
      </trkpt>
      <trkpt lat="53.7419864" lon="-2.9893876">
        <name>Lansdowne Road</name>
      </trkpt>
      <trkpt lat="53.7419026" lon="-2.9894424">
        <name>Lansdowne Road</name>
      </trkpt>
      <trkpt lat="53.7418188" lon="-2.9894972">
        <name>Lansdowne Road</name>
      </trkpt>
      <trkpt lat="53.7417350" lon="-2.9895520">
        <name>Lansdowne Road</name>
      </trkpt>
      <trkpt lat="53.7416586" lon="-2.9896018">
        <name>Lansdowne Road</name>
      </trkpt>
      <trkpt lat="53.7415822" lon="-2.9896516">
        <name>Lansdowne Road</name>
      </trkpt>
      <trkpt lat="53.7415058" lon="-2.9897014">
        <name>Lansdowne Road</name>
      </trkpt>
      <trkpt lat="53.7414294" lon="-2.9897512">
        <name>Lansdowne Road</name>
      </trkpt>
      <trkpt lat="53.7413530" lon="-2.9898010">
        <name>Lansdowne Road</name>
      </trkpt>
      <trkpt lat="53.7412766" lon="-2.9898508">
        <name>Lansdowne Road</name>
      </trkpt>
      <trkpt lat="53.7412002" lon="-2.9899006">
        <name>Lansdowne Road</name>
      </trkpt>
      <trkpt lat="53.7411238" lon="-2.9899504">
        <name>Lansdowne Road</name>
      </trkpt>
      <trkpt lat="53.7410474" lon="-2.9900002">
        <name>Lansdowne Road</name>
      </trkpt>
      <trkpt lat="53.7409710" lon="-2.9900500">
        <name>Lansdowne Road</name>
      </trkpt>
      <trkpt lat="53.7410139" lon="-2.9901682">
        <name>Lansdowne Road</name>
      </trkpt>
      <trkpt lat="53.7410567" lon="-2.9902865">
        <name>Lansdowne Road</name>
      </trkpt>
      <trkpt lat="53.7410996" lon="-2.9904048">
        <name>Lansdowne Road</name>
      </trkpt>
      <trkpt lat="53.7411425" lon="-2.9905230">
        <name>Lansdowne Road</name>
      </trkpt>
      <trkpt lat="53.7411854" lon="-2.9906412">
        <name>Lansdowne Road</name>
      </trkpt>
      <trkpt lat="53.7412283" lon="-2.9907595">
        <name>Lansdowne Road</name>
      </trkpt>
      <trkpt lat="53.7412711" lon="-2.9908778">
        <name>Lansdowne Road</name>
      </trkpt>
      <trkpt lat="53.7413140" lon="-2.9909960">
        <name>Lansdowne Road</name>
      </trkpt>
      <trkpt lat="53.7413485" lon="-2.9910915">
        <name>Ripon Road</name>
      </trkpt>
      <trkpt lat="53.7413830" lon="-2.9911870">
        <name>Ripon Road</name>
      </trkpt>
      <trkpt lat="53.7414664" lon="-2.9911330">
        <name>Ripon Road</name>
      </trkpt>
      <trkpt lat="53.7415497" lon="-2.9910790">
        <name>Ripon Road</name>
      </trkpt>
      <trkpt lat="53.7416331" lon="-2.9910250">
        <name>Ripon Road</name>
      </trkpt>
      <trkpt lat="53.7417165" lon="-2.9909710">
        <name>Ripon Road</name>
      </trkpt>
      <trkpt lat="53.7417999" lon="-2.9909170">
        <name>Ripon Road</name>
      </trkpt>
      <trkpt lat="53.7418833" lon="-2.9908630">
        <name>Ripon Road</name>
      </trkpt>
      <trkpt lat="53.7419666" lon="-2.9908090">
        <name>Ripon Road</name>
      </trkpt>
      <trkpt lat="53.7420500" lon="-2.9907550">
        <name>Ripon Road</name>
      </trkpt>
      <trkpt lat="53.7421304" lon="-2.9906998">
        <name>Ripon Road</name>
      </trkpt>
      <trkpt lat="53.7422108" lon="-2.9906446">
        <name>Ripon Road</name>
      </trkpt>
      <trkpt lat="53.7422912" lon="-2.9905894">
        <name>Ripon Road</name>
      </trkpt>
      <trkpt lat="53.7423716" lon="-2.9905342">
        <name>Ripon Road</name>
      </trkpt>
      <trkpt lat="53.7424520" lon="-2.9904790">
        <name>Ripon Road</name>
      </trkpt>
      <trkpt lat="53.7424808" lon="-2.9906058">
        <name>Ripon Road</name>
      </trkpt>
      <trkpt lat="53.7425096" lon="-2.9907326">
        <name>Ripon Road</name>
      </trkpt>
      <trkpt lat="53.7425384" lon="-2.9908594">
        <name>Ripon Road</name>
      </trkpt>
      <trkpt lat="53.7425672" lon="-2.9909862">
        <name>Ripon Road</name>
      </trkpt>
      <trkpt lat="53.7425960" lon="-2.9911130">
        <name>Ripon Road</name>
      </trkpt>
      <trkpt lat="53.7426248" lon="-2.9912358">
        <name>Ripon Road</name>
      </trkpt>
      <trkpt lat="53.7426536" lon="-2.9913586">
        <name>Ripon Road</name>
      </trkpt>
      <trkpt lat="53.7426824" lon="-2.9914814">
        <name>Ripon Road</name>
      </trkpt>
      <trkpt lat="53.7427112" lon="-2.9916042">
        <name>Ripon Road</name>
      </trkpt>
      <trkpt lat="53.7427400" lon="-2.9917270">
        <name>Ripon Road</name>
      </trkpt>
      <trkpt lat="53.7427720" lon="-2.9918616">
        <name>Ripon Road</name>
      </trkpt>
      <trkpt lat="53.7428040" lon="-2.9919962">
        <name>Ripon Road</name>
      </trkpt>
      <trkpt lat="53.7428360" lon="-2.9921308">
        <name>Ripon Road</name>
      </trkpt>
      <trkpt lat="53.7428680" lon="-2.9922654">
        <name>Ripon Road</name>
      </trkpt>
      <trkpt lat="53.7429000" lon="-2.9924000">
        <name>Ripon Road</name>
      </trkpt>
      <trkpt lat="53.7429205" lon="-2.9924825">
        <name>Fylde Road</name>
      </trkpt>
      <trkpt lat="53.7429410" lon="-2.9925650">
        <name>Fylde Road</name>
      </trkpt>
      <trkpt lat="53.7429667" lon="-2.9926703">
        <name>Fylde Road</name>
      </trkpt>
      <trkpt lat="53.7429923" lon="-2.9927757">
        <name>Fylde Road</name>
      </trkpt>
      <trkpt lat="53.7430180" lon="-2.9928810">
        <name>Fylde Road</name>
      </trkpt>
      <trkpt lat="53.7430513" lon="-2.9930168">
        <name>Albany Road</name>
      </trkpt>
      <trkpt lat="53.7430846" lon="-2.9931526">
        <name>Albany Road</name>
      </trkpt>
      <trkpt lat="53.7431179" lon="-2.9932884">
        <name>Albany Road</name>
      </trkpt>
      <trkpt lat="53.7431511" lon="-2.9934241">
        <name>Albany Road</name>
      </trkpt>
      <trkpt lat="53.7431844" lon="-2.9935599">
        <name>Albany Road</name>
      </trkpt>
      <trkpt lat="53.7432177" lon="-2.9936957">
        <name>Albany Road</name>
      </trkpt>
      <trkpt lat="53.7432510" lon="-2.9938315">
        <name>Albany Road</name>
      </trkpt>
      <trkpt lat="53.7432843" lon="-2.9939673">
        <name>Albany Road</name>
      </trkpt>
      <trkpt lat="53.7433176" lon="-2.9941031">
        <name>Albany Road</name>
      </trkpt>
      <trkpt lat="53.7433509" lon="-2.9942389">
        <name>Albany Road</name>
      </trkpt>
      <trkpt lat="53.7433841" lon="-2.9943746">
        <name>Albany Road</name>
      </trkpt>
      <trkpt lat="53.7434174" lon="-2.9945104">
        <name>Albany Road</name>
      </trkpt>
      <trkpt lat="53.7434507" lon="-2.9946462">
        <name>Albany Road</name>
      </trkpt>
      <trkpt lat="53.7434840" lon="-2.9947820">
        <name>Albany Road</name>
      </trkpt>
      <trkpt lat="53.7435616" lon="-2.9947336">
        <name>Albany Road</name>
      </trkpt>
      <trkpt lat="53.7436392" lon="-2.9946852">
        <name>Albany Road</name>
      </trkpt>
      <trkpt lat="53.7437168" lon="-2.9946368">
        <name>Albany Road</name>
      </trkpt>
      <trkpt lat="53.7437944" lon="-2.9945884">
        <name>Albany Road</name>
      </trkpt>
      <trkpt lat="53.7438720" lon="-2.9945400">
        <name>Albany Road</name>
      </trkpt>
      <trkpt lat="53.7439465" lon="-2.9944860">
        <name>Albany Road</name>
      </trkpt>
      <trkpt lat="53.7440210" lon="-2.9944320">
        <name>Albany Road</name>
      </trkpt>
      <trkpt lat="53.7440955" lon="-2.9943780">
        <name>Albany Road</name>
      </trkpt>
      <trkpt lat="53.7441700" lon="-2.9943240">
        <name>Albany Road</name>
      </trkpt>
      <trkpt lat="53.7442445" lon="-2.9942700">
        <name>Albany Road</name>
      </trkpt>
      <trkpt lat="53.7443190" lon="-2.9942160">
        <name>Albany Road</name>
      </trkpt>
      <trkpt lat="53.7443690" lon="-2.9942270">
        <name>Albany Road</name>
      </trkpt>
      <trkpt lat="53.7444582" lon="-2.9942278">
        <name>Albany Road</name>
      </trkpt>
      <trkpt lat="53.7445473" lon="-2.9942287">
        <name>Albany Road</name>
      </trkpt>
      <trkpt lat="53.7446365" lon="-2.9942295">
        <name>Albany Road</name>
      </trkpt>
      <trkpt lat="53.7447257" lon="-2.9942303">
        <name>Albany Road</name>
      </trkpt>
      <trkpt lat="53.7448148" lon="-2.9942312">
        <name>Albany Road</name>
      </trkpt>
      <trkpt lat="53.7449040" lon="-2.9942320">
        <name>Albany Road</name>
      </trkpt>
      <trkpt lat="53.7449540" lon="-2.9943010">
        <name>Albany Road</name>
      </trkpt>
      <trkpt lat="53.7449890" lon="-2.9943950">
        <name>Rutland Road</name>
      </trkpt>
      <trkpt lat="53.7450020" lon="-2.9944705">
        <name>Rutland Road</name>
      </trkpt>
      <trkpt lat="53.7450150" lon="-2.9945460">
        <name>Rutland Road</name>
      </trkpt>
      <trkpt lat="53.7450310" lon="-2.9946410">
        <name>Rutland Road</name>
      </trkpt>
      <trkpt lat="53.7450535" lon="-2.9947705">
        <name>Rutland Road</name>
      </trkpt>
      <trkpt lat="53.7450760" lon="-2.9949000">
        <name>Rutland Road</name>
      </trkpt>
      <trkpt lat="53.7450927" lon="-2.9950050">
        <name>Rutland Road</name>
      </trkpt>
      <trkpt lat="53.7451093" lon="-2.9951100">
        <name>Rutland Road</name>
      </trkpt>
      <trkpt lat="53.7451260" lon="-2.9952150">
        <name>Rutland Road</name>
      </trkpt>
      <trkpt lat="53.7450484" lon="-2.9952556">
        <name>Rutland Road</name>
      </trkpt>
      <trkpt lat="53.7449708" lon="-2.9952962">
        <name>Rutland Road</name>
      </trkpt>
      <trkpt lat="53.7448932" lon="-2.9953368">
        <name>Rutland Road</name>
      </trkpt>
      <trkpt lat="53.7448156" lon="-2.9953774">
        <name>Rutland Road</name>
      </trkpt>
      <trkpt lat="53.7447380" lon="-2.9954180">
        <name>Rutland Road</name>
      </trkpt>
      <trkpt lat="53.7446619" lon="-2.9954628">
        <name>Rutland Road</name>
      </trkpt>
      <trkpt lat="53.7445858" lon="-2.9955076">
        <name>Rutland Road</name>
      </trkpt>
      <trkpt lat="53.7445097" lon="-2.9955523">
        <name>Rutland Road</name>
      </trkpt>
      <trkpt lat="53.7444336" lon="-2.9955971">
        <name>Rutland Road</name>
      </trkpt>
      <trkpt lat="53.7443574" lon="-2.9956419">
        <name>Rutland Road</name>
      </trkpt>
      <trkpt lat="53.7442813" lon="-2.9956867">
        <name>Rutland Road</name>
      </trkpt>
      <trkpt lat="53.7442052" lon="-2.9957314">
        <name>Rutland Road</name>
      </trkpt>
      <trkpt lat="53.7441291" lon="-2.9957762">
        <name>Rutland Road</name>
      </trkpt>
      <trkpt lat="53.7440530" lon="-2.9958210">
        <name>Rutland Road</name>
      </trkpt>
      <trkpt lat="53.7439885" lon="-2.9958615">
        <name>Rutland Road</name>
      </trkpt>
      <trkpt lat="53.7439240" lon="-2.9959020">
        <name>Rutland Road</name>
      </trkpt>
      <trkpt lat="53.7438595" lon="-2.9959425">
        <name>Rutland Road</name>
      </trkpt>
      <trkpt lat="53.7437950" lon="-2.9959830">
        <name>Rutland Road</name>
      </trkpt>
      <trkpt lat="53.7438488" lon="-2.9960822">
        <name>Rutland Road</name>
      </trkpt>
      <trkpt lat="53.7439026" lon="-2.9961814">
        <name>Rutland Road</name>
      </trkpt>
      <trkpt lat="53.7439564" lon="-2.9962806">
        <name>Rutland Road</name>
      </trkpt>
      <trkpt lat="53.7440102" lon="-2.9963798">
        <name>Rutland Road</name>
      </trkpt>
      <trkpt lat="53.7440640" lon="-2.9964790">
        <name>Rutland Road</name>
      </trkpt>
      <trkpt lat="53.7441220" lon="-2.9965857">
        <name>Seymour Road</name>
      </trkpt>
      <trkpt lat="53.7441800" lon="-2.9966925">
        <name>Seymour Road</name>
      </trkpt>
      <trkpt lat="53.7442380" lon="-2.9967993">
        <name>Seymour Road</name>
      </trkpt>
      <trkpt lat="53.7442960" lon="-2.9969060">
        <name>Seymour Road</name>
      </trkpt>
      <trkpt lat="53.7443795" lon="-2.9968578">
        <name>Seymour Road</name>
      </trkpt>
      <trkpt lat="53.7444630" lon="-2.9968095">
        <name>Seymour Road</name>
      </trkpt>
      <trkpt lat="53.7445465" lon="-2.9967613">
        <name>Seymour Road</name>
      </trkpt>
      <trkpt lat="53.7446300" lon="-2.9967130">
        <name>Seymour Road</name>
      </trkpt>
      <trkpt lat="53.7447135" lon="-2.9966647">
        <name>Seymour Road</name>
      </trkpt>
      <trkpt lat="53.7447970" lon="-2.9966165">
        <name>Seymour Road</name>
      </trkpt>
      <trkpt lat="53.7448805" lon="-2.9965682">
        <name>Seymour Road</name>
      </trkpt>
      <trkpt lat="53.7449640" lon="-2.9965200">
        <name>Seymour Road</name>
      </trkpt>
      <trkpt lat="53.7450412" lon="-2.9964744">
        <name>Seymour Road</name>
      </trkpt>
      <trkpt lat="53.7451184" lon="-2.9964288">
        <name>Seymour Road</name>
      </trkpt>
      <trkpt lat="53.7451956" lon="-2.9963832">
        <name>Seymour Road</name>
      </trkpt>
      <trkpt lat="53.7452728" lon="-2.9963376">
        <name>Seymour Road</name>
      </trkpt>
      <trkpt lat="53.7453500" lon="-2.9962920">
        <name>Seymour Road</name>
      </trkpt>
      <trkpt lat="53.7453785" lon="-2.9964360">
        <name>Woodlands Road</name>
      </trkpt>
      <trkpt lat="53.7454070" lon="-2.9965800">
        <name>Woodlands Road</name>
      </trkpt>
      <trkpt lat="53.7454328" lon="-2.9967102">
        <name>Woodlands Road</name>
      </trkpt>
      <trkpt lat="53.7454587" lon="-2.9968403">
        <name>Woodlands Road</name>
      </trkpt>
      <trkpt lat="53.7454845" lon="-2.9969705">
        <name>Woodlands Road</name>
      </trkpt>
      <trkpt lat="53.7455103" lon="-2.9971007">
        <name>Woodlands Road</name>
      </trkpt>
      <trkpt lat="53.7455362" lon="-2.9972308">
        <name>Woodlands Road</name>
      </trkpt>
      <trkpt lat="53.7455620" lon="-2.9973610">
        <name>Woodlands Road</name>
      </trkpt>
      <trkpt lat="53.7455720" lon="-2.9974140">
        <name>Commonside</name>
      </trkpt>
      <trkpt lat="53.7456548" lon="-2.9973755">
        <name>Commonside</name>
      </trkpt>
      <trkpt lat="53.7457377" lon="-2.9973370">
        <name>Commonside</name>
      </trkpt>
      <trkpt lat="53.7458205" lon="-2.9972985">
        <name>Commonside</name>
      </trkpt>
      <trkpt lat="53.7459033" lon="-2.9972600">
        <name>Commonside</name>
      </trkpt>
      <trkpt lat="53.7459862" lon="-2.9972215">
        <name>Commonside</name>
      </trkpt>
      <trkpt lat="53.7460690" lon="-2.9971830">
        <name>Commonside</name>
      </trkpt>
      <trkpt lat="53.7461460" lon="-2.9971470">
        <name>Commonside</name>
      </trkpt>
      <trkpt lat="53.7462230" lon="-2.9971110">
        <name>Commonside</name>
      </trkpt>
    </trkseg>
  </trk>
</gpx>